{
"type": "FeatureCollection",
"name": "克什米尔_面",
"crs": { "type": "name", "properties": { "name": "urn:ogc:def:crs:EPSG::4979" } },
"features": [
{ "type": "Feature", "id": "003F45E5C537FE5755AF", "properties": { "name": "克什米尔", "styleUrl": "#__managed_style_09DAFB39B737FE5755B8", "styleMapHash": { "normal": "#__managed_style_110F4E475B37FE5755B8", "highlight": "#__managed_style_22ED70F68A37FE5755B8" } }, "geometry": { "type": "Polygon", "coordinates": [ [ [ 73.670866044716433, 36.882867641570328, 0.0 ], [ 73.882057813772775, 36.70351123056453, 0.0 ], [ 73.077432004872804, 36.689825984788968, 0.0 ], [ 72.60532851009242, 36.246832566180657, 0.0 ], [ 72.537873653453445, 35.913263072784581, 0.0 ], [ 72.802340676862542, 35.828467367131893, 0.0 ], [ 73.110715189004168, 35.844350817423233, 0.0 ], [ 73.425049533131201, 35.527921945965552, 0.0 ], [ 73.774488664344062, 35.525638816253569, 0.0 ], [ 74.011293699554471, 34.88339811746836, 0.0 ], [ 73.481440162030154, 34.516248398804812, 0.0 ], [ 73.646710117771775, 33.069417289817437, 0.0 ], [ 74.35459, 32.768701, 0.0 ], [ 74.663281, 32.757666, 0.0 ], [ 74.685742, 32.493799, 0.0 ], [ 75.333496, 32.279199, 0.0 ], [ 75.536080890433496, 32.303970241707958, 0.0 ], [ 75.949050180901764, 32.627829748924853, 0.0 ], [ 75.79538516366668, 32.907913394347332, 0.0 ], [ 76.818760489781823, 33.23791066249477, 0.0 ], [ 77.348282456822076, 32.81143735520137, 0.0 ], [ 77.705427240372245, 32.976502326053208, 0.0 ], [ 77.988789637531511, 32.625594935565303, 0.0 ], [ 78.380406700623794, 32.754339046870143, 0.0 ], [ 78.290455196206565, 32.461135694304303, 0.0 ], [ 78.389648, 32.519873, 0.0 ], [ 78.733729338842863, 32.71874799793391, 0.0 ], [ 78.918945, 32.358203, 0.0 ], [ 79.219336, 32.501074, 0.0 ], [ 79.15880036157013, 33.180428008264471, 0.0 ], [ 78.788642820247816, 33.505841231404965, 0.0 ], [ 78.72666, 34.013379, 0.0 ], [ 79.022533574380034, 34.329543452479349, 0.0 ], [ 78.326953, 34.606396, 0.0 ], [ 78.052395402892429, 35.189854661157028, 0.0 ], [ 78.019854080578384, 35.344425942148767, 0.0 ], [ 78.125613378099047, 35.47865889669422, 0.0 ], [ 77.799414, 35.495898, 0.0 ], [ 77.430042613636232, 35.464422068181825, 0.0 ], [ 77.332418646694094, 35.525437047520668, 0.0 ], [ 76.766895, 35.661719, 0.0 ], [ 75.912305, 36.048975, 0.0 ], [ 75.961615444214743, 36.558624030991744, 0.0 ], [ 75.708403279958546, 36.743702801652923, 0.0 ], [ 75.468411027892429, 36.727432140495893, 0.0 ], [ 75.393159220041198, 36.94708606611573, 0.0 ], [ 74.827753744834581, 37.036574702479363, 0.0 ], [ 74.541406, 37.022168, 0.0 ], [ 74.101675490702334, 36.841326768595067, 0.0 ], [ 73.672536802685812, 36.908443245867794, 0.0 ], [ 73.670866044716433, 36.882867641570328, 0.0 ] ] ] } }
]
}
