{
"type": "FeatureCollection",
"name": "未定国界",
"crs": { "type": "name", "properties": { "name": "urn:ogc:def:crs:EPSG::4979" } },
"features": [
{ "type": "Feature", "id": "02EAEF36833A63252CF8", "properties": { "name": "中塔", "styleUrl": "#__managed_style_05FB2916EE3A63252D00", "styleMapHash": { "normal": "#__managed_style_1B76BF1DD73A63252D00", "highlight": "#__managed_style_2213DBB33A3A63252D00" } }, "geometry": { "type": "LineString", "coordinates": [ [ 73.801841735839844, 38.607753753662109, 0.0 ], [ 74.019305268594891, 38.544661608471095, 0.0 ], [ 74.202350206611428, 38.617879583677706, 0.0 ], [ 74.678267045454405, 38.422631649793409, 0.0 ], [ 74.999612603305636, 37.784008199380182, 0.0 ], [ 74.901988636363498, 37.678248901859526, 0.0 ], [ 74.983341942148613, 37.531812951446298, 0.0 ], [ 75.137913223140345, 37.438256649793409, 0.0 ], [ 75.121642561983322, 37.324362021694235, 0.0 ], [ 74.891309, 37.231641, 0.0 ] ] } },
{ "type": "Feature", "id": "01486A2A1C3A632BC836", "properties": { "name": "印巴", "styleUrl": "#__managed_style_05FB2916EE3A63252D00", "styleMapHash": { "normal": "#__managed_style_1B76BF1DD73A63252D00", "highlight": "#__managed_style_2213DBB33A3A63252D00" } }, "geometry": null }
]
}
