{
"type": "FeatureCollection",
"name": "中国_县",
"crs": { "type": "name", "properties": { "name": "urn:ogc:def:crs:EPSG::4490" } },
"features": [
{ "type": "Feature", "properties": { "name": "境界线", "gb": "" }, "geometry": { "type": "MultiLineString", "coordinates": [ [ [ 113.821275, 22.208039 ], [ 113.817101, 22.217098 ], [ 113.81913, 22.221788 ] ], [ [ 113.824152, 22.233394 ], [ 113.825028, 22.23542 ], [ 113.82666, 22.239187 ], [ 113.82763, 22.241429 ] ], [ [ 113.830342, 22.188361 ], [ 113.826472, 22.19676 ] ], [ [ 113.832461, 22.252595 ], [ 113.838433, 22.266397 ] ], [ [ 113.851391, 22.171653 ], [ 113.838984, 22.179653 ] ], [ [ 113.847721, 22.273998 ], [ 113.850469, 22.281622 ] ], [ [ 113.854499, 22.292797 ], [ 113.859892, 22.307757 ] ], [ [ 113.869084, 22.160243 ], [ 113.86254, 22.164463 ] ], [ [ 113.863836, 22.318694 ], [ 113.866617, 22.326407 ] ], [ [ 113.869102, 22.338413 ], [ 113.869102, 22.351952 ] ], [ [ 113.869102, 22.365671 ], [ 113.869102, 22.372977 ] ], [ [ 113.869102, 22.385111 ], [ 113.869102, 22.400121 ] ], [ [ 113.869102, 22.412363 ], [ 113.869102, 22.420347 ] ], [ [ 113.873671, 22.431332 ], [ 113.887207, 22.438831 ] ], [ [ 113.893129, 22.144738 ], [ 113.880311, 22.153003 ] ], [ [ 113.898457, 22.445064 ], [ 113.906218, 22.449364 ] ], [ [ 113.913998, 22.138589 ], [ 113.904632, 22.140694 ] ], [ [ 113.917691, 22.45572 ], [ 113.931324, 22.463273 ] ], [ [ 113.940204, 22.1485 ], [ 113.939598, 22.1485 ], [ 113.926546, 22.139544 ] ], [ [ 113.942004, 22.46919 ], [ 113.9478, 22.472401 ], [ 113.949705, 22.473919 ] ], [ [ 113.961121, 22.1485 ], [ 113.951801, 22.1485 ] ], [ [ 113.960043, 22.482158 ], [ 113.971979, 22.491669 ] ], [ [ 113.989522, 22.1485 ], [ 113.974569, 22.1485 ] ], [ [ 113.981601, 22.499337 ], [ 113.988565, 22.504887 ] ], [ [ 113.999619, 22.50898 ], [ 113.999847, 22.508924 ], [ 114.000679, 22.508415 ], [ 114.001572, 22.507872 ], [ 114.003036, 22.506979 ], [ 114.004738, 22.505941 ], [ 114.006447, 22.5049 ], [ 114.007256, 22.504408 ], [ 114.010475, 22.502449 ], [ 114.011208, 22.502003 ], [ 114.01191, 22.501574 ], [ 114.013237, 22.500767 ], [ 114.013489, 22.500885 ] ], [ [ 114.01276, 22.1485 ], [ 114.00405, 22.1485 ] ], [ [ 114.024364, 22.505981 ], [ 114.024933, 22.506248 ], [ 114.026047, 22.506769 ], [ 114.026795, 22.506542 ], [ 114.027374, 22.506367 ], [ 114.030304, 22.505482 ], [ 114.031204, 22.505211 ], [ 114.032387, 22.504854 ], [ 114.033287, 22.504581 ], [ 114.033763, 22.504437 ] ], [ [ 114.04042, 22.1485 ], [ 114.026214, 22.1485 ] ], [ [ 114.047056, 22.502863 ], [ 114.047523, 22.502665 ], [ 114.048332, 22.502384 ], [ 114.049049, 22.502295 ], [ 114.050034, 22.502178 ], [ 114.051147, 22.502125 ], [ 114.052162, 22.502333 ], [ 114.0531, 22.50256 ], [ 114.054039, 22.502768 ], [ 114.054947, 22.503311 ], [ 114.055672, 22.503799 ], [ 114.056412, 22.504278 ], [ 114.056839, 22.504776 ], [ 114.057136, 22.505516 ], [ 114.057411, 22.506384 ], [ 114.057347, 22.507223 ] ], [ [ 114.063647, 22.1485 ], [ 114.055287, 22.1485 ] ], [ [ 114.067065, 22.517373 ], [ 114.067421, 22.517469 ], [ 114.068443, 22.517633 ], [ 114.069519, 22.517725 ], [ 114.070381, 22.517742 ], [ 114.071404, 22.517834 ], [ 114.072243, 22.517853 ], [ 114.073334, 22.517809 ], [ 114.073868, 22.517601 ], [ 114.074493, 22.517113 ], [ 114.075101, 22.516646 ] ], [ [ 114.09311, 22.1485 ], [ 114.077638, 22.1485 ] ], [ [ 114.084105, 22.520467 ], [ 114.084381, 22.520876 ], [ 114.084717, 22.522005 ], [ 114.084877, 22.523079 ], [ 114.085007, 22.524019 ], [ 114.084908, 22.524958 ], [ 114.084587, 22.525581 ], [ 114.08358, 22.52614 ], [ 114.082153, 22.526762 ], [ 114.080856, 22.527222 ], [ 114.080017, 22.527754 ], [ 114.079407, 22.528215 ], [ 114.079063, 22.529289 ], [ 114.079041, 22.530003 ], [ 114.079407, 22.530626 ], [ 114.079987, 22.531267 ], [ 114.080673, 22.531765 ], [ 114.081268, 22.531973 ], [ 114.082107, 22.532181 ], [ 114.082669, 22.532217 ] ], [ [ 114.093173, 22.537224 ], [ 114.093437, 22.536991 ], [ 114.094307, 22.536097 ], [ 114.095367, 22.535294 ], [ 114.095879, 22.534851 ], [ 114.096947, 22.534599 ], [ 114.097908, 22.534527 ], [ 114.098824, 22.534546 ], [ 114.099587, 22.534727 ], [ 114.100126, 22.534864 ] ], [ [ 114.114911, 22.1485 ], [ 114.105843, 22.1485 ] ], [ [ 114.108, 22.535534 ], [ 114.108391, 22.535788 ], [ 114.108833, 22.535923 ], [ 114.109108, 22.535715 ], [ 114.109329, 22.535091 ], [ 114.109299, 22.533945 ], [ 114.109299, 22.532915 ], [ 114.10939, 22.532156 ], [ 114.109627, 22.531488 ], [ 114.110046, 22.531092 ], [ 114.110893, 22.530405 ], [ 114.111763, 22.530197 ], [ 114.112472, 22.530035 ], [ 114.113342, 22.530306 ], [ 114.114227, 22.530903 ], [ 114.114921, 22.531445 ], [ 114.115272, 22.532068 ], [ 114.115547, 22.533243 ], [ 114.115578, 22.533857 ], [ 114.115967, 22.534643 ], [ 114.11602, 22.534712 ] ], [ [ 114.125645, 22.540983 ], [ 114.125999, 22.540579 ], [ 114.126243, 22.5401 ], [ 114.12674, 22.539793 ], [ 114.127502, 22.539984 ], [ 114.128151, 22.540552 ], [ 114.128754, 22.541239 ], [ 114.129311, 22.541807 ], [ 114.129837, 22.542088 ], [ 114.130699, 22.542404 ], [ 114.131218, 22.542421 ], [ 114.131912, 22.542404 ], [ 114.132692, 22.542166 ] ], [ [ 114.143718, 22.1485 ], [ 114.129343, 22.1485 ] ], [ [ 114.145503, 22.541435 ], [ 114.147278, 22.541756 ], [ 114.14827, 22.542055 ], [ 114.148934, 22.542191 ], [ 114.149132, 22.542442 ], [ 114.14904, 22.542967 ], [ 114.148842, 22.543526 ], [ 114.148804, 22.543978 ], [ 114.148918, 22.544275 ], [ 114.149391, 22.544872 ], [ 114.149964, 22.545334 ], [ 114.150902, 22.545992 ], [ 114.151398, 22.546272 ], [ 114.151917, 22.546589 ], [ 114.152206, 22.546913 ], [ 114.152344, 22.547573 ], [ 114.152191, 22.548061 ], [ 114.15204, 22.548263 ] ], [ [ 114.157674, 22.557937 ], [ 114.158081, 22.558718 ], [ 114.158981, 22.559702 ], [ 114.159699, 22.560551 ], [ 114.16024, 22.561327 ], [ 114.160843, 22.562014 ], [ 114.161262, 22.562338 ], [ 114.161583, 22.562447 ], [ 114.16198, 22.56233 ], [ 114.1623, 22.561941 ], [ 114.162643, 22.561346 ], [ 114.163208, 22.560171 ], [ 114.163804, 22.559508 ] ], [ [ 114.166168, 22.1485 ], [ 114.157815, 22.1485 ] ], [ [ 114.175394, 22.560444 ], [ 114.175873, 22.560524 ], [ 114.176353, 22.560478 ], [ 114.176773, 22.560379 ], [ 114.17717, 22.5599 ], [ 114.177712, 22.558653 ], [ 114.177856, 22.557625 ], [ 114.178123, 22.556685 ], [ 114.178436, 22.556107 ], [ 114.178787, 22.555763 ], [ 114.179314, 22.555393 ], [ 114.179871, 22.55505 ], [ 114.180313, 22.554888 ], [ 114.180931, 22.55477 ], [ 114.181282, 22.55477 ], [ 114.181824, 22.55504 ], [ 114.182403, 22.555357 ], [ 114.183113, 22.5557 ], [ 114.183853, 22.555773 ], [ 114.184593, 22.5557 ], [ 114.185188, 22.555555 ], [ 114.185883, 22.555466 ], [ 114.186623, 22.555466 ], [ 114.187561, 22.555437 ], [ 114.187684, 22.555446 ] ], [ [ 114.194633, 22.1485 ], [ 114.180472, 22.1485 ] ], [ [ 114.200494, 22.557756 ], [ 114.20079, 22.557756 ], [ 114.201111, 22.557413 ], [ 114.201653, 22.556971 ], [ 114.202217, 22.5567 ], [ 114.203011, 22.556627 ], [ 114.203629, 22.556673 ], [ 114.20472, 22.556601 ], [ 114.205406, 22.556599 ], [ 114.206017, 22.556591 ], [ 114.206703, 22.556499 ], [ 114.207558, 22.556681 ], [ 114.208094, 22.556692 ] ], [ [ 114.217161, 22.1485 ], [ 114.208918, 22.1485 ] ], [ [ 114.220306, 22.553386 ], [ 114.221191, 22.552731 ], [ 114.221802, 22.552269 ], [ 114.222542, 22.551737 ], [ 114.223381, 22.551374 ], [ 114.223984, 22.551157 ], [ 114.224441, 22.550797 ], [ 114.224541, 22.550562 ], [ 114.225083, 22.550083 ], [ 114.225403, 22.549549 ], [ 114.225769, 22.549252 ], [ 114.22612, 22.549107 ], [ 114.226463, 22.549061 ], [ 114.226959, 22.548971 ], [ 114.227379, 22.548702 ], [ 114.227715, 22.548542 ], [ 114.226898, 22.548 ], [ 114.225693, 22.54599 ], [ 114.225899, 22.54496 ], [ 114.226303, 22.543699 ], [ 114.233597, 22.543699 ], [ 114.233647, 22.543799 ] ], [ [ 114.245331, 22.143689 ], [ 114.236, 22.1485 ], [ 114.231354, 22.1485 ] ], [ [ 114.241315, 22.552303 ], [ 114.248894, 22.555187 ], [ 114.256616, 22.558125 ] ], [ [ 114.264881, 22.141926 ], [ 114.257025, 22.139225 ] ], [ [ 114.269459, 22.563011 ], [ 114.276001, 22.5655 ], [ 114.276544, 22.565527 ] ], [ [ 114.292788, 22.148499 ], [ 114.283997, 22.148499 ], [ 114.278638, 22.146656 ] ], [ [ 114.290312, 22.566203 ], [ 114.306254, 22.566986 ] ], [ [ 114.314613, 22.148499 ], [ 114.30665, 22.148499 ] ], [ [ 114.320298, 22.567676 ], [ 114.328124, 22.568061 ] ], [ [ 114.344136, 22.148499 ], [ 114.328879, 22.148499 ] ], [ [ 114.342246, 22.567723 ], [ 114.356772, 22.566817 ] ], [ [ 114.365894, 22.148499 ], [ 114.358188, 22.148499 ] ], [ [ 114.37113, 22.565922 ], [ 114.37861, 22.565455 ] ], [ [ 114.395356, 22.1485 ], [ 114.379939, 22.148499 ] ], [ [ 114.392859, 22.564566 ], [ 114.408073, 22.563617 ] ], [ [ 114.417157, 22.1485 ], [ 114.409984, 22.1485 ] ], [ [ 114.421791, 22.562761 ], [ 114.430169, 22.562239 ] ], [ [ 114.446711, 22.1485 ], [ 114.432419, 22.1485 ] ], [ [ 114.441778, 22.555732 ], [ 114.453597, 22.546211 ] ], [ [ 114.454951, 22.487211 ], [ 114.454931, 22.479615 ] ], [ [ 114.455021, 22.513984 ], [ 114.454984, 22.500069 ] ], [ [ 114.455073, 22.534133 ], [ 114.455055, 22.52743 ] ], [ [ 114.455686, 22.466993 ], [ 114.461982, 22.453261 ] ], [ [ 114.468565, 22.1485 ], [ 114.460715, 22.1485 ] ], [ [ 114.467211, 22.441856 ], [ 114.470629, 22.434401 ] ], [ [ 114.475782, 22.423161 ], [ 114.481753, 22.410138 ] ], [ [ 114.498591, 22.1485 ], [ 114.483449, 22.1485 ] ], [ [ 114.486881, 22.398955 ], [ 114.490406, 22.391267 ] ], [ [ 114.495558, 22.38003 ], [ 114.501954, 22.366081 ] ], [ [ 114.502403, 22.165254 ], [ 114.502403, 22.157481 ] ], [ [ 114.502403, 22.19125 ], [ 114.502403, 22.177861 ] ], [ [ 114.502403, 22.211876 ], [ 114.502403, 22.205515 ] ], [ [ 114.502403, 22.239111 ], [ 114.502403, 22.225463 ] ], [ [ 114.502403, 22.259545 ], [ 114.502403, 22.251831 ] ], [ [ 114.502403, 22.286552 ], [ 114.502403, 22.272753 ] ], [ [ 114.502403, 22.306535 ], [ 114.502403, 22.298684 ] ], [ [ 114.502403, 22.333661 ], [ 114.502403, 22.319568 ] ], [ [ 114.502403, 22.353577 ], [ 114.502403, 22.346209 ] ] ] } },
{ "type": "Feature", "properties": { "name": "境界线", "gb": "" }, "geometry": { "type": "MultiLineString", "coordinates": [ [ [ 108.302017, 6.010893 ], [ 108.292625, 6.03628 ], [ 108.287407, 6.050397 ], [ 108.280479, 6.071635 ], [ 108.277649, 6.080288 ], [ 108.269173, 6.106273 ], [ 108.264671, 6.126832 ], [ 108.261398, 6.141786 ], [ 108.257744, 6.165651 ], [ 108.25602, 6.1769 ], [ 108.254723, 6.185413 ], [ 108.25222, 6.201733 ], [ 108.248405, 6.219611 ], [ 108.24334, 6.243341 ], [ 108.240623, 6.258852 ], [ 108.23896, 6.268365 ], [ 108.236771, 6.280871 ], [ 108.235001, 6.290999 ], [ 108.233803, 6.297837 ], [ 108.231255, 6.312435 ], [ 108.227547, 6.333612 ], [ 108.225716, 6.351564 ], [ 108.224632, 6.362193 ], [ 108.223206, 6.376132 ], [ 108.221405, 6.393827 ], [ 108.219917, 6.408367 ], [ 108.218613, 6.423369 ], [ 108.217155, 6.440057 ], [ 108.215851, 6.455039 ], [ 108.213348, 6.483758 ], [ 108.209923, 6.508235 ], [ 108.207924, 6.522497 ], [ 108.204979, 6.543493 ], [ 108.204979, 6.566827 ], [ 108.204979, 6.580382 ], [ 108.204979, 6.602169 ], [ 108.204597, 6.618296 ], [ 108.204163, 6.636432 ], [ 108.203812, 6.651154 ], [ 108.2033, 6.67275 ], [ 108.202721, 6.696953 ], [ 108.203506, 6.714972 ], [ 108.204216, 6.731264 ], [ 108.204758, 6.743689 ], [ 108.205452, 6.759747 ], [ 108.206154, 6.775832 ], [ 108.206612, 6.786382 ], [ 108.207237, 6.800765 ], [ 108.207916, 6.828713 ], [ 108.20829, 6.844109 ], [ 108.208641, 6.858369 ], [ 108.209068, 6.876093 ], [ 108.209488, 6.893293 ], [ 108.211754, 6.911796 ], [ 108.213226, 6.92383 ], [ 108.214996, 6.938251 ], [ 108.216766, 6.952711 ], [ 108.218491, 6.96682 ], [ 108.220703, 6.984875 ], [ 108.22303, 7.003875 ], [ 108.226433, 7.024957 ], [ 108.228371, 7.036969 ], [ 108.23027, 7.048789 ], [ 108.234314, 7.073835 ] ], [ [ 109.301506, 16.199545 ], [ 109.308434, 16.188772 ], [ 109.311356, 16.184229 ], [ 109.315285, 16.178116 ], [ 109.319458, 16.171621 ], [ 109.328346, 16.157795 ], [ 109.340019, 16.143152 ], [ 109.347908, 16.133261 ], [ 109.353348, 16.126438 ], [ 109.363892, 16.113211 ], [ 109.371254, 16.103607 ], [ 109.374207, 16.099752 ], [ 109.378952, 16.093561 ], [ 109.385185, 16.08544 ], [ 109.392845, 16.075447 ], [ 109.399872, 16.06628 ], [ 109.410736, 16.05179 ], [ 109.415138, 16.045925 ], [ 109.420967, 16.038147 ], [ 109.428024, 16.028736 ], [ 109.435677, 16.019157 ], [ 109.446739, 16.005301 ], [ 109.451012, 16.000193 ], [ 109.457802, 15.992115 ], [ 109.468239, 15.979663 ], [ 109.480522, 15.965022 ], [ 109.491219, 15.95298 ], [ 109.503563, 15.939085 ], [ 109.521988, 15.918343 ], [ 109.529099, 15.907442 ], [ 109.539917, 15.890857 ], [ 109.546921, 15.880122 ], [ 109.561638, 15.861392 ], [ 109.572105, 15.84807 ], [ 109.581337, 15.83632 ], [ 109.592995, 15.815694 ], [ 109.601669, 15.80034 ], [ 109.612793, 15.783652 ], [ 109.626701, 15.762795 ], [ 109.63475, 15.749176 ], [ 109.647034, 15.728379 ], [ 109.653496, 15.71684 ], [ 109.668938, 15.689271 ], [ 109.682526, 15.662103 ], [ 109.687714, 15.651726 ], [ 109.700317, 15.626519 ], [ 109.706482, 15.614182 ], [ 109.716133, 15.593739 ], [ 109.726257, 15.572297 ], [ 109.731331, 15.560544 ], [ 109.738564, 15.543777 ], [ 109.747437, 15.523216 ], [ 109.75341, 15.50937 ], [ 109.761597, 15.487532 ], [ 109.767632, 15.471441 ], [ 109.776878, 15.446795 ], [ 109.780731, 15.434813 ], [ 109.787491, 15.41376 ], [ 109.790955, 15.402993 ], [ 109.797058, 15.377584 ], [ 109.800346, 15.363884 ], [ 109.808678, 15.341375 ], [ 109.815987, 15.321647 ], [ 109.821053, 15.303424 ], [ 109.825844, 15.286159 ], [ 109.831635, 15.26533 ], [ 109.835037, 15.250028 ], [ 109.841019, 15.223092 ], [ 109.843178, 15.210135 ], [ 109.847275, 15.185548 ], [ 109.855095, 15.158954 ] ], [ [ 110.32325, 12.2405 ], [ 110.322731, 12.224792 ], [ 110.322319, 12.212411 ], [ 110.321663, 12.192419 ], [ 110.322548, 12.175995 ], [ 110.323219, 12.163427 ], [ 110.323799, 12.152676 ], [ 110.324394, 12.133566 ], [ 110.324623, 12.126224 ], [ 110.324944, 12.115867 ], [ 110.324341, 12.10252 ], [ 110.324028, 12.095669 ], [ 110.323715, 12.088772 ], [ 110.322693, 12.066217 ], [ 110.322693, 12.050181 ], [ 110.322693, 12.027207 ], [ 110.322693, 12.022385 ], [ 110.322693, 12.009798 ], [ 110.321228, 12.000064 ], [ 110.321228, 12.000011 ], [ 110.317513, 11.975298 ], [ 110.315918, 11.964663 ], [ 110.31366, 11.924041 ], [ 110.309959, 11.895653 ], [ 110.306892, 11.872135 ], [ 110.300125, 11.822486 ], [ 110.29287, 11.78742 ], [ 110.286583, 11.757039 ], [ 110.277748, 11.714339 ], [ 110.273041, 11.691592 ], [ 110.269066, 11.678527 ], [ 110.25724, 11.639687 ], [ 110.249153, 11.608955 ], [ 110.245956, 11.596808 ], [ 110.236443, 11.574202 ], [ 110.227905, 11.553929 ], [ 110.223251, 11.540742 ], [ 110.214363, 11.515564 ], [ 110.200821, 11.495253 ], [ 110.191139, 11.471743 ], [ 110.185028, 11.456888 ], [ 110.171486, 11.429807 ], [ 110.155685, 11.402725 ], [ 110.137634, 11.375644 ], [ 110.121834, 11.344048 ], [ 110.099266, 11.30794 ], [ 110.085732, 11.283116 ], [ 110.074448, 11.267319 ], [ 110.065414, 11.251521 ] ], [ [ 111.794563, 3.408477 ], [ 111.821922, 3.411471 ], [ 111.840874, 3.413544 ], [ 111.861366, 3.415786 ], [ 111.889923, 3.421995 ], [ 111.911034, 3.426584 ], [ 111.934196, 3.431619 ], [ 111.959671, 3.436714 ], [ 111.997528, 3.444286 ], [ 112.033562, 3.453294 ], [ 112.06086, 3.460119 ], [ 112.08239, 3.466099 ], [ 112.117859, 3.475952 ], [ 112.160095, 3.486191 ], [ 112.19944, 3.495729 ], [ 112.222359, 3.501285 ], [ 112.264526, 3.51253 ], [ 112.29277, 3.520061 ], [ 112.31736, 3.526618 ], [ 112.355019, 3.538306 ], [ 112.389931, 3.549141 ], [ 112.409187, 3.555118 ], [ 112.433487, 3.563751 ], [ 112.466454, 3.575463 ], [ 112.491905, 3.584506 ], [ 112.510429, 3.591405 ], [ 112.545845, 3.604597 ], [ 112.586693, 3.620614 ], [ 112.631828, 3.638669 ], [ 112.664337, 3.653446 ], [ 112.681473, 3.661236 ], [ 112.706039, 3.673518 ], [ 112.722099, 3.681547 ], [ 112.767967, 3.703345 ], [ 112.790695, 3.714231 ], [ 112.802834, 3.720045 ], [ 112.817291, 3.726969 ], [ 112.84948, 3.744957 ] ], [ [ 115.544106, 7.158346 ], [ 115.61055, 7.236786 ], [ 115.62529, 7.254191 ], [ 115.643219, 7.275356 ], [ 115.666687, 7.303065 ], [ 115.68457, 7.324175 ], [ 115.706772, 7.35039 ], [ 115.729309, 7.376991 ], [ 115.748711, 7.399901 ], [ 115.760811, 7.414183 ], [ 115.785019, 7.442763 ], [ 115.797249, 7.457201 ], [ 115.80706, 7.468786 ], [ 115.819908, 7.483953 ], [ 115.835258, 7.50207 ], [ 115.851486, 7.521231 ], [ 115.865036, 7.537231 ], [ 115.881149, 7.556257 ], [ 115.896019, 7.573803 ], [ 115.907417, 7.587264 ], [ 115.923332, 7.606054 ], [ 115.937126, 7.622336 ], [ 115.95668, 7.645423 ], [ 115.973106, 7.664811 ], [ 115.982368, 7.675746 ], [ 116.002441, 7.699443 ], [ 116.014145, 7.713265 ], [ 116.031586, 7.733856 ], [ 116.052917, 7.759043 ], [ 116.077171, 7.78767 ], [ 116.105888, 7.821571 ], [ 116.129295, 7.849209 ], [ 116.155701, 7.880377 ], [ 116.1782, 7.90694 ], [ 116.203156, 7.936407 ], [ 116.234688, 7.973633 ], [ 116.242157, 7.98245 ] ], [ [ 118.538605, 10.906545 ], [ 118.552765, 10.93133 ], [ 118.565681, 10.953938 ], [ 118.588249, 10.990046 ], [ 118.608566, 11.030667 ], [ 118.618324, 11.045851 ], [ 118.628876, 11.062263 ], [ 118.635063, 11.077288 ], [ 118.644669, 11.100628 ], [ 118.664986, 11.138993 ], [ 118.674393, 11.157813 ], [ 118.687553, 11.184129 ], [ 118.702469, 11.216672 ], [ 118.712372, 11.238291 ], [ 118.721443, 11.258698 ], [ 118.730431, 11.278913 ], [ 118.739761, 11.297572 ], [ 118.748482, 11.315022 ], [ 118.760315, 11.339758 ], [ 118.773308, 11.366927 ], [ 118.793617, 11.41432 ], [ 118.809418, 11.457198 ], [ 118.818329, 11.482934 ], [ 118.823746, 11.498583 ], [ 118.829727, 11.515875 ], [ 118.845528, 11.551983 ], [ 118.854088, 11.575531 ], [ 118.863579, 11.601632 ], [ 118.870468, 11.619713 ], [ 118.88163, 11.649025 ], [ 118.888268, 11.668931 ], [ 118.89743, 11.696417 ], [ 118.90274, 11.713094 ], [ 118.913231, 11.746066 ], [ 118.922256, 11.768634 ], [ 118.929024, 11.800228 ], [ 118.936218, 11.821808 ], [ 118.947083, 11.854391 ], [ 118.952232, 11.877563 ], [ 118.956108, 11.895013 ], [ 118.9627, 11.920073 ], [ 118.967392, 11.937892 ], [ 118.973724, 11.962483 ], [ 118.978142, 11.979657 ] ], [ [ 119.06131, 16.028913 ], [ 119.061249, 16.0 ], [ 119.061226, 15.989388 ], [ 119.061203, 15.980456 ], [ 119.061188, 15.973825 ], [ 119.061172, 15.967414 ], [ 119.061157, 15.959853 ], [ 119.061134, 15.951133 ], [ 119.061119, 15.9413 ], [ 119.061104, 15.934659 ], [ 119.061081, 15.925718 ], [ 119.061066, 15.919068 ], [ 119.06105, 15.911737 ], [ 119.061035, 15.904636 ], [ 119.06102, 15.897277 ], [ 119.060997, 15.888577 ], [ 119.060982, 15.882385 ], [ 119.060974, 15.875735 ], [ 119.060951, 15.868404 ], [ 119.060944, 15.862433 ], [ 119.060928, 15.855094 ], [ 119.060905, 15.847974 ], [ 119.060898, 15.842004 ], [ 119.060883, 15.834435 ], [ 119.06086, 15.825264 ], [ 119.060844, 15.817454 ], [ 119.060829, 15.810353 ], [ 119.060814, 15.803473 ], [ 119.060783, 15.79248 ], [ 119.060768, 15.78447 ], [ 119.060753, 15.778508 ], [ 119.060738, 15.770028 ], [ 119.060722, 15.76221 ], [ 119.060692, 15.751448 ], [ 119.060677, 15.742488 ], [ 119.060654, 15.732398 ], [ 119.060638, 15.724597 ], [ 119.060608, 15.712658 ], [ 119.060593, 15.705777 ], [ 119.060577, 15.696598 ], [ 119.060555, 15.688107 ], [ 119.060532, 15.677088 ], [ 119.060509, 15.665837 ], [ 119.060478, 15.654828 ], [ 119.060455, 15.643569 ], [ 119.060432, 15.632788 ], [ 119.06041, 15.623598 ], [ 119.060394, 15.615799 ], [ 119.060379, 15.607769 ], [ 119.060356, 15.599719 ], [ 119.060341, 15.591008 ], [ 119.060318, 15.582067 ], [ 119.060303, 15.573135 ], [ 119.06028, 15.56277 ], [ 119.060257, 15.55474 ], [ 119.060242, 15.546028 ], [ 119.060219, 15.536848 ], [ 119.060204, 15.528587 ], [ 119.060181, 15.517807 ], [ 119.060158, 15.509326 ], [ 119.06012, 15.492327 ], [ 119.060104, 15.483358 ], [ 119.060081, 15.474868 ], [ 119.060051, 15.461557 ], [ 119.060036, 15.453959 ], [ 119.060013, 15.443629 ], [ 119.059998, 15.436749 ], [ 119.059975, 15.424119 ], [ 119.059952, 15.414019 ], [ 119.059921, 15.402328 ], [ 119.059898, 15.391308 ], [ 119.059875, 15.380305 ], [ 119.059845, 15.368117 ], [ 119.059822, 15.355259 ], [ 119.059792, 15.34308 ], [ 119.059761, 15.33023 ], [ 119.059738, 15.32035 ], [ 119.059715, 15.309798 ], [ 119.0597, 15.301317 ], [ 119.059669, 15.28959 ], [ 119.059631, 15.271891 ], [ 119.059608, 15.259693 ], [ 119.059578, 15.246171 ], [ 119.059547, 15.232833 ], [ 119.059517, 15.217673 ], [ 119.059464, 15.196066 ], [ 119.059433, 15.180226 ], [ 119.059387, 15.161608 ], [ 119.059364, 15.148536 ], [ 119.059334, 15.136136 ], [ 119.059303, 15.120967 ], [ 119.059265, 15.10372 ], [ 119.059227, 15.08765 ], [ 119.059189, 15.069749 ], [ 119.059151, 15.054819 ], [ 119.059052, 15.008851 ] ], [ [ 119.998688, 18.990286 ], [ 119.995224, 18.984531 ], [ 119.983696, 18.965414 ], [ 119.965858, 18.93581 ], [ 119.947266, 18.904963 ], [ 119.912979, 18.851633 ], [ 119.868782, 18.782883 ], [ 119.834824, 18.7244 ], [ 119.809822, 18.681335 ], [ 119.790298, 18.647722 ], [ 119.769684, 18.612545 ], [ 119.760201, 18.596371 ], [ 119.74752, 18.574739 ], [ 119.735115, 18.553583 ], [ 119.716179, 18.52128 ], [ 119.694473, 18.483295 ], [ 119.684723, 18.466227 ], [ 119.646423, 18.3992 ], [ 119.630646, 18.367657 ], [ 119.618675, 18.343712 ], [ 119.608994, 18.324345 ], [ 119.581017, 18.2684 ], [ 119.563278, 18.225527 ], [ 119.553116, 18.200974 ], [ 119.528702, 18.141958 ], [ 119.508705, 18.096527 ], [ 119.498352, 18.073006 ], [ 119.489563, 18.053022 ], [ 119.473083, 18.015577 ] ], [ [ 121.91169, 21.697515 ], [ 121.905472, 21.690176 ], [ 121.883789, 21.664574 ], [ 121.852882, 21.628082 ], [ 121.833488, 21.605179 ], [ 121.809631, 21.577019 ], [ 121.801949, 21.567945 ], [ 121.795998, 21.560913 ], [ 121.783859, 21.546583 ], [ 121.771736, 21.532269 ], [ 121.761101, 21.519712 ], [ 121.750465, 21.50716 ], [ 121.741364, 21.496412 ], [ 121.728477, 21.481197 ], [ 121.718849, 21.469824 ], [ 121.709953, 21.459324 ], [ 121.695549, 21.442316 ], [ 121.686996, 21.432213 ], [ 121.677895, 21.421474 ], [ 121.669983, 21.41213 ], [ 121.661423, 21.40202 ], [ 121.653854, 21.393084 ], [ 121.648331, 21.386566 ], [ 121.639565, 21.376215 ], [ 121.627235, 21.361654 ], [ 121.618546, 21.351398 ], [ 121.612366, 21.344105 ], [ 121.603516, 21.333654 ], [ 121.597557, 21.326614 ], [ 121.590942, 21.31881 ], [ 121.583809, 21.310381 ], [ 121.57795, 21.303465 ], [ 121.572632, 21.297188 ], [ 121.560928, 21.283367 ], [ 121.556374, 21.27799 ], [ 121.550209, 21.270712 ], [ 121.542618, 21.261747 ], [ 121.536972, 21.255081 ], [ 121.530136, 21.247015 ], [ 121.525597, 21.241655 ], [ 121.517372, 21.231941 ], [ 121.511864, 21.225435 ], [ 121.505699, 21.218161 ], [ 121.500954, 21.212555 ], [ 121.493607, 21.203876 ], [ 121.487221, 21.196342 ], [ 121.480408, 21.188295 ], [ 121.472931, 21.179464 ], [ 121.467079, 21.172554 ], [ 121.461227, 21.165651 ], [ 121.456024, 21.15951 ], [ 121.44783, 21.149828 ], [ 121.44175, 21.142654 ], [ 121.435356, 21.135103 ], [ 121.429604, 21.128313 ], [ 121.422134, 21.119495 ], [ 121.417374, 21.113874 ], [ 121.413155, 21.108894 ], [ 121.406227, 21.100708 ], [ 121.39962, 21.092909 ], [ 121.393669, 21.085882 ], [ 121.387924, 21.079103 ], [ 121.380997, 21.070923 ], [ 121.373543, 21.062122 ], [ 121.365013, 21.052046 ], [ 121.356888, 21.042456 ], [ 121.349228, 21.033411 ], [ 121.341118, 21.023836 ], [ 121.3368, 21.018738 ], [ 121.331924, 21.012978 ], [ 121.326958, 21.007113 ], [ 121.321541, 21.000721 ], [ 121.315269, 20.993317 ], [ 121.309998, 20.987087 ], [ 121.304703, 20.980843 ], [ 121.300697, 20.97611 ], [ 121.295837, 20.970367 ], [ 121.289978, 20.963453 ], [ 121.284019, 20.956413 ], [ 121.278061, 20.949383 ], [ 121.269821, 20.939653 ], [ 121.263016, 20.931618 ], [ 121.257607, 20.925234 ], [ 121.250908, 20.917324 ], [ 121.246368, 20.911961 ], [ 121.240723, 20.905293 ], [ 121.231735, 20.894684 ], [ 121.226006, 20.887922 ], [ 121.220924, 20.88192 ], [ 121.214462, 20.874287 ], [ 121.209381, 20.868294 ], [ 121.203979, 20.86191 ], [ 121.200516, 20.857824 ], [ 121.197693, 20.854488 ], [ 121.193817, 20.849913 ], [ 121.189087, 20.84433 ], [ 121.186234, 20.840963 ], [ 121.183067, 20.837225 ], [ 121.178207, 20.831482 ], [ 121.174026, 20.826548 ] ] ] } },
{ "type": "Feature", "properties": { "name": "境界线", "gb": "" }, "geometry": { "type": "MultiLineString", "coordinates": [ [ [ 121.267601, 30.70163 ], [ 121.269135, 30.700472 ], [ 121.272629, 30.697828 ], [ 121.275154, 30.693754 ], [ 121.278954, 30.691318 ], [ 121.284088, 30.688915 ], [ 121.292908, 30.687517 ], [ 121.310852, 30.683346 ], [ 121.330536, 30.68289 ], [ 121.344391, 30.682064 ], [ 121.36863, 30.680555 ], [ 121.385399, 30.679792 ], [ 121.406174, 30.678431 ], [ 121.428482, 30.679167 ], [ 121.442284, 30.680168 ], [ 121.463493, 30.682016 ], [ 121.489998, 30.684443 ], [ 121.494995, 30.68479 ], [ 121.513031, 30.684832 ], [ 121.532654, 30.686407 ] ], [ [ 121.33136, 31.505905 ], [ 121.332901, 31.50695 ], [ 121.3554, 31.524221 ], [ 121.37532, 31.538677 ], [ 121.382355, 31.545032 ], [ 121.364998, 31.559324 ], [ 121.351563, 31.567404 ], [ 121.337563, 31.574839 ], [ 121.324448, 31.579649 ], [ 121.313949, 31.585772 ], [ 121.305641, 31.595831 ], [ 121.298202, 31.604578 ], [ 121.289459, 31.615513 ], [ 121.281143, 31.626448 ], [ 121.276337, 31.634756 ], [ 121.258118, 31.652081 ], [ 121.234139, 31.670788 ], [ 121.19867, 31.695185 ], [ 121.162949, 31.718645 ], [ 121.122238, 31.745878 ], [ 121.10331, 31.756884 ], [ 121.095299, 31.763113 ], [ 121.102943, 31.767431 ], [ 121.117714, 31.775599 ], [ 121.126053, 31.783146 ], [ 121.139145, 31.793333 ], [ 121.148682, 31.802752 ], [ 121.157936, 31.809855 ], [ 121.168663, 31.818605 ], [ 121.180206, 31.827146 ], [ 121.191513, 31.832943 ], [ 121.201782, 31.83881 ], [ 121.221222, 31.848349 ], [ 121.235985, 31.853531 ], [ 121.257523, 31.860327 ], [ 121.26915, 31.866224 ], [ 121.282356, 31.869593 ], [ 121.289795, 31.871572 ], [ 121.299576, 31.870594 ], [ 121.307404, 31.868639 ], [ 121.317673, 31.864239 ], [ 121.328918, 31.860327 ], [ 121.338837, 31.857157 ], [ 121.351791, 31.852882 ], [ 121.361374, 31.850033 ], [ 121.367264, 31.848284 ], [ 121.369507, 31.845167 ], [ 121.374397, 31.839788 ], [ 121.378792, 31.83392 ], [ 121.381241, 31.829519 ], [ 121.384949, 31.826069 ], [ 121.386848, 31.824346 ], [ 121.387802, 31.823477 ], [ 121.389099, 31.821146 ], [ 121.392723, 31.815187 ], [ 121.397644, 31.81156 ], [ 121.403084, 31.807804 ], [ 121.406715, 31.803141 ], [ 121.407234, 31.797182 ], [ 121.4049, 31.794332 ], [ 121.407234, 31.790445 ], [ 121.410599, 31.784487 ], [ 121.412933, 31.780601 ], [ 121.416039, 31.775679 ], [ 121.423325, 31.770502 ], [ 121.431702, 31.768238 ], [ 121.442116, 31.763258 ], [ 121.452751, 31.76009 ], [ 121.462029, 31.757826 ], [ 121.473122, 31.755789 ], [ 121.474159, 31.75565 ], [ 121.483307, 31.754431 ], [ 121.488792, 31.75345 ], [ 121.495987, 31.752167 ], [ 121.500282, 31.748999 ], [ 121.50843, 31.742888 ], [ 121.518616, 31.740171 ], [ 121.526993, 31.738813 ], [ 121.532875, 31.73587 ], [ 121.53537, 31.731117 ], [ 121.541252, 31.72908 ], [ 121.547142, 31.727949 ], [ 121.552345, 31.724327 ], [ 121.559585, 31.719347 ], [ 121.566376, 31.714821 ], [ 121.574524, 31.710293 ], [ 121.578148, 31.708483 ], [ 121.58403, 31.706219 ], [ 121.58992, 31.703503 ], [ 121.59761, 31.703503 ], [ 121.598518, 31.708483 ], [ 121.606667, 31.704861 ], [ 121.614815, 31.701693 ], [ 121.618439, 31.699429 ], [ 121.628311, 31.695389 ], [ 121.628395, 31.695354 ], [ 121.634285, 31.696712 ], [ 121.639717, 31.697618 ], [ 121.652573, 31.693916 ], [ 121.678642, 31.684942 ], [ 121.706261, 31.675888 ], [ 121.727081, 31.669552 ], [ 121.746551, 31.663214 ], [ 121.777786, 31.65416 ], [ 121.797707, 31.648727 ], [ 121.820336, 31.643295 ], [ 121.847046, 31.637863 ], [ 121.875214, 31.633331 ] ], [ [ 121.573288, 30.690618 ], [ 121.583855, 30.692913 ], [ 121.593605, 30.695646 ], [ 121.601532, 30.697422 ], [ 121.609192, 30.699421 ], [ 121.613121, 30.701342 ], [ 121.621849, 30.702904 ], [ 121.636963, 30.70437 ], [ 121.64994, 30.70602 ], [ 121.662201, 30.704895 ] ], [ [ 121.789955, 30.71966 ], [ 121.809021, 30.722563 ], [ 121.823067, 30.724445 ], [ 121.844727, 30.729689 ], [ 121.868431, 30.738411 ], [ 121.888641, 30.748442 ], [ 121.905632, 30.759554 ], [ 121.913177, 30.766123 ] ], [ [ 122.009468, 30.803625 ], [ 122.024399, 30.81308 ], [ 122.040985, 30.820494 ], [ 122.058357, 30.828377 ], [ 122.072273, 30.83597 ], [ 122.088097, 30.842218 ], [ 122.104759, 30.846642 ], [ 122.120376, 30.850355 ], [ 122.134377, 30.855188 ] ], [ [ 122.361175, 30.88208 ], [ 122.381409, 30.882395 ], [ 122.396309, 30.88308 ], [ 122.411484, 30.88331 ], [ 122.430611, 30.885893 ], [ 122.45533, 30.888098 ], [ 122.479553, 30.888914 ], [ 122.501053, 30.892439 ] ], [ [ 122.639252, 30.922363 ], [ 122.667687, 30.926186 ], [ 122.692864, 30.933399 ], [ 122.728676, 30.942354 ], [ 122.755737, 30.948891 ], [ 122.782791, 30.956114 ] ] ] } },
{ "type": "Feature", "properties": { "name": "宜兰县", "gb": "156710021" }, "geometry": { "type": "MultiPolygon", "coordinates": [ [ [ [ 121.852274, 24.891279 ], [ 121.8305, 24.851214 ], [ 121.819011, 24.797804 ], [ 121.819265, 24.757947 ], [ 121.836543, 24.713899 ], [ 121.843375, 24.650173 ], [ 121.857288, 24.61863 ], [ 121.858131, 24.597051 ], [ 121.871951, 24.584476 ], [ 121.872386, 24.531801 ], [ 121.841879, 24.520372 ], [ 121.839953, 24.498311 ], [ 121.85139, 24.483957 ], [ 121.800883, 24.433982 ], [ 121.78927, 24.399706 ], [ 121.787238, 24.373351 ], [ 121.770676, 24.333847 ], [ 121.773553, 24.314522 ], [ 121.759593, 24.31406 ], [ 121.74458, 24.322879 ], [ 121.674842, 24.337754 ], [ 121.6538, 24.355585 ], [ 121.649652, 24.355335 ], [ 121.648614, 24.349592 ], [ 121.631127, 24.370518 ], [ 121.620376, 24.363217 ], [ 121.621889, 24.357017 ], [ 121.635455, 24.347582 ], [ 121.632998, 24.335108 ], [ 121.628886, 24.333536 ], [ 121.622377, 24.340001 ], [ 121.599403, 24.333425 ], [ 121.605762, 24.309448 ], [ 121.597044, 24.316311 ], [ 121.566509, 24.319185 ], [ 121.545228, 24.337709 ], [ 121.519019, 24.341448 ], [ 121.498164, 24.339253 ], [ 121.450999, 24.365395 ], [ 121.446148, 24.375107 ], [ 121.432698, 24.383907 ], [ 121.399821, 24.38012 ], [ 121.3812, 24.367522 ], [ 121.373049, 24.368475 ], [ 121.364007, 24.389506 ], [ 121.353945, 24.393599 ], [ 121.339139, 24.391249 ], [ 121.326608, 24.398848 ], [ 121.327404, 24.433404 ], [ 121.316739, 24.441709 ], [ 121.342724, 24.482111 ], [ 121.357561, 24.486429 ], [ 121.400278, 24.531155 ], [ 121.394735, 24.555836 ], [ 121.403611, 24.568771 ], [ 121.41233, 24.57344 ], [ 121.403025, 24.591725 ], [ 121.412741, 24.602592 ], [ 121.420153, 24.601409 ], [ 121.427611, 24.605767 ], [ 121.451344, 24.650957 ], [ 121.447988, 24.658929 ], [ 121.457393, 24.670985 ], [ 121.479845, 24.673776 ], [ 121.536587, 24.688333 ], [ 121.537856, 24.699887 ], [ 121.543254, 24.705662 ], [ 121.562684, 24.712862 ], [ 121.574672, 24.710074 ], [ 121.593632, 24.725625 ], [ 121.593685, 24.750133 ], [ 121.588966, 24.755119 ], [ 121.597578, 24.772208 ], [ 121.593471, 24.787269 ], [ 121.625428, 24.79506 ], [ 121.625797, 24.808782 ], [ 121.686201, 24.817517 ], [ 121.691686, 24.827143 ], [ 121.730516, 24.855299 ], [ 121.742928, 24.852445 ], [ 121.758569, 24.856745 ], [ 121.784335, 24.873644 ], [ 121.781883, 24.889023 ], [ 121.793561, 24.899688 ], [ 121.835987, 24.907932 ], [ 121.853921, 24.925718 ], [ 121.839053, 24.944831 ], [ 121.846917, 24.960296 ], [ 121.88758, 24.963738 ], [ 121.897105, 24.966992 ], [ 121.902836, 24.974399 ], [ 121.950525, 24.988347 ], [ 121.962697, 24.987798 ], [ 121.966004, 24.983106 ], [ 121.926408, 24.969346 ], [ 121.918788, 24.953811 ], [ 121.889436, 24.937222 ], [ 121.884491, 24.917314 ], [ 121.852274, 24.891279 ] ] ] ] } },
{ "type": "Feature", "properties": { "name": "新竹县", "gb": "156710020" }, "geometry": { "type": "MultiPolygon", "coordinates": [ [ [ [ 121.403025, 24.591725 ], [ 121.41233, 24.57344 ], [ 121.403611, 24.568771 ], [ 121.394735, 24.555836 ], [ 121.400278, 24.531155 ], [ 121.357561, 24.486429 ], [ 121.342724, 24.482111 ], [ 121.316739, 24.441709 ], [ 121.303951, 24.433053 ], [ 121.259462, 24.429121 ], [ 121.258104, 24.463271 ], [ 121.248657, 24.466374 ], [ 121.242674, 24.478127 ], [ 121.218647, 24.498296 ], [ 121.221858, 24.504698 ], [ 121.216055, 24.515465 ], [ 121.169266, 24.502597 ], [ 121.146038, 24.509754 ], [ 121.136852, 24.506659 ], [ 121.121945, 24.509028 ], [ 121.098236, 24.496459 ], [ 121.07291, 24.49881 ], [ 121.066995, 24.522815 ], [ 121.078237, 24.528779 ], [ 121.080519, 24.540895 ], [ 121.062716, 24.557459 ], [ 121.070568, 24.563358 ], [ 121.083085, 24.589983 ], [ 121.07518, 24.611867 ], [ 121.06251, 24.621794 ], [ 121.051864, 24.616392 ], [ 121.020643, 24.641175 ], [ 121.008195, 24.644386 ], [ 121.010284, 24.65621 ], [ 120.997133, 24.654627 ], [ 120.979874, 24.673438 ], [ 120.975593, 24.684495 ], [ 120.965545, 24.684694 ], [ 120.976669, 24.706411 ], [ 120.973812, 24.711873 ], [ 120.952893, 24.705055 ], [ 120.935435, 24.712604 ], [ 120.944161, 24.744281 ], [ 120.95778, 24.745699 ], [ 120.97129, 24.765031 ], [ 120.979498, 24.763308 ], [ 120.984182, 24.768082 ], [ 120.985817, 24.776933 ], [ 120.993072, 24.780586 ], [ 121.009778, 24.773742 ], [ 121.020622, 24.756607 ], [ 121.033552, 24.76376 ], [ 121.029848, 24.766582 ], [ 121.022421, 24.800899 ], [ 121.008373, 24.816118 ], [ 120.97816, 24.829718 ], [ 120.955301, 24.834342 ], [ 120.933648, 24.852764 ], [ 120.97214, 24.928694 ], [ 120.986036, 24.939449 ], [ 120.992666, 24.936815 ], [ 121.008075, 24.945342 ], [ 121.025664, 24.940462 ], [ 121.038029, 24.946371 ], [ 121.046084, 24.942683 ], [ 121.055841, 24.936482 ], [ 121.060731, 24.92454 ], [ 121.057943, 24.905454 ], [ 121.091176, 24.893387 ], [ 121.106138, 24.896639 ], [ 121.110521, 24.884869 ], [ 121.122039, 24.880249 ], [ 121.15571, 24.880654 ], [ 121.161389, 24.859493 ], [ 121.152765, 24.846101 ], [ 121.160058, 24.837381 ], [ 121.176269, 24.831943 ], [ 121.209547, 24.809497 ], [ 121.219508, 24.810478 ], [ 121.221632, 24.799342 ], [ 121.242852, 24.808358 ], [ 121.258475, 24.785674 ], [ 121.276939, 24.771085 ], [ 121.292462, 24.767663 ], [ 121.306584, 24.752581 ], [ 121.298109, 24.733571 ], [ 121.30761, 24.719961 ], [ 121.299858, 24.694964 ], [ 121.303878, 24.6929 ], [ 121.317412, 24.698117 ], [ 121.324402, 24.694793 ], [ 121.338507, 24.679981 ], [ 121.339791, 24.670389 ], [ 121.353103, 24.66532 ], [ 121.352413, 24.643549 ], [ 121.365583, 24.631752 ], [ 121.358816, 24.616656 ], [ 121.366661, 24.599325 ], [ 121.387161, 24.586557 ], [ 121.403025, 24.591725 ] ] ] ] } },
{ "type": "Feature", "properties": { "name": "彰化县", "gb": "156710023" }, "geometry": { "type": "MultiPolygon", "coordinates": [ [ [ [ 120.678665, 24.014031 ], [ 120.672552, 24.005797 ], [ 120.642363, 24.008925 ], [ 120.636085, 23.998392 ], [ 120.650195, 23.9838 ], [ 120.646862, 23.963407 ], [ 120.633975, 23.952445 ], [ 120.634994, 23.898609 ], [ 120.619904, 23.868364 ], [ 120.626644, 23.856163 ], [ 120.622158, 23.840862 ], [ 120.63705, 23.832776 ], [ 120.638746, 23.822682 ], [ 120.650481, 23.813129 ], [ 120.676338, 23.819225 ], [ 120.679035, 23.80586 ], [ 120.664266, 23.792336 ], [ 120.64035, 23.786038 ], [ 120.586928, 23.791918 ], [ 120.55107, 23.801212 ], [ 120.50883, 23.800425 ], [ 120.453545, 23.817003 ], [ 120.433149, 23.830157 ], [ 120.411441, 23.826504 ], [ 120.370311, 23.828558 ], [ 120.35814, 23.822806 ], [ 120.30814, 23.820298 ], [ 120.256157, 23.833793 ], [ 120.242238, 23.84233 ], [ 120.260402, 23.862008 ], [ 120.287093, 23.87469 ], [ 120.319095, 23.935839 ], [ 120.304405, 23.940629 ], [ 120.329995, 23.988659 ], [ 120.344048, 23.990232 ], [ 120.371525, 24.039825 ], [ 120.377526, 24.076519 ], [ 120.39684, 24.085696 ], [ 120.426267, 24.084265 ], [ 120.436512, 24.121433 ], [ 120.404017, 24.125866 ], [ 120.438644, 24.158177 ], [ 120.459673, 24.159029 ], [ 120.485905, 24.197417 ], [ 120.508344, 24.186774 ], [ 120.52184, 24.156737 ], [ 120.523633, 24.139565 ], [ 120.545041, 24.117034 ], [ 120.566276, 24.109658 ], [ 120.612511, 24.102541 ], [ 120.6185, 24.075479 ], [ 120.625452, 24.06874 ], [ 120.625131, 24.030184 ], [ 120.644679, 24.025861 ], [ 120.65809, 24.028246 ], [ 120.678665, 24.014031 ] ] ] ] } },
{ "type": "Feature", "properties": { "name": "云林县", "gb": "156710022" }, "geometry": { "type": "MultiPolygon", "coordinates": [ [ [ [ 120.256157, 23.833793 ], [ 120.30814, 23.820298 ], [ 120.35814, 23.822806 ], [ 120.370311, 23.828558 ], [ 120.411441, 23.826504 ], [ 120.433149, 23.830157 ], [ 120.453545, 23.817003 ], [ 120.50883, 23.800425 ], [ 120.55107, 23.801212 ], [ 120.586928, 23.791918 ], [ 120.64035, 23.786038 ], [ 120.655781, 23.75473 ], [ 120.655207, 23.737734 ], [ 120.644275, 23.736713 ], [ 120.639707, 23.729189 ], [ 120.6391, 23.710613 ], [ 120.644923, 23.701571 ], [ 120.648074, 23.68279 ], [ 120.629092, 23.63518 ], [ 120.630708, 23.622253 ], [ 120.634398, 23.619426 ], [ 120.644836, 23.630884 ], [ 120.653261, 23.627318 ], [ 120.651709, 23.616264 ], [ 120.669108, 23.60918 ], [ 120.683543, 23.610677 ], [ 120.691104, 23.620153 ], [ 120.705139, 23.617108 ], [ 120.719712, 23.628401 ], [ 120.73056, 23.618436 ], [ 120.73086, 23.610763 ], [ 120.72486, 23.603627 ], [ 120.731485, 23.595588 ], [ 120.736154, 23.570449 ], [ 120.717658, 23.569048 ], [ 120.69354, 23.576319 ], [ 120.676215, 23.570505 ], [ 120.669986, 23.578503 ], [ 120.656024, 23.572238 ], [ 120.643464, 23.575607 ], [ 120.649204, 23.583575 ], [ 120.648552, 23.593419 ], [ 120.623257, 23.589831 ], [ 120.618886, 23.584133 ], [ 120.589801, 23.585725 ], [ 120.581303, 23.582112 ], [ 120.556908, 23.59258 ], [ 120.536894, 23.594749 ], [ 120.510248, 23.619341 ], [ 120.50376, 23.635276 ], [ 120.444553, 23.630543 ], [ 120.425221, 23.61801 ], [ 120.406618, 23.625187 ], [ 120.404606, 23.634187 ], [ 120.358978, 23.594982 ], [ 120.335646, 23.592796 ], [ 120.333106, 23.579121 ], [ 120.32716, 23.574273 ], [ 120.307377, 23.574627 ], [ 120.310595, 23.564481 ], [ 120.29021, 23.562425 ], [ 120.290881, 23.550748 ], [ 120.276408, 23.5435 ], [ 120.271962, 23.530759 ], [ 120.263421, 23.53355 ], [ 120.256106, 23.546075 ], [ 120.24355, 23.543757 ], [ 120.247063, 23.51514 ], [ 120.239094, 23.507683 ], [ 120.223039, 23.504308 ], [ 120.199323, 23.51305 ], [ 120.180942, 23.509871 ], [ 120.166557, 23.517217 ], [ 120.158121, 23.515923 ], [ 120.145841, 23.520805 ], [ 120.139566, 23.549769 ], [ 120.143957, 23.649327 ], [ 120.163185, 23.68335 ], [ 120.173575, 23.736162 ], [ 120.181752, 23.756635 ], [ 120.170966, 23.77239 ], [ 120.181914, 23.798641 ], [ 120.210506, 23.821085 ], [ 120.227456, 23.84667 ], [ 120.242238, 23.84233 ], [ 120.256157, 23.833793 ] ] ] ] } },
{ "type": "Feature", "properties": { "name": "台南市", "gb": "156710014" }, "geometry": { "type": "MultiPolygon", "coordinates": [ [ [ [ 120.653499, 23.224541 ], [ 120.656253, 23.217847 ], [ 120.636946, 23.191322 ], [ 120.640041, 23.183423 ], [ 120.636175, 23.175131 ], [ 120.613418, 23.159206 ], [ 120.611781, 23.151619 ], [ 120.59902, 23.141058 ], [ 120.588459, 23.123439 ], [ 120.588133, 23.114176 ], [ 120.570521, 23.086065 ], [ 120.554417, 23.068786 ], [ 120.529991, 23.05575 ], [ 120.503739, 23.028646 ], [ 120.484044, 23.017027 ], [ 120.479891, 23.002682 ], [ 120.462622, 23.003209 ], [ 120.453004, 22.977759 ], [ 120.44263, 22.977353 ], [ 120.416065, 22.916021 ], [ 120.409213, 22.913269 ], [ 120.398581, 22.922443 ], [ 120.381468, 22.919856 ], [ 120.353084, 22.891449 ], [ 120.338946, 22.889341 ], [ 120.332205, 22.889351 ], [ 120.324913, 22.900429 ], [ 120.284455, 22.904743 ], [ 120.277938, 22.904332 ], [ 120.279497, 22.896293 ], [ 120.258929, 22.90187 ], [ 120.258753, 22.895275 ], [ 120.254655, 22.894159 ], [ 120.231415, 22.910797 ], [ 120.215545, 22.910081 ], [ 120.192045, 22.921202 ], [ 120.17504, 22.911752 ], [ 120.172167, 22.94741 ], [ 120.156579, 22.97849 ], [ 120.110876, 23.01816 ], [ 120.053735, 23.048041 ], [ 120.031591, 23.073384 ], [ 120.035302, 23.101117 ], [ 120.061639, 23.14351 ], [ 120.069654, 23.183186 ], [ 120.080109, 23.203598 ], [ 120.097855, 23.294811 ], [ 120.115732, 23.323031 ], [ 120.118067, 23.340185 ], [ 120.147501, 23.32069 ], [ 120.149711, 23.313199 ], [ 120.168573, 23.306826 ], [ 120.178572, 23.291797 ], [ 120.189069, 23.290238 ], [ 120.185789, 23.296589 ], [ 120.188429, 23.301235 ], [ 120.204218, 23.291948 ], [ 120.212354, 23.291673 ], [ 120.222804, 23.298539 ], [ 120.237879, 23.326901 ], [ 120.255659, 23.330795 ], [ 120.267024, 23.34059 ], [ 120.267495, 23.344752 ], [ 120.260715, 23.344472 ], [ 120.266108, 23.352645 ], [ 120.273124, 23.352786 ], [ 120.27777, 23.347699 ], [ 120.286228, 23.350289 ], [ 120.285827, 23.367139 ], [ 120.292879, 23.375368 ], [ 120.31061, 23.377878 ], [ 120.314846, 23.388498 ], [ 120.324165, 23.384324 ], [ 120.333108, 23.385784 ], [ 120.348627, 23.401096 ], [ 120.414434, 23.411234 ], [ 120.430043, 23.406402 ], [ 120.441492, 23.413146 ], [ 120.472669, 23.398192 ], [ 120.479376, 23.387595 ], [ 120.490104, 23.395538 ], [ 120.494924, 23.394351 ], [ 120.498924, 23.38718 ], [ 120.484557, 23.379659 ], [ 120.483953, 23.369575 ], [ 120.504578, 23.368011 ], [ 120.512433, 23.359793 ], [ 120.510883, 23.354065 ], [ 120.504739, 23.354723 ], [ 120.505078, 23.344823 ], [ 120.530529, 23.337935 ], [ 120.539976, 23.327909 ], [ 120.522525, 23.311759 ], [ 120.526278, 23.295409 ], [ 120.520442, 23.271708 ], [ 120.532289, 23.255152 ], [ 120.527839, 23.245276 ], [ 120.51899, 23.239206 ], [ 120.525749, 23.231503 ], [ 120.543926, 23.22658 ], [ 120.558111, 23.216822 ], [ 120.565349, 23.220976 ], [ 120.577287, 23.216013 ], [ 120.590041, 23.231693 ], [ 120.609831, 23.222628 ], [ 120.628288, 23.229439 ], [ 120.653499, 23.224541 ] ] ] ] } },
{ "type": "Feature", "properties": { "name": "台东县", "gb": "156710013" }, "geometry": { "type": "MultiPolygon", "coordinates": [ [ [ [ 121.474611, 23.438636 ], [ 121.482582, 23.430116 ], [ 121.49582, 23.434675 ], [ 121.478089, 23.395834 ], [ 121.467758, 23.331565 ], [ 121.461623, 23.313273 ], [ 121.447248, 23.30996 ], [ 121.427779, 23.278778 ], [ 121.410027, 23.213528 ], [ 121.397492, 23.207867 ], [ 121.397754, 23.186117 ], [ 121.407373, 23.165734 ], [ 121.401135, 23.13039 ], [ 121.386477, 23.103169 ], [ 121.366904, 23.096562 ], [ 121.34831, 23.068069 ], [ 121.334556, 23.018329 ], [ 121.299719, 22.959757 ], [ 121.282063, 22.945916 ], [ 121.278147, 22.92984 ], [ 121.247338, 22.881434 ], [ 121.202042, 22.860379 ], [ 121.186391, 22.834333 ], [ 121.200901, 22.798733 ], [ 121.180148, 22.780049 ], [ 121.17299, 22.75542 ], [ 121.156887, 22.747424 ], [ 121.128036, 22.719926 ], [ 121.082432, 22.698789 ], [ 121.034748, 22.667027 ], [ 121.02229, 22.649204 ], [ 121.012586, 22.619474 ], [ 121.009185, 22.588953 ], [ 120.984999, 22.568764 ], [ 120.959221, 22.50416 ], [ 120.946375, 22.456778 ], [ 120.914883, 22.384921 ], [ 120.908853, 22.359244 ], [ 120.894901, 22.334488 ], [ 120.891913, 22.276891 ], [ 120.896276, 22.246378 ], [ 120.866256, 22.229806 ], [ 120.856195, 22.241206 ], [ 120.834608, 22.245308 ], [ 120.81521, 22.262866 ], [ 120.797868, 22.257846 ], [ 120.797925, 22.276268 ], [ 120.806692, 22.277209 ], [ 120.805591, 22.28405 ], [ 120.780616, 22.295045 ], [ 120.776885, 22.30281 ], [ 120.778134, 22.308558 ], [ 120.787275, 22.309239 ], [ 120.796727, 22.317447 ], [ 120.792613, 22.335541 ], [ 120.784864, 22.345692 ], [ 120.771292, 22.348522 ], [ 120.743463, 22.367343 ], [ 120.754879, 22.403948 ], [ 120.780458, 22.409458 ], [ 120.788841, 22.418546 ], [ 120.776173, 22.450188 ], [ 120.751037, 22.459013 ], [ 120.753374, 22.475183 ], [ 120.764315, 22.495201 ], [ 120.753645, 22.510981 ], [ 120.739079, 22.553684 ], [ 120.741572, 22.568718 ], [ 120.748796, 22.572099 ], [ 120.745817, 22.589582 ], [ 120.754773, 22.601215 ], [ 120.754476, 22.616007 ], [ 120.785839, 22.661436 ], [ 120.786223, 22.672024 ], [ 120.791594, 22.679288 ], [ 120.786952, 22.693124 ], [ 120.80845, 22.688577 ], [ 120.837847, 22.700881 ], [ 120.848583, 22.716972 ], [ 120.882815, 22.716667 ], [ 120.895059, 22.73866 ], [ 120.89478, 22.762514 ], [ 120.903852, 22.775645 ], [ 120.903348, 22.799779 ], [ 120.891158, 22.811638 ], [ 120.86857, 22.816913 ], [ 120.862549, 22.825901 ], [ 120.864651, 22.843099 ], [ 120.869575, 22.85751 ], [ 120.86489, 22.872456 ], [ 120.85971, 22.87834 ], [ 120.840423, 22.882011 ], [ 120.830399, 22.901942 ], [ 120.833274, 22.91229 ], [ 120.821818, 22.935211 ], [ 120.820803, 22.961892 ], [ 120.832443, 22.98035 ], [ 120.841155, 22.984021 ], [ 120.860605, 23.007974 ], [ 120.86187, 23.031064 ], [ 120.880092, 23.03602 ], [ 120.879751, 23.047708 ], [ 120.869155, 23.059694 ], [ 120.885563, 23.088921 ], [ 120.889391, 23.11006 ], [ 120.884965, 23.119281 ], [ 120.885678, 23.144446 ], [ 120.876393, 23.151347 ], [ 120.894975, 23.160685 ], [ 120.898539, 23.176466 ], [ 120.911101, 23.182301 ], [ 120.905883, 23.199388 ], [ 120.911595, 23.209194 ], [ 120.9158, 23.238004 ], [ 120.937745, 23.244798 ], [ 120.97213, 23.281931 ], [ 120.984413, 23.280977 ], [ 121.028349, 23.297136 ], [ 121.038897, 23.300633 ], [ 121.056214, 23.290407 ], [ 121.065013, 23.259423 ], [ 121.077519, 23.238514 ], [ 121.106121, 23.223961 ], [ 121.129276, 23.223332 ], [ 121.139799, 23.201538 ], [ 121.153847, 23.198908 ], [ 121.160983, 23.205997 ], [ 121.175767, 23.210126 ], [ 121.189398, 23.20378 ], [ 121.198198, 23.188454 ], [ 121.199196, 23.175179 ], [ 121.212072, 23.154285 ], [ 121.211947, 23.144216 ], [ 121.230864, 23.13928 ], [ 121.238511, 23.12872 ], [ 121.249218, 23.131523 ], [ 121.257681, 23.126069 ], [ 121.267214, 23.114182 ], [ 121.26735, 23.102879 ], [ 121.272374, 23.097856 ], [ 121.291514, 23.109371 ], [ 121.315905, 23.110351 ], [ 121.321976, 23.117186 ], [ 121.320351, 23.137768 ], [ 121.324598, 23.149334 ], [ 121.318551, 23.168144 ], [ 121.323803, 23.17871 ], [ 121.334979, 23.177972 ], [ 121.345972, 23.212084 ], [ 121.355852, 23.223946 ], [ 121.359367, 23.252602 ], [ 121.377668, 23.2711 ], [ 121.377841, 23.300893 ], [ 121.399905, 23.3232 ], [ 121.409473, 23.344927 ], [ 121.422201, 23.355229 ], [ 121.422689, 23.360063 ], [ 121.404283, 23.367327 ], [ 121.400301, 23.387089 ], [ 121.410374, 23.398728 ], [ 121.42024, 23.42062 ], [ 121.446797, 23.443704 ], [ 121.474611, 23.438636 ] ] ] ] } },
{ "type": "Feature", "properties": { "name": "新北市", "gb": "156710012" }, "geometry": { "type": "MultiPolygon", "coordinates": [ [ [ [ 121.708916, 25.175503 ], [ 121.66927, 25.153394 ], [ 121.626786, 25.139604 ], [ 121.62949, 25.133962 ], [ 121.643169, 25.127653 ], [ 121.648934, 25.101723 ], [ 121.655691, 25.09345 ], [ 121.688378, 25.071768 ], [ 121.71236, 25.068024 ], [ 121.730091, 25.053349 ], [ 121.745896, 25.052989 ], [ 121.771721, 25.063192 ], [ 121.775711, 25.070022 ], [ 121.769374, 25.077917 ], [ 121.761175, 25.078973 ], [ 121.759901, 25.100611 ], [ 121.755929, 25.108509 ], [ 121.74998, 25.109649 ], [ 121.77585, 25.118699 ], [ 121.794764, 25.112602 ], [ 121.804927, 25.125866 ], [ 121.803194, 25.135758 ], [ 121.81973, 25.122743 ], [ 121.840386, 25.128591 ], [ 121.866288, 25.122121 ], [ 121.907382, 25.121609 ], [ 121.922648, 25.106464 ], [ 121.913626, 25.085375 ], [ 121.930728, 25.064135 ], [ 121.928085, 25.040238 ], [ 121.945132, 25.02107 ], [ 121.976733, 25.026112 ], [ 121.997705, 25.019625 ], [ 122.00469, 25.002781 ], [ 121.966004, 24.983106 ], [ 121.962697, 24.987798 ], [ 121.950525, 24.988347 ], [ 121.902836, 24.974399 ], [ 121.897105, 24.966992 ], [ 121.88758, 24.963738 ], [ 121.846917, 24.960296 ], [ 121.839053, 24.944831 ], [ 121.853921, 24.925718 ], [ 121.835987, 24.907932 ], [ 121.793561, 24.899688 ], [ 121.781883, 24.889023 ], [ 121.784335, 24.873644 ], [ 121.758569, 24.856745 ], [ 121.742928, 24.852445 ], [ 121.730516, 24.855299 ], [ 121.691686, 24.827143 ], [ 121.686201, 24.817517 ], [ 121.625797, 24.808782 ], [ 121.625428, 24.79506 ], [ 121.593471, 24.787269 ], [ 121.597578, 24.772208 ], [ 121.588966, 24.755119 ], [ 121.593685, 24.750133 ], [ 121.593632, 24.725625 ], [ 121.574672, 24.710074 ], [ 121.562684, 24.712862 ], [ 121.543254, 24.705662 ], [ 121.537856, 24.699887 ], [ 121.536587, 24.688333 ], [ 121.479845, 24.673776 ], [ 121.473902, 24.685456 ], [ 121.474196, 24.696055 ], [ 121.450081, 24.70585 ], [ 121.423301, 24.761899 ], [ 121.449521, 24.786036 ], [ 121.45037, 24.790925 ], [ 121.437609, 24.796285 ], [ 121.436559, 24.812039 ], [ 121.402967, 24.843468 ], [ 121.388079, 24.842388 ], [ 121.373561, 24.833274 ], [ 121.354806, 24.843982 ], [ 121.336082, 24.843835 ], [ 121.337207, 24.848395 ], [ 121.352893, 24.849208 ], [ 121.356215, 24.85464 ], [ 121.35071, 24.859285 ], [ 121.349514, 24.868892 ], [ 121.354367, 24.873646 ], [ 121.342045, 24.890829 ], [ 121.322042, 24.899001 ], [ 121.326211, 24.909156 ], [ 121.317555, 24.916348 ], [ 121.324624, 24.923361 ], [ 121.339776, 24.928497 ], [ 121.322046, 24.928166 ], [ 121.315777, 24.938476 ], [ 121.32802, 24.948994 ], [ 121.327256, 24.978331 ], [ 121.34207, 24.98101 ], [ 121.369041, 24.976815 ], [ 121.38538, 24.985934 ], [ 121.384135, 24.995682 ], [ 121.394017, 24.993397 ], [ 121.403152, 24.999215 ], [ 121.391176, 25.012081 ], [ 121.411552, 25.019307 ], [ 121.398278, 25.030087 ], [ 121.393576, 25.041964 ], [ 121.400453, 25.043373 ], [ 121.400688, 25.051363 ], [ 121.390873, 25.054458 ], [ 121.38999, 25.061679 ], [ 121.378797, 25.06565 ], [ 121.354897, 25.065135 ], [ 121.347942, 25.073794 ], [ 121.340611, 25.073843 ], [ 121.342462, 25.080093 ], [ 121.348779, 25.081196 ], [ 121.346173, 25.083654 ], [ 121.29162, 25.102645 ], [ 121.282725, 25.109673 ], [ 121.283558, 25.117278 ], [ 121.304845, 25.126118 ], [ 121.332842, 25.124698 ], [ 121.371306, 25.138468 ], [ 121.402035, 25.158811 ], [ 121.416026, 25.189249 ], [ 121.440477, 25.220647 ], [ 121.447614, 25.245995 ], [ 121.473031, 25.254284 ], [ 121.477716, 25.266049 ], [ 121.512808, 25.285707 ], [ 121.540397, 25.295035 ], [ 121.578052, 25.298309 ], [ 121.617595, 25.277599 ], [ 121.633093, 25.259852 ], [ 121.634159, 25.239538 ], [ 121.671239, 25.202494 ], [ 121.685779, 25.207703 ], [ 121.691351, 25.181153 ], [ 121.708916, 25.175503 ] ], [ [ 121.583742, 25.19458 ], [ 121.57291, 25.194974 ], [ 121.559166, 25.210131 ], [ 121.542769, 25.188815 ], [ 121.522211, 25.17822 ], [ 121.519969, 25.169288 ], [ 121.505401, 25.172584 ], [ 121.465702, 25.131693 ], [ 121.457097, 25.108536 ], [ 121.46613, 25.101716 ], [ 121.488727, 25.097147 ], [ 121.506074, 25.07472 ], [ 121.503219, 25.048328 ], [ 121.486294, 25.032742 ], [ 121.488178, 25.015442 ], [ 121.4927, 25.009485 ], [ 121.50937, 25.021438 ], [ 121.518487, 25.019937 ], [ 121.532189, 25.008039 ], [ 121.529572, 24.994294 ], [ 121.544597, 24.984067 ], [ 121.550861, 24.985396 ], [ 121.561242, 24.964683 ], [ 121.601183, 24.960891 ], [ 121.620002, 24.969361 ], [ 121.600529, 24.979836 ], [ 121.597386, 25.014659 ], [ 121.610299, 25.01989 ], [ 121.623265, 25.017256 ], [ 121.635688, 25.023863 ], [ 121.663249, 25.022943 ], [ 121.665042, 25.029575 ], [ 121.650214, 25.027621 ], [ 121.6219, 25.040075 ], [ 121.616547, 25.047941 ], [ 121.618882, 25.068021 ], [ 121.628156, 25.088216 ], [ 121.615537, 25.103768 ], [ 121.596521, 25.11126 ], [ 121.607843, 25.130198 ], [ 121.596861, 25.142663 ], [ 121.587914, 25.162964 ], [ 121.57704, 25.16699 ], [ 121.583742, 25.19458 ] ] ] ] } },
{ "type": "Feature", "properties": { "name": "屏东县", "gb": "156710011" }, "geometry": { "type": "MultiPolygon", "coordinates": [ [ [ [ 120.864651, 22.843099 ], [ 120.862549, 22.825901 ], [ 120.86857, 22.816913 ], [ 120.891158, 22.811638 ], [ 120.903348, 22.799779 ], [ 120.903852, 22.775645 ], [ 120.89478, 22.762514 ], [ 120.895059, 22.73866 ], [ 120.882815, 22.716667 ], [ 120.848583, 22.716972 ], [ 120.837847, 22.700881 ], [ 120.80845, 22.688577 ], [ 120.786952, 22.693124 ], [ 120.791594, 22.679288 ], [ 120.786223, 22.672024 ], [ 120.785839, 22.661436 ], [ 120.754476, 22.616007 ], [ 120.754773, 22.601215 ], [ 120.745817, 22.589582 ], [ 120.748796, 22.572099 ], [ 120.741572, 22.568718 ], [ 120.739079, 22.553684 ], [ 120.753645, 22.510981 ], [ 120.764315, 22.495201 ], [ 120.753374, 22.475183 ], [ 120.751037, 22.459013 ], [ 120.776173, 22.450188 ], [ 120.788841, 22.418546 ], [ 120.780458, 22.409458 ], [ 120.754879, 22.403948 ], [ 120.743463, 22.367343 ], [ 120.771292, 22.348522 ], [ 120.784864, 22.345692 ], [ 120.792613, 22.335541 ], [ 120.796727, 22.317447 ], [ 120.787275, 22.309239 ], [ 120.778134, 22.308558 ], [ 120.776885, 22.30281 ], [ 120.780616, 22.295045 ], [ 120.805591, 22.28405 ], [ 120.806692, 22.277209 ], [ 120.797925, 22.276268 ], [ 120.797868, 22.257846 ], [ 120.81521, 22.262866 ], [ 120.834608, 22.245308 ], [ 120.856195, 22.241206 ], [ 120.866256, 22.229806 ], [ 120.896276, 22.246378 ], [ 120.898952, 22.229861 ], [ 120.890708, 22.195912 ], [ 120.894236, 22.172041 ], [ 120.885779, 22.13271 ], [ 120.898768, 22.09419 ], [ 120.891368, 22.086348 ], [ 120.893382, 22.048768 ], [ 120.900994, 22.033913 ], [ 120.876685, 22.011615 ], [ 120.875241, 21.999903 ], [ 120.8458, 21.988208 ], [ 120.841047, 21.94948 ], [ 120.861505, 21.917147 ], [ 120.848373, 21.900952 ], [ 120.822145, 21.934715 ], [ 120.782382, 21.944366 ], [ 120.766319, 21.95894 ], [ 120.743636, 21.944486 ], [ 120.739586, 21.919891 ], [ 120.727149, 21.918766 ], [ 120.710243, 21.939719 ], [ 120.714322, 21.980821 ], [ 120.687219, 22.020621 ], [ 120.687198, 22.032816 ], [ 120.706642, 22.066935 ], [ 120.701251, 22.086089 ], [ 120.716889, 22.093291 ], [ 120.709996, 22.123833 ], [ 120.698024, 22.143946 ], [ 120.686567, 22.20654 ], [ 120.670259, 22.236091 ], [ 120.649621, 22.257355 ], [ 120.642737, 22.302534 ], [ 120.606019, 22.341069 ], [ 120.592416, 22.364726 ], [ 120.548435, 22.39612 ], [ 120.452018, 22.448001 ], [ 120.424059, 22.477028 ], [ 120.422851, 22.518425 ], [ 120.442055, 22.560185 ], [ 120.447043, 22.586514 ], [ 120.445477, 22.599569 ], [ 120.433662, 22.617777 ], [ 120.436081, 22.661415 ], [ 120.454755, 22.71351 ], [ 120.453797, 22.769435 ], [ 120.468773, 22.830676 ], [ 120.474077, 22.836807 ], [ 120.509712, 22.828943 ], [ 120.52301, 22.832935 ], [ 120.553227, 22.828383 ], [ 120.605358, 22.872996 ], [ 120.644932, 22.885156 ], [ 120.657991, 22.879827 ], [ 120.66056, 22.859975 ], [ 120.672228, 22.856369 ], [ 120.691661, 22.867128 ], [ 120.70434, 22.880542 ], [ 120.725042, 22.880803 ], [ 120.7551, 22.864642 ], [ 120.778806, 22.83519 ], [ 120.792581, 22.84102 ], [ 120.793527, 22.85211 ], [ 120.802181, 22.852013 ], [ 120.825297, 22.866439 ], [ 120.837412, 22.86411 ], [ 120.846897, 22.852085 ], [ 120.851686, 22.85579 ], [ 120.864651, 22.843099 ] ] ] ] } },
{ "type": "Feature", "properties": { "name": "桃园市", "gb": "156710018" }, "geometry": { "type": "MultiPolygon", "coordinates": [ [ [ [ 121.283558, 25.117278 ], [ 121.282725, 25.109673 ], [ 121.29162, 25.102645 ], [ 121.346173, 25.083654 ], [ 121.348779, 25.081196 ], [ 121.342462, 25.080093 ], [ 121.340611, 25.073843 ], [ 121.347942, 25.073794 ], [ 121.354897, 25.065135 ], [ 121.378797, 25.06565 ], [ 121.38999, 25.061679 ], [ 121.390873, 25.054458 ], [ 121.400688, 25.051363 ], [ 121.400453, 25.043373 ], [ 121.393576, 25.041964 ], [ 121.398278, 25.030087 ], [ 121.411552, 25.019307 ], [ 121.391176, 25.012081 ], [ 121.403152, 24.999215 ], [ 121.394017, 24.993397 ], [ 121.384135, 24.995682 ], [ 121.38538, 24.985934 ], [ 121.369041, 24.976815 ], [ 121.34207, 24.98101 ], [ 121.327256, 24.978331 ], [ 121.32802, 24.948994 ], [ 121.315777, 24.938476 ], [ 121.322046, 24.928166 ], [ 121.339776, 24.928497 ], [ 121.324624, 24.923361 ], [ 121.317555, 24.916348 ], [ 121.326211, 24.909156 ], [ 121.322042, 24.899001 ], [ 121.342045, 24.890829 ], [ 121.354367, 24.873646 ], [ 121.349514, 24.868892 ], [ 121.35071, 24.859285 ], [ 121.356215, 24.85464 ], [ 121.352893, 24.849208 ], [ 121.337207, 24.848395 ], [ 121.336082, 24.843835 ], [ 121.354806, 24.843982 ], [ 121.373561, 24.833274 ], [ 121.388079, 24.842388 ], [ 121.402967, 24.843468 ], [ 121.436559, 24.812039 ], [ 121.437609, 24.796285 ], [ 121.45037, 24.790925 ], [ 121.449521, 24.786036 ], [ 121.423301, 24.761899 ], [ 121.450081, 24.70585 ], [ 121.474196, 24.696055 ], [ 121.473902, 24.685456 ], [ 121.479845, 24.673776 ], [ 121.457393, 24.670985 ], [ 121.447988, 24.658929 ], [ 121.451344, 24.650957 ], [ 121.427611, 24.605767 ], [ 121.420153, 24.601409 ], [ 121.412741, 24.602592 ], [ 121.403025, 24.591725 ], [ 121.387161, 24.586557 ], [ 121.366661, 24.599325 ], [ 121.358816, 24.616656 ], [ 121.365583, 24.631752 ], [ 121.352413, 24.643549 ], [ 121.353103, 24.66532 ], [ 121.339791, 24.670389 ], [ 121.338507, 24.679981 ], [ 121.324402, 24.694793 ], [ 121.317412, 24.698117 ], [ 121.303878, 24.6929 ], [ 121.299858, 24.694964 ], [ 121.30761, 24.719961 ], [ 121.298109, 24.733571 ], [ 121.306584, 24.752581 ], [ 121.292462, 24.767663 ], [ 121.276939, 24.771085 ], [ 121.258475, 24.785674 ], [ 121.242852, 24.808358 ], [ 121.221632, 24.799342 ], [ 121.219508, 24.810478 ], [ 121.209547, 24.809497 ], [ 121.176269, 24.831943 ], [ 121.160058, 24.837381 ], [ 121.152765, 24.846101 ], [ 121.161389, 24.859493 ], [ 121.15571, 24.880654 ], [ 121.122039, 24.880249 ], [ 121.110521, 24.884869 ], [ 121.106138, 24.896639 ], [ 121.091176, 24.893387 ], [ 121.057943, 24.905454 ], [ 121.060731, 24.92454 ], [ 121.055841, 24.936482 ], [ 121.046084, 24.942683 ], [ 121.038029, 24.946371 ], [ 121.025664, 24.940462 ], [ 121.008075, 24.945342 ], [ 120.992666, 24.936815 ], [ 120.986036, 24.939449 ], [ 121.01244, 24.974286 ], [ 121.010447, 24.987232 ], [ 121.03005, 25.01963 ], [ 121.051878, 25.041873 ], [ 121.074246, 25.047931 ], [ 121.119952, 25.074729 ], [ 121.173233, 25.085973 ], [ 121.212252, 25.108746 ], [ 121.260379, 25.121992 ], [ 121.283558, 25.117278 ] ] ] ] } },
{ "type": "Feature", "properties": { "name": "台中市", "gb": "156710016" }, "geometry": { "type": "MultiPolygon", "coordinates": [ [ [ [ 121.450999, 24.365395 ], [ 121.436697, 24.352306 ], [ 121.430593, 24.320914 ], [ 121.422527, 24.308867 ], [ 121.4044, 24.305548 ], [ 121.401863, 24.296241 ], [ 121.380957, 24.278353 ], [ 121.384633, 24.255516 ], [ 121.365674, 24.25054 ], [ 121.352784, 24.240582 ], [ 121.342692, 24.22408 ], [ 121.326251, 24.23297 ], [ 121.300945, 24.237216 ], [ 121.291883, 24.2302 ], [ 121.280355, 24.230924 ], [ 121.268799, 24.238216 ], [ 121.264614, 24.246281 ], [ 121.254695, 24.243675 ], [ 121.244124, 24.223186 ], [ 121.237674, 24.220199 ], [ 121.221709, 24.228219 ], [ 121.181305, 24.212638 ], [ 121.167487, 24.225931 ], [ 121.160762, 24.215657 ], [ 121.147742, 24.213578 ], [ 121.136086, 24.197065 ], [ 121.1084, 24.198803 ], [ 121.096426, 24.193204 ], [ 121.084729, 24.176843 ], [ 121.052358, 24.155593 ], [ 121.047361, 24.160838 ], [ 121.019398, 24.159592 ], [ 121.010223, 24.151091 ], [ 120.999636, 24.127885 ], [ 120.985768, 24.120169 ], [ 120.975156, 24.116826 ], [ 120.949731, 24.127827 ], [ 120.919219, 24.107362 ], [ 120.891535, 24.115901 ], [ 120.894282, 24.106914 ], [ 120.891374, 24.097805 ], [ 120.878087, 24.084985 ], [ 120.881506, 24.100532 ], [ 120.873928, 24.115219 ], [ 120.85375, 24.124546 ], [ 120.844848, 24.12452 ], [ 120.83636, 24.116949 ], [ 120.828266, 24.093615 ], [ 120.82942, 24.071546 ], [ 120.809335, 24.066274 ], [ 120.791698, 24.035245 ], [ 120.769316, 24.009052 ], [ 120.748026, 23.999535 ], [ 120.731769, 24.008961 ], [ 120.706449, 24.005155 ], [ 120.678665, 24.014031 ], [ 120.65809, 24.028246 ], [ 120.644679, 24.025861 ], [ 120.625131, 24.030184 ], [ 120.625452, 24.06874 ], [ 120.6185, 24.075479 ], [ 120.612511, 24.102541 ], [ 120.566276, 24.109658 ], [ 120.545041, 24.117034 ], [ 120.523633, 24.139565 ], [ 120.52184, 24.156737 ], [ 120.508344, 24.186774 ], [ 120.485905, 24.197417 ], [ 120.468215, 24.212519 ], [ 120.494636, 24.269796 ], [ 120.526773, 24.274192 ], [ 120.519987, 24.299528 ], [ 120.542382, 24.306081 ], [ 120.562684, 24.361569 ], [ 120.57886, 24.378674 ], [ 120.59512, 24.409465 ], [ 120.621176, 24.440945 ], [ 120.639669, 24.427779 ], [ 120.643443, 24.415223 ], [ 120.663716, 24.40222 ], [ 120.693112, 24.366904 ], [ 120.707276, 24.357813 ], [ 120.730528, 24.351709 ], [ 120.762854, 24.326072 ], [ 120.806875, 24.31547 ], [ 120.833193, 24.29066 ], [ 120.850142, 24.288494 ], [ 120.875556, 24.294934 ], [ 120.91184, 24.294019 ], [ 120.92243, 24.304068 ], [ 120.91635, 24.334728 ], [ 120.935669, 24.342855 ], [ 120.966443, 24.333418 ], [ 120.97991, 24.334468 ], [ 120.991709, 24.329582 ], [ 121.003598, 24.332483 ], [ 121.033851, 24.297871 ], [ 121.049083, 24.296052 ], [ 121.055194, 24.310398 ], [ 121.073307, 24.321976 ], [ 121.081197, 24.32406 ], [ 121.086971, 24.317443 ], [ 121.108127, 24.330884 ], [ 121.121236, 24.330619 ], [ 121.125002, 24.341909 ], [ 121.140617, 24.359599 ], [ 121.168151, 24.361114 ], [ 121.172957, 24.373342 ], [ 121.189595, 24.381538 ], [ 121.196629, 24.396629 ], [ 121.20975, 24.396128 ], [ 121.215398, 24.379483 ], [ 121.228068, 24.383435 ], [ 121.239535, 24.403686 ], [ 121.243285, 24.420254 ], [ 121.259462, 24.429121 ], [ 121.303951, 24.433053 ], [ 121.316739, 24.441709 ], [ 121.327404, 24.433404 ], [ 121.326608, 24.398848 ], [ 121.339139, 24.391249 ], [ 121.353945, 24.393599 ], [ 121.364007, 24.389506 ], [ 121.373049, 24.368475 ], [ 121.3812, 24.367522 ], [ 121.399821, 24.38012 ], [ 121.432698, 24.383907 ], [ 121.446148, 24.375107 ], [ 121.450999, 24.365395 ] ] ] ] } },
{ "type": "Feature", "properties": { "name": "新竹市", "gb": "156710019" }, "geometry": { "type": "MultiPolygon", "coordinates": [ [ [ [ 120.935435, 24.712604 ], [ 120.913656, 24.717356 ], [ 120.916264, 24.721508 ], [ 120.907841, 24.741071 ], [ 120.891047, 24.731773 ], [ 120.878515, 24.735212 ], [ 120.899605, 24.760473 ], [ 120.892505, 24.788398 ], [ 120.903588, 24.817377 ], [ 120.933648, 24.852764 ], [ 120.955301, 24.834342 ], [ 120.97816, 24.829718 ], [ 121.008373, 24.816118 ], [ 121.022421, 24.800899 ], [ 121.029848, 24.766582 ], [ 121.033552, 24.76376 ], [ 121.020622, 24.756607 ], [ 121.009778, 24.773742 ], [ 120.993072, 24.780586 ], [ 120.985817, 24.776933 ], [ 120.984182, 24.768082 ], [ 120.979498, 24.763308 ], [ 120.97129, 24.765031 ], [ 120.95778, 24.745699 ], [ 120.944161, 24.744281 ], [ 120.935435, 24.712604 ] ] ] ] } },
{ "type": "Feature", "properties": { "name": "花莲县", "gb": "156710003" }, "geometry": { "type": "MultiPolygon", "coordinates": [ [ [ [ 121.773553, 24.314522 ], [ 121.747091, 24.276979 ], [ 121.74439, 24.262436 ], [ 121.717649, 24.243196 ], [ 121.705763, 24.225714 ], [ 121.674625, 24.208197 ], [ 121.658717, 24.179007 ], [ 121.666514, 24.14876 ], [ 121.653122, 24.120423 ], [ 121.63315, 24.107359 ], [ 121.617765, 24.084533 ], [ 121.620917, 24.047438 ], [ 121.647192, 24.008427 ], [ 121.619737, 23.978502 ], [ 121.605799, 23.955245 ], [ 121.611318, 23.93399 ], [ 121.604233, 23.90968 ], [ 121.598018, 23.860529 ], [ 121.573035, 23.802886 ], [ 121.569037, 23.749168 ], [ 121.548768, 23.712519 ], [ 121.553183, 23.698386 ], [ 121.542484, 23.653489 ], [ 121.52985, 23.624035 ], [ 121.526082, 23.577784 ], [ 121.511333, 23.55361 ], [ 121.503014, 23.521148 ], [ 121.506495, 23.491594 ], [ 121.49582, 23.434675 ], [ 121.482582, 23.430116 ], [ 121.474611, 23.438636 ], [ 121.446797, 23.443704 ], [ 121.42024, 23.42062 ], [ 121.410374, 23.398728 ], [ 121.400301, 23.387089 ], [ 121.404283, 23.367327 ], [ 121.422689, 23.360063 ], [ 121.422201, 23.355229 ], [ 121.409473, 23.344927 ], [ 121.399905, 23.3232 ], [ 121.377841, 23.300893 ], [ 121.377668, 23.2711 ], [ 121.359367, 23.252602 ], [ 121.355852, 23.223946 ], [ 121.345972, 23.212084 ], [ 121.334979, 23.177972 ], [ 121.323803, 23.17871 ], [ 121.318551, 23.168144 ], [ 121.324598, 23.149334 ], [ 121.320351, 23.137768 ], [ 121.321976, 23.117186 ], [ 121.315905, 23.110351 ], [ 121.291514, 23.109371 ], [ 121.272374, 23.097856 ], [ 121.26735, 23.102879 ], [ 121.267214, 23.114182 ], [ 121.257681, 23.126069 ], [ 121.249218, 23.131523 ], [ 121.238511, 23.12872 ], [ 121.230864, 23.13928 ], [ 121.211947, 23.144216 ], [ 121.212072, 23.154285 ], [ 121.199196, 23.175179 ], [ 121.198198, 23.188454 ], [ 121.189398, 23.20378 ], [ 121.175767, 23.210126 ], [ 121.160983, 23.205997 ], [ 121.153847, 23.198908 ], [ 121.139799, 23.201538 ], [ 121.129276, 23.223332 ], [ 121.106121, 23.223961 ], [ 121.077519, 23.238514 ], [ 121.065013, 23.259423 ], [ 121.056214, 23.290407 ], [ 121.038897, 23.300633 ], [ 121.028349, 23.297136 ], [ 121.046075, 23.30842 ], [ 121.048792, 23.325306 ], [ 121.000882, 23.356157 ], [ 120.987119, 23.35871 ], [ 120.986596, 23.36322 ], [ 120.988012, 23.370583 ], [ 121.010342, 23.395096 ], [ 121.028393, 23.403862 ], [ 121.029416, 23.422334 ], [ 121.014106, 23.430768 ], [ 121.015131, 23.435195 ], [ 121.058207, 23.460052 ], [ 121.039122, 23.474204 ], [ 121.062052, 23.499388 ], [ 121.068807, 23.514886 ], [ 121.09169, 23.514445 ], [ 121.116052, 23.520912 ], [ 121.136311, 23.517331 ], [ 121.146997, 23.527202 ], [ 121.151157, 23.544696 ], [ 121.146213, 23.554695 ], [ 121.151787, 23.560462 ], [ 121.157069, 23.5595 ], [ 121.160378, 23.566045 ], [ 121.160413, 23.569743 ], [ 121.152133, 23.573124 ], [ 121.153404, 23.58681 ], [ 121.179032, 23.584968 ], [ 121.194135, 23.600565 ], [ 121.206456, 23.59579 ], [ 121.213583, 23.600623 ], [ 121.223712, 23.623278 ], [ 121.224029, 23.638692 ], [ 121.235846, 23.662665 ], [ 121.241192, 23.708738 ], [ 121.236323, 23.724265 ], [ 121.229826, 23.730668 ], [ 121.230001, 23.747125 ], [ 121.206477, 23.762637 ], [ 121.205455, 23.772395 ], [ 121.230465, 23.788072 ], [ 121.226034, 23.802244 ], [ 121.227478, 23.808445 ], [ 121.234517, 23.812076 ], [ 121.239368, 23.840324 ], [ 121.268471, 23.88384 ], [ 121.261132, 23.902659 ], [ 121.276063, 23.909695 ], [ 121.275957, 23.967713 ], [ 121.273508, 23.975248 ], [ 121.264544, 23.975521 ], [ 121.259966, 23.990446 ], [ 121.285698, 24.039721 ], [ 121.283125, 24.053997 ], [ 121.323226, 24.08518 ], [ 121.31893, 24.094907 ], [ 121.325753, 24.102645 ], [ 121.328402, 24.1146 ], [ 121.314006, 24.118459 ], [ 121.295387, 24.13261 ], [ 121.281346, 24.135634 ], [ 121.288327, 24.157679 ], [ 121.287697, 24.173162 ], [ 121.307363, 24.180471 ], [ 121.325201, 24.19593 ], [ 121.349163, 24.200314 ], [ 121.349125, 24.210887 ], [ 121.342692, 24.22408 ], [ 121.352784, 24.240582 ], [ 121.365674, 24.25054 ], [ 121.384633, 24.255516 ], [ 121.380957, 24.278353 ], [ 121.401863, 24.296241 ], [ 121.4044, 24.305548 ], [ 121.422527, 24.308867 ], [ 121.430593, 24.320914 ], [ 121.436697, 24.352306 ], [ 121.450999, 24.365395 ], [ 121.498164, 24.339253 ], [ 121.519019, 24.341448 ], [ 121.545228, 24.337709 ], [ 121.566509, 24.319185 ], [ 121.597044, 24.316311 ], [ 121.605762, 24.309448 ], [ 121.599403, 24.333425 ], [ 121.622377, 24.340001 ], [ 121.628886, 24.333536 ], [ 121.632998, 24.335108 ], [ 121.635455, 24.347582 ], [ 121.621889, 24.357017 ], [ 121.620376, 24.363217 ], [ 121.631127, 24.370518 ], [ 121.648614, 24.349592 ], [ 121.649652, 24.355335 ], [ 121.6538, 24.355585 ], [ 121.674842, 24.337754 ], [ 121.74458, 24.322879 ], [ 121.759593, 24.31406 ], [ 121.773553, 24.314522 ] ] ] ] } },
{ "type": "Feature", "properties": { "name": "高雄市", "gb": "156710001" }, "geometry": { "type": "MultiPolygon", "coordinates": [ [ [ [ 121.015131, 23.435195 ], [ 121.014106, 23.430768 ], [ 121.029416, 23.422334 ], [ 121.028393, 23.403862 ], [ 121.010342, 23.395096 ], [ 120.988012, 23.370583 ], [ 120.986596, 23.36322 ], [ 120.987119, 23.35871 ], [ 121.000882, 23.356157 ], [ 121.048792, 23.325306 ], [ 121.046075, 23.30842 ], [ 121.028349, 23.297136 ], [ 120.984413, 23.280977 ], [ 120.97213, 23.281931 ], [ 120.937745, 23.244798 ], [ 120.9158, 23.238004 ], [ 120.911595, 23.209194 ], [ 120.905883, 23.199388 ], [ 120.911101, 23.182301 ], [ 120.898539, 23.176466 ], [ 120.894975, 23.160685 ], [ 120.876393, 23.151347 ], [ 120.885678, 23.144446 ], [ 120.884965, 23.119281 ], [ 120.889391, 23.11006 ], [ 120.885563, 23.088921 ], [ 120.869155, 23.059694 ], [ 120.879751, 23.047708 ], [ 120.880092, 23.03602 ], [ 120.86187, 23.031064 ], [ 120.860605, 23.007974 ], [ 120.841155, 22.984021 ], [ 120.832443, 22.98035 ], [ 120.820803, 22.961892 ], [ 120.821818, 22.935211 ], [ 120.833274, 22.91229 ], [ 120.830399, 22.901942 ], [ 120.840423, 22.882011 ], [ 120.85971, 22.87834 ], [ 120.86489, 22.872456 ], [ 120.869575, 22.85751 ], [ 120.864651, 22.843099 ], [ 120.851686, 22.85579 ], [ 120.846897, 22.852085 ], [ 120.837412, 22.86411 ], [ 120.825297, 22.866439 ], [ 120.802181, 22.852013 ], [ 120.793527, 22.85211 ], [ 120.792581, 22.84102 ], [ 120.778806, 22.83519 ], [ 120.7551, 22.864642 ], [ 120.725042, 22.880803 ], [ 120.70434, 22.880542 ], [ 120.691661, 22.867128 ], [ 120.672228, 22.856369 ], [ 120.66056, 22.859975 ], [ 120.657991, 22.879827 ], [ 120.644932, 22.885156 ], [ 120.605358, 22.872996 ], [ 120.553227, 22.828383 ], [ 120.52301, 22.832935 ], [ 120.509712, 22.828943 ], [ 120.474077, 22.836807 ], [ 120.468773, 22.830676 ], [ 120.453797, 22.769435 ], [ 120.454755, 22.71351 ], [ 120.436081, 22.661415 ], [ 120.433662, 22.617777 ], [ 120.445477, 22.599569 ], [ 120.447043, 22.586514 ], [ 120.442055, 22.560185 ], [ 120.422851, 22.518425 ], [ 120.424059, 22.477028 ], [ 120.397146, 22.480814 ], [ 120.338061, 22.525228 ], [ 120.314668, 22.547185 ], [ 120.321572, 22.557074 ], [ 120.297482, 22.584542 ], [ 120.276318, 22.618937 ], [ 120.265915, 22.617147 ], [ 120.251491, 22.645275 ], [ 120.253287, 22.665315 ], [ 120.274542, 22.683829 ], [ 120.268575, 22.708845 ], [ 120.256302, 22.717212 ], [ 120.208748, 22.819097 ], [ 120.17504, 22.911752 ], [ 120.192045, 22.921202 ], [ 120.215545, 22.910081 ], [ 120.231415, 22.910797 ], [ 120.254655, 22.894159 ], [ 120.258753, 22.895275 ], [ 120.258929, 22.90187 ], [ 120.279497, 22.896293 ], [ 120.277938, 22.904332 ], [ 120.284455, 22.904743 ], [ 120.324913, 22.900429 ], [ 120.332205, 22.889351 ], [ 120.338946, 22.889341 ], [ 120.353084, 22.891449 ], [ 120.381468, 22.919856 ], [ 120.398581, 22.922443 ], [ 120.409213, 22.913269 ], [ 120.416065, 22.916021 ], [ 120.44263, 22.977353 ], [ 120.453004, 22.977759 ], [ 120.462622, 23.003209 ], [ 120.479891, 23.002682 ], [ 120.484044, 23.017027 ], [ 120.503739, 23.028646 ], [ 120.529991, 23.05575 ], [ 120.554417, 23.068786 ], [ 120.570521, 23.086065 ], [ 120.588133, 23.114176 ], [ 120.588459, 23.123439 ], [ 120.59902, 23.141058 ], [ 120.611781, 23.151619 ], [ 120.613418, 23.159206 ], [ 120.636175, 23.175131 ], [ 120.640041, 23.183423 ], [ 120.636946, 23.191322 ], [ 120.656253, 23.217847 ], [ 120.653499, 23.224541 ], [ 120.640439, 23.266947 ], [ 120.643657, 23.296016 ], [ 120.647111, 23.297365 ], [ 120.651969, 23.291156 ], [ 120.658416, 23.29593 ], [ 120.6996, 23.284458 ], [ 120.706741, 23.304639 ], [ 120.730107, 23.310367 ], [ 120.74815, 23.322085 ], [ 120.758529, 23.335793 ], [ 120.757935, 23.344179 ], [ 120.783334, 23.342214 ], [ 120.803179, 23.36617 ], [ 120.825386, 23.371649 ], [ 120.849384, 23.412077 ], [ 120.849872, 23.420426 ], [ 120.886754, 23.43484 ], [ 120.896282, 23.45054 ], [ 120.909416, 23.457558 ], [ 120.93126, 23.457057 ], [ 120.957585, 23.469496 ], [ 120.967167, 23.471693 ], [ 121.0077, 23.462689 ], [ 121.015803, 23.451705 ], [ 121.010305, 23.445488 ], [ 121.015131, 23.435195 ] ] ] ] } },
{ "type": "Feature", "properties": { "name": "苗栗县", "gb": "156710007" }, "geometry": { "type": "MultiPolygon", "coordinates": [ [ [ [ 120.935435, 24.712604 ], [ 120.952893, 24.705055 ], [ 120.973812, 24.711873 ], [ 120.976669, 24.706411 ], [ 120.965545, 24.684694 ], [ 120.975593, 24.684495 ], [ 120.979874, 24.673438 ], [ 120.997133, 24.654627 ], [ 121.010284, 24.65621 ], [ 121.008195, 24.644386 ], [ 121.020643, 24.641175 ], [ 121.051864, 24.616392 ], [ 121.06251, 24.621794 ], [ 121.07518, 24.611867 ], [ 121.083085, 24.589983 ], [ 121.070568, 24.563358 ], [ 121.062716, 24.557459 ], [ 121.080519, 24.540895 ], [ 121.078237, 24.528779 ], [ 121.066995, 24.522815 ], [ 121.07291, 24.49881 ], [ 121.098236, 24.496459 ], [ 121.121945, 24.509028 ], [ 121.136852, 24.506659 ], [ 121.146038, 24.509754 ], [ 121.169266, 24.502597 ], [ 121.216055, 24.515465 ], [ 121.221858, 24.504698 ], [ 121.218647, 24.498296 ], [ 121.242674, 24.478127 ], [ 121.248657, 24.466374 ], [ 121.258104, 24.463271 ], [ 121.259462, 24.429121 ], [ 121.243285, 24.420254 ], [ 121.239535, 24.403686 ], [ 121.228068, 24.383435 ], [ 121.215398, 24.379483 ], [ 121.20975, 24.396128 ], [ 121.196629, 24.396629 ], [ 121.189595, 24.381538 ], [ 121.172957, 24.373342 ], [ 121.168151, 24.361114 ], [ 121.140617, 24.359599 ], [ 121.125002, 24.341909 ], [ 121.121236, 24.330619 ], [ 121.108127, 24.330884 ], [ 121.086971, 24.317443 ], [ 121.081197, 24.32406 ], [ 121.073307, 24.321976 ], [ 121.055194, 24.310398 ], [ 121.049083, 24.296052 ], [ 121.033851, 24.297871 ], [ 121.003598, 24.332483 ], [ 120.991709, 24.329582 ], [ 120.97991, 24.334468 ], [ 120.966443, 24.333418 ], [ 120.935669, 24.342855 ], [ 120.91635, 24.334728 ], [ 120.92243, 24.304068 ], [ 120.91184, 24.294019 ], [ 120.875556, 24.294934 ], [ 120.850142, 24.288494 ], [ 120.833193, 24.29066 ], [ 120.806875, 24.31547 ], [ 120.762854, 24.326072 ], [ 120.730528, 24.351709 ], [ 120.707276, 24.357813 ], [ 120.693112, 24.366904 ], [ 120.663716, 24.40222 ], [ 120.643443, 24.415223 ], [ 120.639669, 24.427779 ], [ 120.621176, 24.440945 ], [ 120.663968, 24.481108 ], [ 120.686996, 24.523101 ], [ 120.711194, 24.585947 ], [ 120.726207, 24.608218 ], [ 120.758862, 24.613157 ], [ 120.761686, 24.6396 ], [ 120.780246, 24.660993 ], [ 120.828723, 24.669558 ], [ 120.856895, 24.698653 ], [ 120.865424, 24.723872 ], [ 120.878515, 24.735212 ], [ 120.891047, 24.731773 ], [ 120.907841, 24.741071 ], [ 120.916264, 24.721508 ], [ 120.913656, 24.717356 ], [ 120.935435, 24.712604 ] ] ] ] } },
{ "type": "Feature", "properties": { "name": "嘉义县", "gb": "156710006" }, "geometry": { "type": "MultiPolygon", "coordinates": [ [ [ [ 120.73086, 23.610763 ], [ 120.753435, 23.614851 ], [ 120.779612, 23.601581 ], [ 120.801012, 23.596617 ], [ 120.818092, 23.599133 ], [ 120.821899, 23.570755 ], [ 120.82064, 23.562436 ], [ 120.808793, 23.545714 ], [ 120.808613, 23.536025 ], [ 120.819737, 23.520604 ], [ 120.827116, 23.483115 ], [ 120.835923, 23.472564 ], [ 120.863403, 23.47357 ], [ 120.880451, 23.4676 ], [ 120.886745, 23.475592 ], [ 120.909923, 23.47619 ], [ 120.94761, 23.467078 ], [ 120.957585, 23.469496 ], [ 120.93126, 23.457057 ], [ 120.909416, 23.457558 ], [ 120.896282, 23.45054 ], [ 120.886754, 23.43484 ], [ 120.849872, 23.420426 ], [ 120.849384, 23.412077 ], [ 120.825386, 23.371649 ], [ 120.803179, 23.36617 ], [ 120.783334, 23.342214 ], [ 120.757935, 23.344179 ], [ 120.758529, 23.335793 ], [ 120.74815, 23.322085 ], [ 120.730107, 23.310367 ], [ 120.706741, 23.304639 ], [ 120.6996, 23.284458 ], [ 120.658416, 23.29593 ], [ 120.651969, 23.291156 ], [ 120.647111, 23.297365 ], [ 120.643657, 23.296016 ], [ 120.640439, 23.266947 ], [ 120.653499, 23.224541 ], [ 120.628288, 23.229439 ], [ 120.609831, 23.222628 ], [ 120.590041, 23.231693 ], [ 120.577287, 23.216013 ], [ 120.565349, 23.220976 ], [ 120.558111, 23.216822 ], [ 120.543926, 23.22658 ], [ 120.525749, 23.231503 ], [ 120.51899, 23.239206 ], [ 120.527839, 23.245276 ], [ 120.532289, 23.255152 ], [ 120.520442, 23.271708 ], [ 120.526278, 23.295409 ], [ 120.522525, 23.311759 ], [ 120.539976, 23.327909 ], [ 120.530529, 23.337935 ], [ 120.505078, 23.344823 ], [ 120.504739, 23.354723 ], [ 120.510883, 23.354065 ], [ 120.512433, 23.359793 ], [ 120.504578, 23.368011 ], [ 120.483953, 23.369575 ], [ 120.484557, 23.379659 ], [ 120.498924, 23.38718 ], [ 120.494924, 23.394351 ], [ 120.490104, 23.395538 ], [ 120.479376, 23.387595 ], [ 120.472669, 23.398192 ], [ 120.441492, 23.413146 ], [ 120.430043, 23.406402 ], [ 120.414434, 23.411234 ], [ 120.348627, 23.401096 ], [ 120.333108, 23.385784 ], [ 120.324165, 23.384324 ], [ 120.314846, 23.388498 ], [ 120.31061, 23.377878 ], [ 120.292879, 23.375368 ], [ 120.285827, 23.367139 ], [ 120.286228, 23.350289 ], [ 120.27777, 23.347699 ], [ 120.273124, 23.352786 ], [ 120.266108, 23.352645 ], [ 120.260715, 23.344472 ], [ 120.267495, 23.344752 ], [ 120.267024, 23.34059 ], [ 120.255659, 23.330795 ], [ 120.237879, 23.326901 ], [ 120.222804, 23.298539 ], [ 120.212354, 23.291673 ], [ 120.204218, 23.291948 ], [ 120.188429, 23.301235 ], [ 120.185789, 23.296589 ], [ 120.189069, 23.290238 ], [ 120.178572, 23.291797 ], [ 120.168573, 23.306826 ], [ 120.149711, 23.313199 ], [ 120.147501, 23.32069 ], [ 120.118067, 23.340185 ], [ 120.138972, 23.374195 ], [ 120.157282, 23.384967 ], [ 120.145508, 23.428577 ], [ 120.149677, 23.454252 ], [ 120.133563, 23.488138 ], [ 120.119428, 23.49547 ], [ 120.118922, 23.515041 ], [ 120.145841, 23.520805 ], [ 120.158121, 23.515923 ], [ 120.166557, 23.517217 ], [ 120.180942, 23.509871 ], [ 120.199323, 23.51305 ], [ 120.223039, 23.504308 ], [ 120.239094, 23.507683 ], [ 120.247063, 23.51514 ], [ 120.24355, 23.543757 ], [ 120.256106, 23.546075 ], [ 120.263421, 23.53355 ], [ 120.271962, 23.530759 ], [ 120.276408, 23.5435 ], [ 120.290881, 23.550748 ], [ 120.29021, 23.562425 ], [ 120.310595, 23.564481 ], [ 120.307377, 23.574627 ], [ 120.32716, 23.574273 ], [ 120.333106, 23.579121 ], [ 120.335646, 23.592796 ], [ 120.358978, 23.594982 ], [ 120.404606, 23.634187 ], [ 120.406618, 23.625187 ], [ 120.425221, 23.61801 ], [ 120.444553, 23.630543 ], [ 120.50376, 23.635276 ], [ 120.510248, 23.619341 ], [ 120.536894, 23.594749 ], [ 120.556908, 23.59258 ], [ 120.581303, 23.582112 ], [ 120.589801, 23.585725 ], [ 120.618886, 23.584133 ], [ 120.623257, 23.589831 ], [ 120.648552, 23.593419 ], [ 120.649204, 23.583575 ], [ 120.643464, 23.575607 ], [ 120.656024, 23.572238 ], [ 120.669986, 23.578503 ], [ 120.676215, 23.570505 ], [ 120.69354, 23.576319 ], [ 120.717658, 23.569048 ], [ 120.736154, 23.570449 ], [ 120.731485, 23.595588 ], [ 120.72486, 23.603627 ], [ 120.73086, 23.610763 ] ], [ [ 120.456252, 23.512947 ], [ 120.447003, 23.518211 ], [ 120.433524, 23.517094 ], [ 120.433172, 23.508891 ], [ 120.389442, 23.498732 ], [ 120.394689, 23.481042 ], [ 120.399108, 23.478702 ], [ 120.394141, 23.462528 ], [ 120.429302, 23.461035 ], [ 120.430183, 23.452232 ], [ 120.439693, 23.439563 ], [ 120.452552, 23.444569 ], [ 120.468688, 23.461599 ], [ 120.476789, 23.461988 ], [ 120.489618, 23.45226 ], [ 120.495232, 23.452892 ], [ 120.509158, 23.474956 ], [ 120.496844, 23.490463 ], [ 120.484407, 23.495055 ], [ 120.483166, 23.505368 ], [ 120.473558, 23.506862 ], [ 120.462083, 23.501829 ], [ 120.456252, 23.512947 ] ] ] ] } },
{ "type": "Feature", "properties": { "name": "嘉义市", "gb": "156710005" }, "geometry": { "type": "MultiPolygon", "coordinates": [ [ [ [ 120.456252, 23.512947 ], [ 120.462083, 23.501829 ], [ 120.473558, 23.506862 ], [ 120.483166, 23.505368 ], [ 120.484407, 23.495055 ], [ 120.496844, 23.490463 ], [ 120.509158, 23.474956 ], [ 120.495232, 23.452892 ], [ 120.489618, 23.45226 ], [ 120.476789, 23.461988 ], [ 120.468688, 23.461599 ], [ 120.452552, 23.444569 ], [ 120.439693, 23.439563 ], [ 120.430183, 23.452232 ], [ 120.429302, 23.461035 ], [ 120.394141, 23.462528 ], [ 120.399108, 23.478702 ], [ 120.394689, 23.481042 ], [ 120.389442, 23.498732 ], [ 120.433172, 23.508891 ], [ 120.433524, 23.517094 ], [ 120.447003, 23.518211 ], [ 120.456252, 23.512947 ] ] ] ] } },
{ "type": "Feature", "properties": { "name": "基隆市", "gb": "156710004" }, "geometry": { "type": "MultiPolygon", "coordinates": [ [ [ [ 121.804927, 25.125866 ], [ 121.794764, 25.112602 ], [ 121.77585, 25.118699 ], [ 121.74998, 25.109649 ], [ 121.755929, 25.108509 ], [ 121.759901, 25.100611 ], [ 121.761175, 25.078973 ], [ 121.769374, 25.077917 ], [ 121.775711, 25.070022 ], [ 121.771721, 25.063192 ], [ 121.745896, 25.052989 ], [ 121.730091, 25.053349 ], [ 121.71236, 25.068024 ], [ 121.688378, 25.071768 ], [ 121.655691, 25.09345 ], [ 121.648934, 25.101723 ], [ 121.643169, 25.127653 ], [ 121.62949, 25.133962 ], [ 121.626786, 25.139604 ], [ 121.66927, 25.153394 ], [ 121.708916, 25.175503 ], [ 121.706679, 25.165654 ], [ 121.774847, 25.152488 ], [ 121.803194, 25.135758 ], [ 121.804927, 25.125866 ] ] ] ] } },
{ "type": "Feature", "properties": { "name": "台北市", "gb": "156710009" }, "geometry": { "type": "MultiPolygon", "coordinates": [ [ [ [ 121.583742, 25.19458 ], [ 121.57704, 25.16699 ], [ 121.587914, 25.162964 ], [ 121.596861, 25.142663 ], [ 121.607843, 25.130198 ], [ 121.596521, 25.11126 ], [ 121.615537, 25.103768 ], [ 121.628156, 25.088216 ], [ 121.618882, 25.068021 ], [ 121.616547, 25.047941 ], [ 121.6219, 25.040075 ], [ 121.650214, 25.027621 ], [ 121.665042, 25.029575 ], [ 121.663249, 25.022943 ], [ 121.635688, 25.023863 ], [ 121.623265, 25.017256 ], [ 121.610299, 25.01989 ], [ 121.597386, 25.014659 ], [ 121.600529, 24.979836 ], [ 121.620002, 24.969361 ], [ 121.601183, 24.960891 ], [ 121.561242, 24.964683 ], [ 121.550861, 24.985396 ], [ 121.544597, 24.984067 ], [ 121.529572, 24.994294 ], [ 121.532189, 25.008039 ], [ 121.518487, 25.019937 ], [ 121.50937, 25.021438 ], [ 121.4927, 25.009485 ], [ 121.488178, 25.015442 ], [ 121.486294, 25.032742 ], [ 121.503219, 25.048328 ], [ 121.506074, 25.07472 ], [ 121.488727, 25.097147 ], [ 121.46613, 25.101716 ], [ 121.457097, 25.108536 ], [ 121.465702, 25.131693 ], [ 121.505401, 25.172584 ], [ 121.519969, 25.169288 ], [ 121.522211, 25.17822 ], [ 121.542769, 25.188815 ], [ 121.559166, 25.210131 ], [ 121.57291, 25.194974 ], [ 121.583742, 25.19458 ] ] ] ] } },
{ "type": "Feature", "properties": { "name": "南投县", "gb": "156710008" }, "geometry": { "type": "MultiPolygon", "coordinates": [ [ [ [ 121.342692, 24.22408 ], [ 121.349125, 24.210887 ], [ 121.349163, 24.200314 ], [ 121.325201, 24.19593 ], [ 121.307363, 24.180471 ], [ 121.287697, 24.173162 ], [ 121.288327, 24.157679 ], [ 121.281346, 24.135634 ], [ 121.295387, 24.13261 ], [ 121.314006, 24.118459 ], [ 121.328402, 24.1146 ], [ 121.325753, 24.102645 ], [ 121.31893, 24.094907 ], [ 121.323226, 24.08518 ], [ 121.283125, 24.053997 ], [ 121.285698, 24.039721 ], [ 121.259966, 23.990446 ], [ 121.264544, 23.975521 ], [ 121.273508, 23.975248 ], [ 121.275957, 23.967713 ], [ 121.276063, 23.909695 ], [ 121.261132, 23.902659 ], [ 121.268471, 23.88384 ], [ 121.239368, 23.840324 ], [ 121.234517, 23.812076 ], [ 121.227478, 23.808445 ], [ 121.226034, 23.802244 ], [ 121.230465, 23.788072 ], [ 121.205455, 23.772395 ], [ 121.206477, 23.762637 ], [ 121.230001, 23.747125 ], [ 121.229826, 23.730668 ], [ 121.236323, 23.724265 ], [ 121.241192, 23.708738 ], [ 121.235846, 23.662665 ], [ 121.224029, 23.638692 ], [ 121.223712, 23.623278 ], [ 121.213583, 23.600623 ], [ 121.206456, 23.59579 ], [ 121.194135, 23.600565 ], [ 121.179032, 23.584968 ], [ 121.153404, 23.58681 ], [ 121.152133, 23.573124 ], [ 121.160413, 23.569743 ], [ 121.160378, 23.566045 ], [ 121.157069, 23.5595 ], [ 121.151787, 23.560462 ], [ 121.146213, 23.554695 ], [ 121.151157, 23.544696 ], [ 121.146997, 23.527202 ], [ 121.136311, 23.517331 ], [ 121.116052, 23.520912 ], [ 121.09169, 23.514445 ], [ 121.068807, 23.514886 ], [ 121.062052, 23.499388 ], [ 121.039122, 23.474204 ], [ 121.058207, 23.460052 ], [ 121.015131, 23.435195 ], [ 121.010305, 23.445488 ], [ 121.015803, 23.451705 ], [ 121.0077, 23.462689 ], [ 120.967167, 23.471693 ], [ 120.957585, 23.469496 ], [ 120.94761, 23.467078 ], [ 120.909923, 23.47619 ], [ 120.886745, 23.475592 ], [ 120.880451, 23.4676 ], [ 120.863403, 23.47357 ], [ 120.835923, 23.472564 ], [ 120.827116, 23.483115 ], [ 120.819737, 23.520604 ], [ 120.808613, 23.536025 ], [ 120.808793, 23.545714 ], [ 120.82064, 23.562436 ], [ 120.821899, 23.570755 ], [ 120.818092, 23.599133 ], [ 120.801012, 23.596617 ], [ 120.779612, 23.601581 ], [ 120.753435, 23.614851 ], [ 120.73086, 23.610763 ], [ 120.73056, 23.618436 ], [ 120.719712, 23.628401 ], [ 120.705139, 23.617108 ], [ 120.691104, 23.620153 ], [ 120.683543, 23.610677 ], [ 120.669108, 23.60918 ], [ 120.651709, 23.616264 ], [ 120.653261, 23.627318 ], [ 120.644836, 23.630884 ], [ 120.634398, 23.619426 ], [ 120.630708, 23.622253 ], [ 120.629092, 23.63518 ], [ 120.648074, 23.68279 ], [ 120.644923, 23.701571 ], [ 120.6391, 23.710613 ], [ 120.639707, 23.729189 ], [ 120.644275, 23.736713 ], [ 120.655207, 23.737734 ], [ 120.655781, 23.75473 ], [ 120.64035, 23.786038 ], [ 120.664266, 23.792336 ], [ 120.679035, 23.80586 ], [ 120.676338, 23.819225 ], [ 120.650481, 23.813129 ], [ 120.638746, 23.822682 ], [ 120.63705, 23.832776 ], [ 120.622158, 23.840862 ], [ 120.626644, 23.856163 ], [ 120.619904, 23.868364 ], [ 120.634994, 23.898609 ], [ 120.633975, 23.952445 ], [ 120.646862, 23.963407 ], [ 120.650195, 23.9838 ], [ 120.636085, 23.998392 ], [ 120.642363, 24.008925 ], [ 120.672552, 24.005797 ], [ 120.678665, 24.014031 ], [ 120.706449, 24.005155 ], [ 120.731769, 24.008961 ], [ 120.748026, 23.999535 ], [ 120.769316, 24.009052 ], [ 120.791698, 24.035245 ], [ 120.809335, 24.066274 ], [ 120.82942, 24.071546 ], [ 120.828266, 24.093615 ], [ 120.83636, 24.116949 ], [ 120.844848, 24.12452 ], [ 120.85375, 24.124546 ], [ 120.873928, 24.115219 ], [ 120.881506, 24.100532 ], [ 120.878087, 24.084985 ], [ 120.891374, 24.097805 ], [ 120.894282, 24.106914 ], [ 120.891535, 24.115901 ], [ 120.919219, 24.107362 ], [ 120.949731, 24.127827 ], [ 120.975156, 24.116826 ], [ 120.985768, 24.120169 ], [ 120.999636, 24.127885 ], [ 121.010223, 24.151091 ], [ 121.019398, 24.159592 ], [ 121.047361, 24.160838 ], [ 121.052358, 24.155593 ], [ 121.084729, 24.176843 ], [ 121.096426, 24.193204 ], [ 121.1084, 24.198803 ], [ 121.136086, 24.197065 ], [ 121.147742, 24.213578 ], [ 121.160762, 24.215657 ], [ 121.167487, 24.225931 ], [ 121.181305, 24.212638 ], [ 121.221709, 24.228219 ], [ 121.237674, 24.220199 ], [ 121.244124, 24.223186 ], [ 121.254695, 24.243675 ], [ 121.264614, 24.246281 ], [ 121.268799, 24.238216 ], [ 121.280355, 24.230924 ], [ 121.291883, 24.2302 ], [ 121.300945, 24.237216 ], [ 121.326251, 24.23297 ], [ 121.342692, 24.22408 ] ] ] ] } },
{ "type": "Feature", "properties": { "name": "境界线", "gb": "" }, "geometry": { "type": "MultiLineString", "coordinates": [ [ [ 73.881449, 38.578733 ], [ 73.89119, 38.581017 ], [ 73.896225, 38.579277 ], [ 73.901848, 38.568253 ], [ 73.903687, 38.560555 ], [ 73.903793, 38.560116 ], [ 73.905403, 38.553806 ], [ 73.909576, 38.543568 ], [ 73.914925, 38.538662 ], [ 73.923203, 38.536366 ], [ 73.924095, 38.536278 ], [ 73.934052, 38.535278 ], [ 73.949661, 38.533672 ], [ 73.964668, 38.533447 ], [ 73.975594, 38.532825 ], [ 73.985313, 38.531368 ], [ 73.987816, 38.52985 ], [ 73.997551, 38.52393 ], [ 74.00869, 38.525055 ], [ 74.020653, 38.5382 ], [ 74.020912, 38.538483 ], [ 74.031281, 38.541729 ], [ 74.037125, 38.541653 ], [ 74.047905, 38.54216 ], [ 74.077568, 38.542782 ], [ 74.079102, 38.542683 ], [ 74.087425, 38.542156 ], [ 74.083199, 38.54781 ], [ 74.081154, 38.553463 ], [ 74.07869, 38.560131 ], [ 74.073669, 38.568062 ], [ 74.072433, 38.570675 ], [ 74.065392, 38.585571 ], [ 74.076485, 38.598328 ], [ 74.084778, 38.611031 ], [ 74.108658, 38.611382 ], [ 74.109337, 38.611393 ], [ 74.115211, 38.614529 ], [ 74.118477, 38.624729 ], [ 74.121376, 38.64859 ], [ 74.129761, 38.662048 ], [ 74.133057, 38.668049 ], [ 74.13459, 38.670841 ], [ 74.139587, 38.674702 ], [ 74.144943, 38.676849 ], [ 74.155731, 38.674114 ], [ 74.162476, 38.670082 ], [ 74.163864, 38.66925 ], [ 74.175537, 38.667221 ], [ 74.186333, 38.664482 ], [ 74.19622, 38.661739 ], [ 74.205475, 38.660095 ], [ 74.226761, 38.656315 ], [ 74.234604, 38.656364 ], [ 74.246483, 38.656441 ], [ 74.251289, 38.65649 ], [ 74.266762, 38.656651 ], [ 74.289215, 38.655109 ], [ 74.30764, 38.652126 ], [ 74.337044, 38.654865 ], [ 74.340645, 38.655075 ], [ 74.344566, 38.6553 ], [ 74.350487, 38.655643 ], [ 74.362137, 38.655704 ], [ 74.374725, 38.654823 ], [ 74.382034, 38.653049 ], [ 74.38282, 38.652859 ], [ 74.392433, 38.650524 ], [ 74.404274, 38.649036 ], [ 74.418686, 38.647556 ], [ 74.43306, 38.642704 ], [ 74.441162, 38.638527 ], [ 74.45285, 38.632957 ], [ 74.460251, 38.632298 ], [ 74.480148, 38.634052 ], [ 74.49382, 38.635956 ], [ 74.503685, 38.637775 ], [ 74.511642, 38.636116 ], [ 74.52211, 38.629471 ], [ 74.5345, 38.618053 ], [ 74.544212, 38.607952 ], [ 74.556969, 38.606674 ], [ 74.563248, 38.605991 ], [ 74.570419, 38.604614 ], [ 74.578346, 38.604168 ], [ 74.594643, 38.599072 ], [ 74.606316, 38.593487 ], [ 74.610794, 38.593502 ], [ 74.616135, 38.599846 ], [ 74.624184, 38.602684 ], [ 74.637634, 38.599915 ], [ 74.652908, 38.589417 ], [ 74.665497, 38.579609 ], [ 74.67807, 38.571209 ], [ 74.691544, 38.560699 ], [ 74.705917, 38.549488 ], [ 74.71489, 38.54248 ], [ 74.727448, 38.536884 ], [ 74.733719, 38.53479 ], [ 74.742088, 38.534157 ], [ 74.755562, 38.536892 ], [ 74.763435, 38.536907 ], [ 74.772621, 38.536926 ], [ 74.782036, 38.538403 ], [ 74.7901, 38.536308 ], [ 74.793694, 38.532097 ], [ 74.799973, 38.527184 ], [ 74.805359, 38.520164 ], [ 74.810745, 38.511738 ], [ 74.812561, 38.503304 ], [ 74.816154, 38.495575 ], [ 74.818848, 38.491364 ], [ 74.827797, 38.490673 ], [ 74.835846, 38.490685 ], [ 74.843887, 38.493507 ], [ 74.846268, 38.492889 ], [ 74.85463, 38.490707 ], [ 74.860008, 38.484386 ], [ 74.861649, 38.470398 ], [ 74.861824, 38.468925 ], [ 74.861855, 38.455566 ], [ 74.862221, 38.443928 ], [ 74.865677, 38.435745 ], [ 74.868057, 38.424793 ], [ 74.869499, 38.415886 ], [ 74.868637, 38.413368 ], [ 74.865524, 38.404251 ], [ 74.855713, 38.393692 ], [ 74.851265, 38.38525 ], [ 74.845764, 38.377579 ], [ 74.840797, 38.374104 ], [ 74.833038, 38.36721 ], [ 74.831085, 38.361538 ], [ 74.821259, 38.364101 ], [ 74.816986, 38.360847 ], [ 74.812035, 38.357075 ], [ 74.795113, 38.342285 ], [ 74.787994, 38.33313 ], [ 74.786682, 38.324875 ], [ 74.788658, 38.318695 ], [ 74.792931, 38.312775 ], [ 74.795563, 38.306595 ], [ 74.799187, 38.297581 ], [ 74.803591, 38.287422 ] ] ] } },
{ "type": "Feature", "properties": { "name": "境界线", "gb": "" }, "geometry": { "type": "MultiLineString", "coordinates": [ [ [ 122.816588, 24.658202 ], [ 122.659745, 23.668602 ] ] ] } },
{ "type": "Feature", "properties": { "name": "境界线", "gb": "" }, "geometry": { "type": "MultiLineString", "coordinates": [ [ [ 74.803591, 38.287422 ], [ 74.804184, 38.286053 ], [ 74.798851, 38.279015 ], [ 74.790428, 38.271023 ], [ 74.79438, 38.260204 ], [ 74.798332, 38.251965 ], [ 74.800323, 38.239082 ], [ 74.8097, 38.224194 ], [ 74.814178, 38.215763 ], [ 74.813332, 38.198185 ], [ 74.808014, 38.184818 ], [ 74.801826, 38.167229 ], [ 74.803642, 38.155983 ], [ 74.806335, 38.147549 ], [ 74.811707, 38.135605 ], [ 74.816185, 38.123661 ], [ 74.818909, 38.103275 ], [ 74.825157, 38.094143 ], [ 74.830513, 38.085712 ], [ 74.838539, 38.077286 ], [ 74.851013, 38.064648 ], [ 74.859039, 38.054111 ], [ 74.868858, 38.034435 ], [ 74.873314, 38.028812 ], [ 74.875923, 38.023186 ], [ 74.876709, 38.021492 ], [ 74.89109, 38.025314 ], [ 74.900253, 38.028221 ], [ 74.908867, 38.030956 ], [ 74.91954, 38.026043 ], [ 74.923103, 38.017605 ], [ 74.922226, 38.004246 ], [ 74.920464, 37.992996 ], [ 74.916, 37.987175 ], [ 74.913628, 37.97934 ], [ 74.910248, 37.972633 ], [ 74.909927, 37.972004 ], [ 74.908577, 37.967358 ], [ 74.908142, 37.958424 ], [ 74.909958, 37.94878 ], [ 74.912727, 37.94397 ], [ 74.91674, 37.936993 ], [ 74.916649, 37.927158 ], [ 74.916763, 37.915913 ], [ 74.916321, 37.908409 ], [ 74.921738, 37.900196 ], [ 74.928055, 37.894127 ], [ 74.933929, 37.884125 ], [ 74.934387, 37.876266 ], [ 74.928085, 37.86697 ], [ 74.920433, 37.855888 ], [ 74.917282, 37.85017 ], [ 74.914772, 37.845325 ], [ 74.91935, 37.837162 ], [ 74.929138, 37.828865 ], [ 74.94384, 37.820431 ], [ 74.957329, 37.814034 ], [ 74.972275, 37.805893 ], [ 74.986687, 37.798035 ], [ 74.999969, 37.787449 ], [ 75.00322, 37.783325 ], [ 75.005371, 37.776417 ], [ 75.003571, 37.771057 ], [ 74.996262, 37.767288 ], [ 74.978325, 37.758049 ], [ 74.970711, 37.751724 ], [ 74.962685, 37.741776 ], [ 74.961517, 37.74033 ], [ 74.96064, 37.739479 ], [ 74.954781, 37.733791 ], [ 74.946358, 37.72562 ], [ 74.933403, 37.7178 ], [ 74.920357, 37.717434 ], [ 74.919464, 37.707428 ], [ 74.919701, 37.703598 ], [ 74.92038, 37.69278 ], [ 74.918144, 37.684917 ], [ 74.907249, 37.679573 ], [ 74.902786, 37.677383 ], [ 74.895126, 37.673115 ], [ 74.889503, 37.668427 ], [ 74.890289, 37.661339 ], [ 74.892746, 37.656574 ], [ 74.902908, 37.642384 ], [ 74.90873, 37.63327 ], [ 74.909401, 37.631916 ], [ 74.909828, 37.631065 ], [ 74.913025, 37.624645 ], [ 74.920021, 37.608097 ], [ 74.925194, 37.589993 ], [ 74.92543, 37.589161 ], [ 74.926338, 37.582016 ], [ 74.928146, 37.57201 ], [ 74.937737, 37.559345 ], [ 74.954155, 37.549564 ], [ 74.966125, 37.543827 ], [ 74.976898, 37.539898 ], [ 74.997726, 37.530582 ], [ 75.003113, 37.525581 ], [ 74.998672, 37.519382 ], [ 74.998703, 37.519028 ], [ 74.999321, 37.51165 ], [ 75.006439, 37.508041 ], [ 75.013802, 37.507797 ], [ 75.01899, 37.50766 ], [ 75.023857, 37.508663 ], [ 75.032326, 37.50082 ], [ 75.03685, 37.50082 ], [ 75.044617, 37.503395 ], [ 75.050972, 37.506393 ], [ 75.062325, 37.512344 ], [ 75.062531, 37.512386 ], [ 75.06591, 37.513058 ], [ 75.070396, 37.512341 ], [ 75.075333, 37.510906 ], [ 75.077568, 37.506973 ], [ 75.079803, 37.499825 ], [ 75.08786, 37.486958 ], [ 75.102646, 37.475155 ], [ 75.113388, 37.466568 ], [ 75.126381, 37.459049 ], [ 75.13414, 37.446362 ], [ 75.135757, 37.441174 ], [ 75.144249, 37.426514 ], [ 75.14782, 37.419361 ], [ 75.150047, 37.413998 ], [ 75.15004, 37.409355 ], [ 75.148239, 37.404354 ], [ 75.14286, 37.402573 ], [ 75.133408, 37.39687 ], [ 75.129402, 37.392582 ], [ 75.122902, 37.388123 ], [ 75.120651, 37.381695 ], [ 75.126015, 37.37347 ], [ 75.135582, 37.367622 ], [ 75.136513, 37.36113 ], [ 75.136948, 37.355412 ], [ 75.130737, 37.350475 ], [ 75.125565, 37.34687 ], [ 75.12439, 37.339348 ], [ 75.123253, 37.32864 ], [ 75.12291, 37.325413 ], [ 75.122566, 37.322197 ], [ 75.115852, 37.316841 ], [ 75.102646, 37.314533 ], [ 75.090569, 37.316685 ], [ 75.088425, 37.316887 ], [ 75.075363, 37.318127 ], [ 75.069244, 37.314819 ], [ 75.061485, 37.310631 ], [ 75.044037, 37.303848 ], [ 75.030609, 37.299564 ], [ 75.014954, 37.29385 ], [ 75.00618, 37.291611 ], [ 75.004807, 37.29126 ], [ 75.003075, 37.290859 ], [ 74.98745, 37.287239 ], [ 74.972244, 37.28545 ], [ 74.954353, 37.28759 ], [ 74.940041, 37.285439 ], [ 74.929764, 37.281502 ], [ 74.9244, 37.277924 ], [ 74.921722, 37.271851 ], [ 74.920616, 37.263092 ], [ 74.916885, 37.24551 ], [ 74.913071, 37.238796 ], [ 74.90834, 37.233894 ], [ 74.896385, 37.230919 ], [ 74.887998, 37.231222 ], [ 74.879093, 37.231222 ] ] ] } },
{ "type": "Feature", "properties": { "name": "境界线", "gb": "" }, "geometry": { "type": "MultiLineString", "coordinates": [ [ [ 113.528167, 22.182167 ], [ 113.528361, 22.1845 ], [ 113.529167, 22.186556 ], [ 113.530194, 22.187917 ], [ 113.529222, 22.188528 ], [ 113.533465, 22.194301 ], [ 113.533611, 22.1945 ], [ 113.535639, 22.202306 ] ], [ [ 113.537275, 22.161598 ], [ 113.532139, 22.172083 ] ], [ [ 113.534944, 22.213525 ], [ 113.535292, 22.213492 ], [ 113.535439, 22.213475 ], [ 113.535706, 22.213558 ], [ 113.536333, 22.213636 ], [ 113.538142, 22.213642 ], [ 113.5409, 22.213033 ], [ 113.541181, 22.213022 ], [ 113.541331, 22.213086 ], [ 113.541533, 22.213325 ], [ 113.541717, 22.213233 ], [ 113.541956, 22.213672 ], [ 113.542014, 22.213694 ], [ 113.542408, 22.214286 ], [ 113.542464, 22.214433 ], [ 113.543392, 22.216314 ], [ 113.544356, 22.216953 ], [ 113.545189, 22.216922 ], [ 113.545478, 22.216811 ], [ 113.546506, 22.216797 ], [ 113.546567, 22.216783 ], [ 113.547039, 22.216781 ] ], [ [ 113.549347, 22.140398 ], [ 113.549556, 22.145361 ], [ 113.54525, 22.150778 ] ], [ [ 113.548465, 22.119388 ], [ 113.548851, 22.128581 ] ], [ [ 113.565539, 22.101387 ], [ 113.549639, 22.108861 ] ], [ [ 113.551304, 22.215623 ], [ 113.552028, 22.216 ], [ 113.558007, 22.213796 ] ], [ [ 113.568972, 22.209083 ], [ 113.571056, 22.204028 ], [ 113.583855, 22.204059 ] ], [ [ 113.570738, 22.092197 ], [ 113.570566, 22.085323 ] ], [ [ 113.591523, 22.076667 ], [ 113.577285, 22.076667 ] ], [ [ 113.597874, 22.204093 ], [ 113.60525, 22.204111 ] ], [ [ 113.612832, 22.080885 ], [ 113.610222, 22.076667 ], [ 113.605761, 22.076667 ] ], [ [ 113.612076, 22.19356 ], [ 113.620332, 22.180799 ] ], [ [ 113.627026, 22.103829 ], [ 113.619891, 22.092297 ] ], [ [ 113.627065, 22.17039 ], [ 113.630139, 22.165639 ], [ 113.630139, 22.162763 ] ], [ [ 113.630139, 22.124211 ], [ 113.630139, 22.116106 ] ], [ [ 113.630139, 22.151154 ], [ 113.630139, 22.136697 ] ] ] } }
]
}
