{
"type": "FeatureCollection",
"name": "海南岛",
"crs": { "type": "name", "properties": { "name": "urn:ogc:def:crs:EPSG::4490" } },
"features": [
{ "type": "Feature", "properties": { "name": "海南省", "gb": "156460000" }, "geometry": { "type": "MultiPolygon", "coordinates": [ [ [ [ 110.697701, 20.135601 ], [ 110.704404, 20.104971 ], [ 110.726587, 20.06254 ], [ 110.761325, 20.044664 ], [ 110.7824, 20.011489 ], [ 110.810226, 20.006595 ], [ 110.855943, 19.991609 ], [ 110.913706, 20.001271 ], [ 110.932574, 20.01204 ], [ 110.952701, 19.975218 ], [ 110.9525, 19.958537 ], [ 110.971049, 19.904096 ], [ 110.995583, 19.821036 ], [ 110.998602, 19.741498 ], [ 111.009679, 19.686494 ], [ 111.029636, 19.67071 ], [ 111.028441, 19.636005 ], [ 111.014282, 19.642432 ], [ 110.979432, 19.641066 ], [ 110.954878, 19.606738 ], [ 110.91786, 19.586426 ], [ 110.86592, 19.524723 ], [ 110.848723, 19.528429 ], [ 110.832659, 19.585699 ], [ 110.823344, 19.597351 ], [ 110.842835, 19.612906 ], [ 110.835481, 19.628014 ], [ 110.814022, 19.625047 ], [ 110.803019, 19.594974 ], [ 110.836895, 19.542355 ], [ 110.808674, 19.531822 ], [ 110.805132, 19.485155 ], [ 110.795272, 19.479262 ], [ 110.764384, 19.439691 ], [ 110.762553, 19.428734 ], [ 110.732121, 19.410096 ], [ 110.69577, 19.40847 ], [ 110.678053, 19.392659 ], [ 110.669561, 19.362867 ], [ 110.683632, 19.339385 ], [ 110.676964, 19.319164 ], [ 110.644254, 19.31325 ], [ 110.633903, 19.301752 ], [ 110.639167, 19.274633 ], [ 110.617845, 19.22487 ], [ 110.618558, 19.210506 ], [ 110.595343, 19.191352 ], [ 110.586554, 19.159307 ], [ 110.555827, 19.141881 ], [ 110.568189, 19.126502 ], [ 110.571798, 19.090722 ], [ 110.567214, 19.047569 ], [ 110.541729, 19.043189 ], [ 110.516334, 18.989006 ], [ 110.507931, 18.894573 ], [ 110.464009, 18.866555 ], [ 110.463084, 18.842262 ], [ 110.438883, 18.83758 ], [ 110.439473, 18.813637 ], [ 110.488626, 18.792788 ], [ 110.512857, 18.801582 ], [ 110.493402, 18.850194 ], [ 110.495515, 18.886084 ], [ 110.513942, 18.880392 ], [ 110.517094, 18.839167 ], [ 110.530533, 18.795302 ], [ 110.462166, 18.766776 ], [ 110.445306, 18.730207 ], [ 110.435416, 18.728251 ], [ 110.428451, 18.6834 ], [ 110.414515, 18.668195 ], [ 110.395064, 18.675755 ], [ 110.366184, 18.669651 ], [ 110.358972, 18.688678 ], [ 110.360721, 18.688576 ], [ 110.349, 18.689588 ], [ 110.309482, 18.659578 ], [ 110.282788, 18.669718 ], [ 110.24493, 18.650241 ], [ 110.18639, 18.606607 ], [ 110.175968, 18.588134 ], [ 110.156284, 18.581799 ], [ 110.13879, 18.553063 ], [ 110.110106, 18.54079 ], [ 110.097615, 18.518748 ], [ 110.071993, 18.435391 ], [ 110.066372, 18.408328 ], [ 110.057797, 18.40987 ], [ 110.064405, 18.431652 ], [ 110.052696, 18.445236 ], [ 110.039061, 18.42571 ], [ 110.04684, 18.421678 ], [ 110.046989, 18.416831 ], [ 110.041151, 18.413061 ], [ 110.047636, 18.407992 ], [ 110.055418, 18.407576 ], [ 110.058316, 18.403892 ], [ 110.047932, 18.386122 ], [ 110.026547, 18.386449 ], [ 110.012165, 18.377141 ], [ 109.997609, 18.382514 ], [ 109.989976, 18.386844 ], [ 109.970427, 18.387696 ], [ 109.968621, 18.396156 ], [ 109.966133, 18.406652 ], [ 109.973173, 18.409168 ], [ 109.989963, 18.396823 ], [ 110.005539, 18.396237 ], [ 110.022489, 18.41603 ], [ 110.022804, 18.425107 ], [ 110.030214, 18.436648 ], [ 110.023159, 18.446173 ], [ 110.016325, 18.431585 ], [ 109.988432, 18.436365 ], [ 109.967047, 18.411048 ], [ 109.929211, 18.417202 ], [ 109.881078, 18.406368 ], [ 109.842361, 18.383043 ], [ 109.821785, 18.377947 ], [ 109.807927, 18.400626 ], [ 109.787381, 18.401309 ], [ 109.762957, 18.386778 ], [ 109.740795, 18.348786 ], [ 109.721246, 18.298883 ], [ 109.721053, 18.264722 ], [ 109.705977, 18.269064 ], [ 109.699987, 18.284242 ], [ 109.694446, 18.276445 ], [ 109.674996, 18.272306 ], [ 109.687186, 18.259147 ], [ 109.73318, 18.261502 ], [ 109.74546, 18.24548 ], [ 109.727132, 18.230919 ], [ 109.727277, 18.212427 ], [ 109.707028, 18.218059 ], [ 109.706394, 18.207637 ], [ 109.709996, 18.197636 ], [ 109.699574, 18.196741 ], [ 109.68901, 18.208462 ], [ 109.694777, 18.221768 ], [ 109.687956, 18.231782 ], [ 109.67705, 18.23715 ], [ 109.631518, 18.228101 ], [ 109.612298, 18.215418 ], [ 109.610012, 18.190984 ], [ 109.618663, 18.182139 ], [ 109.622388, 18.175472 ], [ 109.619465, 18.171267 ], [ 109.608995, 18.180111 ], [ 109.579229, 18.176502 ], [ 109.56961, 18.162997 ], [ 109.558861, 18.171831 ], [ 109.568124, 18.182375 ], [ 109.573997, 18.206144 ], [ 109.558131, 18.21059 ], [ 109.549289, 18.227625 ], [ 109.532631, 18.229213 ], [ 109.538299, 18.221549 ], [ 109.539615, 18.211047 ], [ 109.53582, 18.206078 ], [ 109.530992, 18.213696 ], [ 109.520609, 18.223086 ], [ 109.496771, 18.210938 ], [ 109.488223, 18.189494 ], [ 109.47086, 18.202093 ], [ 109.48783, 18.227122 ], [ 109.496025, 18.252198 ], [ 109.47933, 18.270274 ], [ 109.430922, 18.288755 ], [ 109.355107, 18.289912 ], [ 109.33745, 18.301683 ], [ 109.289007, 18.305154 ], [ 109.245644, 18.297461 ], [ 109.227751, 18.30011 ], [ 109.183076, 18.284513 ], [ 109.154124, 18.29532 ], [ 109.141512, 18.337575 ], [ 109.105339, 18.362315 ], [ 109.056367, 18.369764 ], [ 108.992205, 18.3572 ], [ 108.974241, 18.380633 ], [ 108.960277, 18.401929 ], [ 108.911091, 18.418176 ], [ 108.88066, 18.421684 ], [ 108.855229, 18.433929 ], [ 108.837439, 18.459194 ], [ 108.795115, 18.48074 ], [ 108.767424, 18.488241 ], [ 108.713728, 18.494483 ], [ 108.686896, 18.506827 ], [ 108.674105, 18.54792 ], [ 108.680026, 18.571646 ], [ 108.697822, 18.610083 ], [ 108.702692, 18.654742 ], [ 108.695407, 18.724679 ], [ 108.676199, 18.780561 ], [ 108.662263, 18.806121 ], [ 108.625557, 18.822744 ], [ 108.623292, 18.840509 ], [ 108.631949, 18.867214 ], [ 108.646666, 18.885298 ], [ 108.657685, 18.91723 ], [ 108.657627, 18.940853 ], [ 108.644471, 18.967988 ], [ 108.645757, 19.000781 ], [ 108.614708, 19.099638 ], [ 108.650698, 19.122904 ], [ 108.673408, 19.161423 ], [ 108.671424, 19.194667 ], [ 108.641594, 19.212238 ], [ 108.630491, 19.201564 ], [ 108.635154, 19.26396 ], [ 108.640047, 19.302599 ], [ 108.655914, 19.314589 ], [ 108.680335, 19.290826 ], [ 108.666188, 19.311134 ], [ 108.674017, 19.330154 ], [ 108.663879, 19.347628 ], [ 108.682327, 19.369543 ], [ 108.739423, 19.375215 ], [ 108.791734, 19.407564 ], [ 108.820751, 19.440303 ], [ 108.864182, 19.454531 ], [ 108.935921, 19.508479 ], [ 108.952595, 19.5276 ], [ 108.977697, 19.543634 ], [ 109.005637, 19.580732 ], [ 109.038697, 19.595784 ], [ 109.077707, 19.604576 ], [ 109.149551, 19.642338 ], [ 109.165351, 19.674888 ], [ 109.18616, 19.67461 ], [ 109.196545, 19.692588 ], [ 109.229361, 19.716985 ], [ 109.273935, 19.72378 ], [ 109.268058, 19.740549 ], [ 109.275205, 19.763929 ], [ 109.262185, 19.773691 ], [ 109.249543, 19.758398 ], [ 109.231311, 19.76099 ], [ 109.203585, 19.726272 ], [ 109.18269, 19.72282 ], [ 109.16822, 19.713824 ], [ 109.151097, 19.707566 ], [ 109.151076, 19.722169 ], [ 109.165934, 19.725174 ], [ 109.173984, 19.746606 ], [ 109.163395, 19.760861 ], [ 109.156698, 19.789827 ], [ 109.188216, 19.828351 ], [ 109.224612, 19.85351 ], [ 109.25488, 19.860126 ], [ 109.262297, 19.900311 ], [ 109.289664, 19.894865 ], [ 109.306256, 19.917428 ], [ 109.326839, 19.907621 ], [ 109.328088, 19.881387 ], [ 109.354629, 19.892272 ], [ 109.383351, 19.889589 ], [ 109.420525, 19.855268 ], [ 109.443599, 19.87384 ], [ 109.462549, 19.869074 ], [ 109.481183, 19.838759 ], [ 109.526757, 19.851909 ], [ 109.54134, 19.842272 ], [ 109.56553, 19.847947 ], [ 109.560777, 19.863869 ], [ 109.519679, 19.873647 ], [ 109.51649, 19.898278 ], [ 109.536988, 19.945661 ], [ 109.551435, 19.948736 ], [ 109.58313, 19.982172 ], [ 109.614213, 19.994111 ], [ 109.641283, 19.993462 ], [ 109.674365, 20.004558 ], [ 109.711709, 20.011083 ], [ 109.747519, 19.974554 ], [ 109.768022, 19.963725 ], [ 109.79128, 19.966135 ], [ 109.803124, 19.94472 ], [ 109.816535, 19.96402 ], [ 109.819041, 19.985364 ], [ 109.829462, 19.982533 ], [ 109.838453, 19.960756 ], [ 109.848453, 19.939503 ], [ 109.870433, 19.935701 ], [ 109.889422, 19.981819 ], [ 109.929216, 19.985221 ], [ 109.940485, 19.993173 ], [ 109.963501, 19.956403 ], [ 110.000547, 19.930115 ], [ 110.021845, 19.938504 ], [ 110.030824, 19.962492 ], [ 110.065836, 19.982587 ], [ 110.077827, 19.975539 ], [ 110.125681, 20.001123 ], [ 110.145539, 20.03007 ], [ 110.152013, 20.057565 ], [ 110.197687, 20.063386 ], [ 110.242819, 20.032995 ], [ 110.274875, 20.024538 ], [ 110.287333, 20.03503 ], [ 110.311909, 20.049055 ], [ 110.330101, 20.047447 ], [ 110.300794, 20.059135 ], [ 110.307663, 20.074795 ], [ 110.366688, 20.091363 ], [ 110.382757, 20.079386 ], [ 110.456811, 20.038541 ], [ 110.498538, 20.020792 ], [ 110.538398, 20.014976 ], [ 110.537491, 19.993559 ], [ 110.555878, 19.974837 ], [ 110.586352, 19.987045 ], [ 110.575223, 19.950145 ], [ 110.591654, 19.917333 ], [ 110.633981, 19.92115 ], [ 110.624398, 19.941168 ], [ 110.61912, 19.973487 ], [ 110.611267, 19.981454 ], [ 110.602229, 20.017791 ], [ 110.580089, 20.020255 ], [ 110.566092, 20.039073 ], [ 110.579438, 20.079616 ], [ 110.57433, 20.09441 ], [ 110.601301, 20.111039 ], [ 110.644924, 20.106044 ], [ 110.675741, 20.137547 ], [ 110.673686, 20.152645 ], [ 110.685287, 20.159826 ], [ 110.697701, 20.135601 ] ], [ [ 110.392247, 18.703203 ], [ 110.371369, 18.687955 ], [ 110.401651, 18.686188 ], [ 110.392247, 18.703203 ] ] ] ] } }
]
}
