{
"type": "FeatureCollection",
"name": "song",
"crs": { "type": "name", "properties": { "name": "urn:ogc:def:crs:EPSG::4979" } },
"features": [
{ "type": "Feature", "id": "0E1954DDBA414562D02E", "properties": { "name": "江南东路", "styleUrl": "#__managed_style_09277C5B97414562D068" }, "geometry": { "type": "Polygon", "coordinates": [ [ [ 115.481643100245094, 29.83720693466972, 0.0 ], [ 115.454796090693094, 29.775029005004651, 0.0 ], [ 115.453308251035594, 29.745347961048861, 0.0 ], [ 115.450197099491405, 29.724635652974872, 0.0 ], [ 115.429585690713594, 29.704567508728339, 0.0 ], [ 115.413712002747005, 29.694860834630251, 0.0 ], [ 115.396322640058003, 29.66512889979656, 0.0 ], [ 115.3606064441596, 29.64499404501306, 0.0 ], [ 115.309762048744403, 29.626857068472301, 0.0 ], [ 115.295030739090706, 29.621126677710471, 0.0 ], [ 115.289599664473698, 29.61256196411745, 0.0 ], [ 115.278466684969999, 29.609372507896101, 0.0 ], [ 115.2649728244036, 29.610677479641112, 0.0 ], [ 115.2543213792123, 29.615597078469492, 0.0 ], [ 115.247745163088595, 29.620236494848569, 0.0 ], [ 115.243433173017806, 29.629889954473981, 0.0 ], [ 115.236565398669896, 29.636006777834421, 0.0 ], [ 115.227559027703705, 29.641374997959868, 0.0 ], [ 115.214939428158701, 29.640227115310509, 0.0 ], [ 115.207872413037606, 29.641509658713531, 0.0 ], [ 115.201231002184898, 29.643164868330189, 0.0 ], [ 115.188364209815205, 29.648521030281412, 0.0 ], [ 115.182785076262903, 29.651294391403169, 0.0 ], [ 115.168210603080198, 29.653269284259789, 0.0 ], [ 115.148051742758398, 29.656703294261739, 0.0 ], [ 115.120222764530794, 29.659786885540889, 0.0 ], [ 115.103950028669203, 29.66191680377035, 0.0 ], [ 115.0900175128684, 29.661120237941649, 0.0 ], [ 115.083690846957893, 29.659807031814449, 0.0 ], [ 115.083519833416105, 29.65411929420155, 0.0 ], [ 115.084362288261303, 29.651943460631959, 0.0 ], [ 115.089798444516603, 29.647686181620362, 0.0 ], [ 115.101988629919902, 29.644044331112411, 0.0 ], [ 115.1104191127924, 29.638793232252741, 0.0 ], [ 115.115942208483006, 29.635124671350471, 0.0 ], [ 115.123250657741096, 29.622156523204222, 0.0 ], [ 115.1244427344879, 29.610609740684719, 0.0 ], [ 115.125339419632596, 29.603696220811841, 0.0 ], [ 115.1285085285799, 29.596793337975889, 0.0 ], [ 115.139639181748393, 29.588443571049179, 0.0 ], [ 115.144197140045506, 29.586240255740542, 0.0 ], [ 115.1547274099226, 29.582580221275339, 0.0 ], [ 115.159587985481394, 29.576920726658141, 0.0 ], [ 115.153960603185197, 29.56800803075993, 0.0 ], [ 115.147455121805507, 29.563783184290671, 0.0 ], [ 115.138967485927907, 29.558808844755639, 0.0 ], [ 115.134767797232996, 29.549162353620989, 0.0 ], [ 115.135698898146202, 29.536083426010801, 0.0 ], [ 115.143257508957305, 29.505759891517808, 0.0 ], [ 115.149860394861605, 29.492216664493199, 0.0 ], [ 115.192091510814294, 29.467740072885029, 0.0 ], [ 115.236523563716403, 29.448357137251449, 0.0 ], [ 115.291720620532601, 29.422823838613581, 0.0 ], [ 115.315930669531795, 29.391876820123962, 0.0 ], [ 115.329393922097495, 29.36085921143026, 0.0 ], [ 115.336865966473795, 29.331878756239892, 0.0 ], [ 115.341994531460003, 29.298739836977191, 0.0 ], [ 115.347036443849106, 29.27286187287369, 0.0 ], [ 115.381971520875595, 29.23062426852832, 0.0 ], [ 115.401352688033697, 29.194496927770381, 0.0 ], [ 115.413455743103199, 29.17178980958963, 0.0 ], [ 115.418426002028596, 29.149033197040161, 0.0 ], [ 115.416476357281894, 29.104473346116858, 0.0 ], [ 115.413268101784595, 29.06715649192078, 0.0 ], [ 115.421917331843105, 29.029927128809021, 0.0 ], [ 115.429314100663802, 28.998903734593689, 0.0 ], [ 115.485499877462402, 28.942332066800319, 0.0 ], [ 115.480977560726402, 28.916400241142259, 0.0 ], [ 115.478975706348606, 28.89412691323594, 0.0 ], [ 115.477872565415495, 28.86820411026396, 0.0 ], [ 115.473501825040501, 28.839385628067021, 0.0 ], [ 115.477731184806501, 28.804287724833561, 0.0 ], [ 115.486433101106996, 28.78476471740111, 0.0 ], [ 115.521483864781402, 28.756186423081679, 0.0 ], [ 115.547941493763403, 28.73100800099802, 0.0 ], [ 115.564461783842106, 28.716132799535401, 0.0 ], [ 115.576452297819003, 28.690294235184119, 0.0 ], [ 115.591029882129803, 28.669072965155621, 0.0 ], [ 115.611454251657193, 28.655938919952209, 0.0 ], [ 115.631143136776998, 28.654886444324841, 0.0 ], [ 115.648788208995796, 28.66648462878106, 0.0 ], [ 115.661757051379197, 28.693022952326729, 0.0 ], [ 115.685185416699795, 28.728236860836731, 0.0 ], [ 115.702793747701804, 28.749606798098519, 0.0 ], [ 115.734188256606302, 28.773330449655202, 0.0 ], [ 115.747265617327798, 28.784891439119551, 0.0 ], [ 115.770687337496, 28.83274996517881, 0.0 ], [ 115.792269800683499, 28.85642654667592, 0.0 ], [ 115.819806881038502, 28.874364443459282, 0.0 ], [ 115.8585475944937, 28.89002906513366, 0.0 ], [ 115.865053288030893, 28.910777344194539, 0.0 ], [ 115.864956806378302, 28.93899608188369, 0.0 ], [ 115.864894431361606, 28.95742765670968, 0.0 ], [ 115.870405644127004, 28.994678563166079, 0.0 ], [ 115.892812564414797, 29.017116174446841, 0.0 ], [ 115.910804342407204, 29.0401428112019, 0.0 ], [ 115.929163563535496, 29.060195154937961, 0.0 ], [ 115.9400239873044, 29.082321552925681, 0.0 ], [ 115.957583027093193, 29.117398022559779, 0.0 ], [ 115.973429858415301, 29.155718064202649, 0.0 ], [ 115.982715215859898, 29.197529776746709, 0.0 ], [ 116.046639648208, 29.21328464544078, 0.0 ], [ 116.070603196499107, 29.218441111381999, 0.0 ], [ 116.089750190076501, 29.194657989515282, 0.0 ], [ 116.098329803930795, 29.13110438019352, 0.0 ], [ 116.144941657068998, 29.05112512909216, 0.0 ], [ 116.187482155297104, 28.93365491718998, 0.0 ], [ 116.214905856201696, 28.8709886536056, 0.0 ], [ 116.272722652684493, 28.820655322601361, 0.0 ], [ 116.296746162438595, 28.770225285715341, 0.0 ], [ 116.330570148911804, 28.741438926917159, 0.0 ], [ 116.384837792713796, 28.771089782354551, 0.0 ], [ 116.378305256299996, 28.744393274562661, 0.0 ], [ 116.416232580010302, 28.71557812441101, 0.0 ], [ 116.443433460529306, 28.696838707288912, 0.0 ], [ 116.441456280719294, 28.660621528492971, 0.0 ], [ 116.441154386895604, 28.647916185671651, 0.0 ], [ 116.444694931291295, 28.63777107362392, 0.0 ], [ 116.453989492424995, 28.632732400247349, 0.0 ], [ 116.455947550505101, 28.628169839550299, 0.0 ], [ 116.454060860844507, 28.590420732021801, 0.0 ], [ 116.458931109035305, 28.582152395136688, 0.0 ], [ 116.468616823790498, 28.574075138459161, 0.0 ], [ 116.483510413236502, 28.5644979597059, 0.0 ], [ 116.506264607596293, 28.56104013864481, 0.0 ], [ 116.520376129869803, 28.551625289620041, 0.0 ], [ 116.543895422945198, 28.523497817866531, 0.0 ], [ 116.553686345088906, 28.494293075810429, 0.0 ], [ 116.554648288424701, 28.4546377003131, 0.0 ], [ 116.560461552005293, 28.425730222652572, 0.0 ], [ 116.580671395517697, 28.40731812235639, 0.0 ], [ 116.6242056492339, 28.39104399470795, 0.0 ], [ 116.659441076099597, 28.383107512561111, 0.0 ], [ 116.708437887743798, 28.381578278512759, 0.0 ], [ 116.736450059930206, 28.3675184502269, 0.0 ], [ 116.775131660240504, 28.316194237233429, 0.0 ], [ 116.794081653962905, 28.284375690997241, 0.0 ], [ 116.799939868376001, 28.268785407075391, 0.0 ], [ 116.793408271219704, 28.249629623962061, 0.0 ], [ 116.779722081613002, 28.241371242746059, 0.0 ], [ 116.763338881708094, 28.239343528488831, 0.0 ], [ 116.728232354152695, 28.252835415195989, 0.0 ], [ 116.714059924969405, 28.25081259634084, 0.0 ], [ 116.703931302549293, 28.24139210770625, 0.0 ], [ 116.701842837782806, 28.223816392845439, 0.0 ], [ 116.704645333446607, 28.20392670004891, 0.0 ], [ 116.722059844442697, 28.184505871428531, 0.0 ], [ 116.741638149848995, 28.17094902105141, 0.0 ], [ 116.7700389477708, 28.160944570628079, 0.0 ], [ 116.797543824663506, 28.150930299474169, 0.0 ], [ 116.806305203599706, 28.14667803256296, 0.0 ], [ 116.811388624968401, 28.134515444001629, 0.0 ], [ 116.811489663384194, 28.11947959256673, 0.0 ], [ 116.811361245945307, 28.094596352494278, 0.0 ], [ 116.812331716348993, 28.081125248260431, 0.0 ], [ 116.816770120517603, 28.0764823923856, 0.0 ], [ 116.842657070121206, 28.07168143209822, 0.0 ], [ 116.871158177732696, 28.070772846189598, 0.0 ], [ 116.896178272567397, 28.061034267612548, 0.0 ], [ 116.907413782893002, 28.046573166879771, 0.0 ], [ 116.918305303659594, 28.041176799070701, 0.0 ], [ 116.939773976784593, 28.033747255623279, 0.0 ], [ 116.947436076092799, 28.027558903949888, 0.0 ], [ 116.957221135067002, 28.000907006265081, 0.0 ], [ 116.966456867361401, 27.982726340481591, 0.0 ], [ 116.995074167422402, 27.964105929210959, 0.0 ], [ 116.998503980548193, 27.943044659911511, 0.0 ], [ 116.979448456406899, 27.909301769069479, 0.0 ], [ 116.975875353968206, 27.877373867393999, 0.0 ], [ 116.986968883515701, 27.864349004922161, 0.0 ], [ 117.026469401254502, 27.84809968292376, 0.0 ], [ 117.059398829597399, 27.84318940290327, 0.0 ], [ 117.090263514909907, 27.853063156639539, 0.0 ], [ 117.158873914387101, 27.900720766818822, 0.0 ], [ 117.190330169212999, 27.91910932266341, 0.0 ], [ 117.219978249618094, 27.9198292256354, 0.0 ], [ 117.236791719496907, 27.911371183070361, 0.0 ], [ 117.252585661492006, 27.897657671639418, 0.0 ], [ 117.270168964264997, 27.88282163581243, 0.0 ], [ 117.293324376170403, 27.876014313472648, 0.0 ], [ 117.300239222864207, 27.867759742950071, 0.0 ], [ 117.300602281681194, 27.857823314759852, 0.0 ], [ 117.298786424671604, 27.846498890946251, 0.0 ], [ 117.287420134768993, 27.810850034015878, 0.0 ], [ 117.2834137239618, 27.801174740677482, 0.0 ], [ 117.2853733370996, 27.784625522098391, 0.0 ], [ 117.290440128113005, 27.770297092427469, 0.0 ], [ 117.303304324609599, 27.76125188176718, 0.0 ], [ 117.316122405194093, 27.751733715819039, 0.0 ], [ 117.324822280266204, 27.743592120556869, 0.0 ], [ 117.328336003309104, 27.734097785380129, 0.0 ], [ 117.336368041895099, 27.73106896354064, 0.0 ], [ 117.341092549054594, 27.733344366244982, 0.0 ], [ 117.345424724443802, 27.74109766751133, 0.0 ], [ 117.345005312406499, 27.7517339746272, 0.0 ], [ 117.344604081514603, 27.758825173663979, 0.0 ], [ 117.339196013425095, 27.782021514899359, 0.0 ], [ 117.337881910870493, 27.789112399855899, 0.0 ], [ 117.337606409119601, 27.8065331384934, 0.0 ], [ 117.344837084550704, 27.819148217435089, 0.0 ], [ 117.358107278300594, 27.829045589118081, 0.0 ], [ 117.371057131238203, 27.830547918022869, 0.0 ], [ 117.399188829555797, 27.824195118499581, 0.0 ], [ 117.413066214138098, 27.82214606538119, 0.0 ], [ 117.422356932175902, 27.82669777368816, 0.0 ], [ 117.429457770645499, 27.83172644281056, 0.0 ], [ 117.447508478146403, 27.83905275714325, 0.0 ], [ 117.463749673595899, 27.84330461797876, 0.0 ], [ 117.486730013235999, 27.859855609343519, 0.0 ], [ 117.490565397862397, 27.87477220909938, 0.0 ], [ 117.498471970557404, 27.883780753265089, 0.0 ], [ 117.515105968957101, 27.88941195882623, 0.0 ], [ 117.536106568103605, 27.892711090399089, 0.0 ], [ 117.548392649401706, 27.89789158760049, 0.0 ], [ 117.558284907861307, 27.906872320646741, 0.0 ], [ 117.566952813695195, 27.925269359310931, 0.0 ], [ 117.575645883116906, 27.93254662750989, 0.0 ], [ 117.584831925394695, 27.935115769577511, 0.0 ], [ 117.594506784351907, 27.9336175491541, 0.0 ], [ 117.605878236623099, 27.92462911930193, 0.0 ], [ 117.625705297171194, 27.889348725261311, 0.0 ], [ 117.631742220310798, 27.8775989331868, 0.0 ], [ 117.650563164979701, 27.8590203293037, 0.0 ], [ 117.673695088625493, 27.828933142293049, 0.0 ], [ 117.685745989325994, 27.824662864442121, 0.0 ], [ 117.704795060858501, 27.824651016512441, 0.0 ], [ 117.718769753851504, 27.819310853415661, 0.0 ], [ 117.727908986093595, 27.809498445802799, 0.0 ], [ 117.744283296012597, 27.80223723926316, 0.0 ], [ 117.752955132337803, 27.799884015098272, 0.0 ], [ 117.765750445343798, 27.805196347924959, 0.0 ], [ 117.782731521522706, 27.831612531741349, 0.0 ], [ 117.796114031670697, 27.856989180496981, 0.0 ], [ 117.803796949532199, 27.899068886994101, 0.0 ], [ 117.823757169040405, 27.923917379466062, 0.0 ], [ 117.8533567865111, 27.934025485167719, 0.0 ], [ 117.889675626260797, 27.940986420968351, 0.0 ], [ 117.941833260381003, 27.959795673626871, 0.0 ], [ 117.994047077211306, 27.978601133276751, 0.0 ], [ 118.007103953855903, 27.981730095299, 0.0 ], [ 118.028049035356702, 27.979607757290641, 0.0 ], [ 118.069895091829295, 27.9655739243052, 0.0 ], [ 118.091249924670706, 27.965189179845591, 0.0 ], [ 118.093263880800805, 27.97147398527359, 0.0 ], [ 118.091805132000403, 27.99279415009347, 0.0 ], [ 118.103486605588401, 28.019650671804289, 0.0 ], [ 118.117254174128405, 28.034970960524859, 0.0 ], [ 118.151446837554801, 28.04308159396129, 0.0 ], [ 118.188196331657693, 28.044424344026609, 0.0 ], [ 118.218822831200598, 28.045311221857091, 0.0 ], [ 118.238231609755005, 28.052510245264191, 0.0 ], [ 118.2980911121779, 28.097102409493012, 0.0 ], [ 118.324173393907699, 28.102037367958602, 0.0 ], [ 118.3881036003189, 28.106013642641969, 0.0 ], [ 118.412682952379598, 28.111391336851511, 0.0 ], [ 118.426186790365605, 28.14126179789319, 0.0 ], [ 118.416998025945105, 28.172736701730191, 0.0 ], [ 118.384232322879797, 28.19748958508983, 0.0 ], [ 118.360611910301202, 28.208850345400379, 0.0 ], [ 118.358284770105698, 28.222923976816709, 0.0 ], [ 118.374960548236004, 28.24641328751062, 0.0 ], [ 118.447185412605194, 28.293435167195469, 0.0 ], [ 118.470011798644705, 28.30686826195479, 0.0 ], [ 118.475187068777601, 28.305977985796961, 0.0 ], [ 118.490575619315507, 28.328449773673452, 0.0 ], [ 118.501651158584195, 28.34882437554419, 0.0 ], [ 118.498068322102299, 28.375906495111359, 0.0 ], [ 118.478540800125202, 28.40708691224534, 0.0 ], [ 118.474150065717694, 28.41620077579174, 0.0 ], [ 118.475698428094205, 28.446717173570729, 0.0 ], [ 118.479488506467604, 28.469971771663079, 0.0 ], [ 118.484922272462299, 28.482391340020449, 0.0 ], [ 118.480920421952902, 28.5062774168609, 0.0 ], [ 118.458027140767499, 28.5416383882378, 0.0 ], [ 118.443448541534096, 28.58371896313027, 0.0 ], [ 118.439402120663502, 28.617538698214119, 0.0 ], [ 118.453556942457396, 28.639891762610141, 0.0 ], [ 118.459707882363702, 28.669601680467022, 0.0 ], [ 118.438890193257706, 28.711161835332629, 0.0 ], [ 118.420626017275694, 28.73227708104827, 0.0 ], [ 118.412885795100195, 28.767826740930118, 0.0 ], [ 118.374707704222104, 28.82389669447431, 0.0 ], [ 118.326542520406704, 28.868175102929548, 0.0 ], [ 118.296235927471201, 28.918113920246181, 0.0 ], [ 118.251281187509093, 28.924792865207991, 0.0 ], [ 118.248011893620102, 28.93714964598319, 0.0 ], [ 118.267282777085796, 28.94665462075562, 0.0 ], [ 118.267285024088494, 28.95621465297863, 0.0 ], [ 118.228730471430197, 28.976003359132491, 0.0 ], [ 118.192685036482303, 29.007617582010059, 0.0 ], [ 118.151480852409193, 29.015597474107551, 0.0 ], [ 118.119187338339003, 29.046669533242572, 0.0 ], [ 118.065239371552195, 29.066670471377059, 0.0 ], [ 118.005678485487294, 29.156990293328441, 0.0 ], [ 118.011107494868895, 29.176387649600009, 0.0 ], [ 118.031534620211403, 29.180527357366628, 0.0 ], [ 118.0700418689716, 29.214546607151998, 0.0 ], [ 118.086918632416399, 29.23499084429373, 0.0 ], [ 118.0822201898944, 29.287636393587881, 0.0 ], [ 118.107522732738204, 29.292814461995899, 0.0 ], [ 118.128597328430004, 29.29273700278182, 0.0 ], [ 118.193207086037503, 29.330968177601839, 0.0 ], [ 118.212129606223002, 29.373636099778331, 0.0 ], [ 118.207758889143705, 29.410739650485819, 0.0 ], [ 118.241445871902002, 29.430017313641581, 0.0 ], [ 118.284588507684106, 29.42210476866838, 0.0 ], [ 118.319501052752798, 29.42307949642337, 0.0 ], [ 118.328453870606396, 29.43745218455846, 0.0 ], [ 118.319148957383206, 29.486858546760601, 0.0 ], [ 118.322367219977096, 29.495729655386128, 0.0 ], [ 118.368746009118098, 29.48943243253186, 0.0 ], [ 118.396084606219603, 29.48987085940551, 0.0 ], [ 118.435678907468201, 29.514135033524841, 0.0 ], [ 118.482186242565803, 29.521700149885788, 0.0 ], [ 118.512468796125304, 29.530267478670321, 0.0 ], [ 118.521311723966804, 29.54650478997144, 0.0 ], [ 118.524953540356904, 29.564563869113719, 0.0 ], [ 118.541615413949003, 29.579439468345299, 0.0 ], [ 118.562573242804504, 29.592753436134679, 0.0 ], [ 118.600032221205893, 29.638471816608249, 0.0 ], [ 118.640881413206799, 29.65295821258054, 0.0 ], [ 118.672869517490597, 29.665731050970951, 0.0 ], [ 118.689781191131601, 29.68140311012354, 0.0 ], [ 118.700945824117298, 29.69579161710498, 0.0 ], [ 118.739934421427705, 29.717579034264929, 0.0 ], [ 118.755278474824607, 29.729211058848271, 0.0 ], [ 118.760412136632993, 29.755995349461909, 0.0 ], [ 118.752550368519707, 29.78890702665862, 0.0 ], [ 118.758274532026505, 29.81942712323686, 0.0 ], [ 118.790852323268496, 29.852872860154051, 0.0 ], [ 118.797440564448095, 29.86928162196762, 0.0 ], [ 118.820041339606107, 29.868953271242361, 0.0 ], [ 118.847097366494296, 29.880020167326052, 0.0 ], [ 118.856857677166602, 29.893182827169671, 0.0 ], [ 118.858214181369803, 29.95017543638593, 0.0 ], [ 118.891404376695306, 29.951300312592888, 0.0 ], [ 118.905488338702696, 29.964681414247721, 0.0 ], [ 118.900272116830394, 30.027958087416099, 0.0 ], [ 118.884392021328196, 30.114798306907119, 0.0 ], [ 118.902565202811701, 30.145073397170059, 0.0 ], [ 118.894424861702902, 30.152868136166379, 0.0 ], [ 118.878414717363796, 30.155766674075888, 0.0 ], [ 118.873118326992198, 30.163534648342999, 0.0 ], [ 118.875462102783203, 30.177070010156459, 0.0 ], [ 118.8880154973033, 30.185953599588149, 0.0 ], [ 118.903242437074098, 30.191448704929261, 0.0 ], [ 118.914168840217698, 30.194654486276509, 0.0 ], [ 118.924512559086196, 30.207460612436829, 0.0 ], [ 118.924773574877804, 30.2207713840771, 0.0 ], [ 118.919474875255503, 30.228442393920389, 0.0 ], [ 118.904310885624, 30.240151032200568, 0.0 ], [ 118.898849220071497, 30.254146817332689, 0.0 ], [ 118.890853088673396, 30.29694399148968, 0.0 ], [ 118.887346621613702, 30.308342931907809, 0.0 ], [ 118.8935502902753, 30.317285834762629, 0.0 ], [ 118.922466708600098, 30.332288932806911, 0.0 ], [ 118.945462466500103, 30.351221478230709, 0.0 ], [ 118.952044300932698, 30.358732275613011, 0.0 ], [ 118.967352528653393, 30.36313061045475, 0.0 ], [ 118.979409246396401, 30.359955600362991, 0.0 ], [ 119.003395880851301, 30.339242631132251, 0.0 ], [ 119.018199798838694, 30.328117416237468, 0.0 ], [ 119.089138704831797, 30.32463977698513, 0.0 ], [ 119.131510693896104, 30.32260236460165, 0.0 ], [ 119.182507315995693, 30.3095752497067, 0.0 ], [ 119.243231491656005, 30.309252021301031, 0.0 ], [ 119.258622681694007, 30.317015814000559, 0.0 ], [ 119.277952928150995, 30.34256717805922, 0.0 ], [ 119.308609993352604, 30.36710043015351, 0.0 ], [ 119.343151305380601, 30.371531970937031, 0.0 ], [ 119.378934525928102, 30.36825090088357, 0.0 ], [ 119.399688459008601, 30.37124424029901, 0.0 ], [ 119.410800309327897, 30.379559001914171, 0.0 ], [ 119.410371231830794, 30.3953867191311, 0.0 ], [ 119.400095474555698, 30.397307065089489, 0.0 ], [ 119.373266011354204, 30.390150339620021, 0.0 ], [ 119.358004056787195, 30.390029945323018, 0.0 ], [ 119.354356382298803, 30.399085605803329, 0.0 ], [ 119.349974221238696, 30.44720809053236, 0.0 ], [ 119.340667761227607, 30.502061438371449, 0.0 ], [ 119.333243572220198, 30.523015258165149, 0.0 ], [ 119.313655998989802, 30.526556174913971, 0.0 ], [ 119.285732583036307, 30.518270399240219, 0.0 ], [ 119.265711567714305, 30.504788829845069, 0.0 ], [ 119.241813537835895, 30.5138936773103, 0.0 ], [ 119.2285030745211, 30.550661922530381, 0.0 ], [ 119.224261325917695, 30.560194595388811, 0.0 ], [ 119.244197127700005, 30.57128042146978, 0.0 ], [ 119.267779561650997, 30.58104548899259, 0.0 ], [ 119.261085607901293, 30.610389404493471, 0.0 ], [ 119.289775909823504, 30.61691730218709, 0.0 ], [ 119.320713245467601, 30.624681785431619, 0.0 ], [ 119.330761351573301, 30.64619535457777, 0.0 ], [ 119.333289657024096, 30.659564665366069, 0.0 ], [ 119.364481989275305, 30.673746134067152, 0.0 ], [ 119.396457766574898, 30.687929052466981, 0.0 ], [ 119.4070790063289, 30.673661620251931, 0.0 ], [ 119.4070885368033, 30.648093642401001, 0.0 ], [ 119.423878574081598, 30.645251576698978, 0.0 ], [ 119.4773233832898, 30.664772060877478, 0.0 ], [ 119.516689116650696, 30.677521083639991, 0.0 ], [ 119.532778200568501, 30.690424057923199, 0.0 ], [ 119.550775500896506, 30.717998493853209, 0.0 ], [ 119.570440691436104, 30.76683930742951, 0.0 ], [ 119.580402650655202, 30.808893273945049, 0.0 ], [ 119.597633744768302, 30.851419918245231, 0.0 ], [ 119.632252803568093, 30.88658687953172, 0.0 ], [ 119.665728367403304, 30.91972884851301, 0.0 ], [ 119.672585328248701, 30.9398287402786, 0.0 ], [ 119.667794101464295, 30.954274032440541, 0.0 ], [ 119.646997992265895, 30.98084117773341, 0.0 ], [ 119.630250185724293, 30.999639335361891, 0.0 ], [ 119.626392543041405, 31.0340168381375, 0.0 ], [ 119.635676995434295, 31.080662083841158, 0.0 ], [ 119.642732071434594, 31.110927925995671, 0.0 ], [ 119.627657789520001, 31.131100329111408, 0.0 ], [ 119.588218076765102, 31.126744630626469, 0.0 ], [ 119.562515923396106, 31.133243421880771, 0.0 ], [ 119.551338627371806, 31.16171550229371, 0.0 ], [ 119.552168447853703, 31.21573939530737, 0.0 ], [ 119.524783436118497, 31.251967119442622, 0.0 ], [ 119.512190669126994, 31.283024434293189, 0.0 ], [ 119.525981137019301, 31.339715747176829, 0.0 ], [ 119.535908775353704, 31.373518040910721, 0.0 ], [ 119.564509088620099, 31.415017007224471, 0.0 ], [ 119.563714968347995, 31.441717265705101, 0.0 ], [ 119.5468385986063, 31.474410608591889, 0.0 ], [ 119.522503808436895, 31.49181928268607, 0.0 ], [ 119.508998439351899, 31.516334774214481, 0.0 ], [ 119.514170939375305, 31.547891226425119, 0.0 ], [ 119.514382038231204, 31.578890144591281, 0.0 ], [ 119.497368483278805, 31.58645363957654, 0.0 ], [ 119.447226766433204, 31.570384880772881, 0.0 ], [ 119.407064722499001, 31.57282072421798, 0.0 ], [ 119.369150686377793, 31.586145967524871, 0.0 ], [ 119.319866466204502, 31.596904813137101, 0.0 ], [ 119.290386326989406, 31.606918805999548, 0.0 ], [ 119.280814812608, 31.625806115144471, 0.0 ], [ 119.278984879183696, 31.68783112979116, 0.0 ], [ 119.284581545514101, 31.724218402063869, 0.0 ], [ 119.299395197947106, 31.755968703896521, 0.0 ], [ 119.312137357729895, 31.878657575914509, 0.0 ], [ 119.326880192270707, 31.948646115274691, 0.0 ], [ 119.322729546286595, 31.98312218788562, 0.0 ], [ 119.276268839393396, 32.015726282026357, 0.0 ], [ 119.244875686539501, 32.064230949323857, 0.0 ], [ 119.225472763592904, 32.115323875504437, 0.0 ], [ 119.2180297894039, 32.145113718081227, 0.0 ], [ 119.214375282967794, 32.176863532689467, 0.0 ], [ 119.218229763407905, 32.187177282021707, 0.0 ], [ 119.191894035980397, 32.217887851055352, 0.0 ], [ 118.991201514240601, 32.215032002781413, 0.0 ], [ 118.816813646689994, 32.195084796403421, 0.0 ], [ 118.730583932658703, 32.0934878980365, 0.0 ], [ 118.680422428262602, 32.010137013322328, 0.0 ], [ 118.626281070359894, 31.955688467585802, 0.0 ], [ 118.546986867795198, 31.88346506773604, 0.0 ], [ 118.470298885920698, 31.760669918243561, 0.0 ], [ 118.440921109516196, 31.67722434863304, 0.0 ], [ 118.424003766603704, 31.57900870250722, 0.0 ], [ 118.363136033654897, 31.503501675868961, 0.0 ], [ 118.343374899226603, 31.458265850337249, 0.0 ], [ 118.339357019083593, 31.421475445782871, 0.0 ], [ 118.3508640223274, 31.35648205332069, 0.0 ], [ 118.349898588196197, 31.309336296875969, 0.0 ], [ 118.319619712238307, 31.26285950248629, 0.0 ], [ 118.216724244720396, 31.24261053162919, 0.0 ], [ 118.103376359196901, 31.23328333489831, 0.0 ], [ 118.049123450534395, 31.206924345663239, 0.0 ], [ 117.998464394115004, 31.14787821823505, 0.0 ], [ 117.9727926009501, 31.108595238569571, 0.0 ], [ 117.799596031844899, 31.0394193297758, 0.0 ], [ 117.763164960412595, 30.986033407773601, 0.0 ], [ 117.740702352678596, 30.926846593008321, 0.0 ], [ 117.727537840465601, 30.851159855053599, 0.0 ], [ 117.729266063858503, 30.813461249960731, 0.0 ], [ 117.694154575471401, 30.79694060048757, 0.0 ], [ 117.616980157505097, 30.77644707954596, 0.0 ], [ 117.505134055907504, 30.746050155719491, 0.0 ], [ 117.441889362802399, 30.707263341923682, 0.0 ], [ 117.274206410955102, 30.655732759086341, 0.0 ], [ 117.224115297093405, 30.62907919836114, 0.0 ], [ 117.1524944312076, 30.520007084437879, 0.0 ], [ 117.061697909874198, 30.49922323013303, 0.0 ], [ 116.932560321341796, 30.4931799925468, 0.0 ], [ 116.901166659261605, 30.415131908687592, 0.0 ], [ 116.927211434933, 30.300828070186409, 0.0 ], [ 116.896874836694806, 30.22275052960169, 0.0 ], [ 116.844277022892996, 30.14084837302125, 0.0 ], [ 116.783057105644403, 30.0970804486997, 0.0 ], [ 116.743381865968203, 30.06406496542867, 0.0 ], [ 116.669574305335004, 30.0556364520085, 0.0 ], [ 116.589871260705195, 29.99304062834748, 0.0 ], [ 116.559229858750001, 29.939460084469509, 0.0 ], [ 116.545559789743507, 29.90114285173971, 0.0 ], [ 116.483167079355198, 29.88300378262733, 0.0 ], [ 116.403015548055606, 29.86528948295696, 0.0 ], [ 116.346315703768695, 29.837577156507791, 0.0 ], [ 116.288763482781405, 29.78900455011572, 0.0 ], [ 116.251344509950997, 29.786524276295751, 0.0 ], [ 116.130647991278295, 29.7865865565558, 0.0 ], [ 116.020617276328693, 29.758085766301129, 0.0 ], [ 115.961307612168198, 29.728504725398789, 0.0 ], [ 115.900514645919102, 29.731629481453091, 0.0 ], [ 115.814912391563595, 29.772694958507749, 0.0 ], [ 115.759544135584207, 29.79512564185746, 0.0 ], [ 115.722639920154293, 29.82975846519528, 0.0 ], [ 115.714826922837304, 29.852889016763019, 0.0 ], [ 115.649630468006904, 29.845236836918069, 0.0 ], [ 115.580038008880905, 29.840155940760049, 0.0 ], [ 115.481643100245094, 29.83720693466972, 0.0 ] ] ] } },
{ "type": "Feature", "id": "0F0A724C37414566F6A0", "properties": { "name": "两浙路", "styleUrl": "#__managed_style_09277C5B97414562D068" }, "geometry": { "type": "Polygon", "coordinates": [ [ [ 119.322729546286595, 31.98312218788562, 0.0 ], [ 119.326880192270707, 31.948646115274691, 0.0 ], [ 119.312137357729895, 31.878657575914509, 0.0 ], [ 119.299395197947106, 31.755968703896521, 0.0 ], [ 119.284581545514101, 31.724218402063869, 0.0 ], [ 119.278984879183696, 31.68783112979116, 0.0 ], [ 119.280814812608, 31.625806115144471, 0.0 ], [ 119.290386326989406, 31.606918805999548, 0.0 ], [ 119.319866466204502, 31.596904813137101, 0.0 ], [ 119.369150686377793, 31.586145967524871, 0.0 ], [ 119.407064722499001, 31.57282072421798, 0.0 ], [ 119.447226766433204, 31.570384880772881, 0.0 ], [ 119.497368483278805, 31.58645363957654, 0.0 ], [ 119.514382038231204, 31.578890144591281, 0.0 ], [ 119.514170939375305, 31.547891226425119, 0.0 ], [ 119.508998439351899, 31.516334774214481, 0.0 ], [ 119.522503808436895, 31.49181928268607, 0.0 ], [ 119.5468385986063, 31.474410608591889, 0.0 ], [ 119.563714968347995, 31.441717265705101, 0.0 ], [ 119.564509088620099, 31.415017007224471, 0.0 ], [ 119.535908775353704, 31.373518040910721, 0.0 ], [ 119.525981137019301, 31.339715747176829, 0.0 ], [ 119.512190669126994, 31.283024434293189, 0.0 ], [ 119.524783436118497, 31.251967119442622, 0.0 ], [ 119.552168447853703, 31.21573939530737, 0.0 ], [ 119.551338627371806, 31.16171550229371, 0.0 ], [ 119.562515923396106, 31.133243421880771, 0.0 ], [ 119.588218076765102, 31.126744630626469, 0.0 ], [ 119.627657789520001, 31.131100329111408, 0.0 ], [ 119.642732071434594, 31.110927925995671, 0.0 ], [ 119.626392543041405, 31.0340168381375, 0.0 ], [ 119.630250185724293, 30.999639335361891, 0.0 ], [ 119.646997992265895, 30.98084117773341, 0.0 ], [ 119.667794101464295, 30.954274032440541, 0.0 ], [ 119.672585328248701, 30.9398287402786, 0.0 ], [ 119.665728367403304, 30.91972884851301, 0.0 ], [ 119.632252803568093, 30.88658687953172, 0.0 ], [ 119.597633744768302, 30.851419918245231, 0.0 ], [ 119.580402650655202, 30.808893273945049, 0.0 ], [ 119.570440691436104, 30.76683930742951, 0.0 ], [ 119.550775500896506, 30.717998493853209, 0.0 ], [ 119.532778200568501, 30.690424057923199, 0.0 ], [ 119.516689116650696, 30.677521083639991, 0.0 ], [ 119.4773233832898, 30.664772060877478, 0.0 ], [ 119.423878574081598, 30.645251576698978, 0.0 ], [ 119.4070885368033, 30.648093642401001, 0.0 ], [ 119.4070790063289, 30.673661620251931, 0.0 ], [ 119.396457766574898, 30.687929052466981, 0.0 ], [ 119.364481989275305, 30.673746134067152, 0.0 ], [ 119.333289657024096, 30.659564665366069, 0.0 ], [ 119.330761351573301, 30.64619535457777, 0.0 ], [ 119.320713245467601, 30.624681785431619, 0.0 ], [ 119.261085607901293, 30.610389404493471, 0.0 ], [ 119.267779561650997, 30.58104548899259, 0.0 ], [ 119.244197127700005, 30.57128042146978, 0.0 ], [ 119.224261325917695, 30.560194595388811, 0.0 ], [ 119.2285030745211, 30.550661922530381, 0.0 ], [ 119.241813537835895, 30.5138936773103, 0.0 ], [ 119.265711567714305, 30.504788829845069, 0.0 ], [ 119.285732583036307, 30.518270399240219, 0.0 ], [ 119.313655998989802, 30.526556174913971, 0.0 ], [ 119.333243572220198, 30.523015258165149, 0.0 ], [ 119.340667761227607, 30.502061438371449, 0.0 ], [ 119.349974221238696, 30.44720809053236, 0.0 ], [ 119.354356382298803, 30.399085605803329, 0.0 ], [ 119.358004056787195, 30.390029945323018, 0.0 ], [ 119.373266011354204, 30.390150339620021, 0.0 ], [ 119.400095474555698, 30.397307065089489, 0.0 ], [ 119.410371231830794, 30.3953867191311, 0.0 ], [ 119.410800309327897, 30.379559001914171, 0.0 ], [ 119.399688459008601, 30.37124424029901, 0.0 ], [ 119.378934525928102, 30.36825090088357, 0.0 ], [ 119.343151305380601, 30.371531970937031, 0.0 ], [ 119.308609993352604, 30.36710043015351, 0.0 ], [ 119.277952928150995, 30.34256717805922, 0.0 ], [ 119.258622681694007, 30.317015814000559, 0.0 ], [ 119.243231491656005, 30.309252021301031, 0.0 ], [ 119.182507315995693, 30.3095752497067, 0.0 ], [ 119.131510693896104, 30.32260236460165, 0.0 ], [ 119.089138704831797, 30.32463977698513, 0.0 ], [ 119.018199798838694, 30.328117416237468, 0.0 ], [ 119.003395880851301, 30.339242631132251, 0.0 ], [ 118.979409246396401, 30.359955600362991, 0.0 ], [ 118.967352528653393, 30.36313061045475, 0.0 ], [ 118.952044300932698, 30.358732275613011, 0.0 ], [ 118.945462466500103, 30.351221478230709, 0.0 ], [ 118.922466708600098, 30.332288932806911, 0.0 ], [ 118.8935502902753, 30.317285834762629, 0.0 ], [ 118.887346621613702, 30.308342931907809, 0.0 ], [ 118.890853088673396, 30.29694399148968, 0.0 ], [ 118.898849220071497, 30.254146817332689, 0.0 ], [ 118.904310885624, 30.240151032200568, 0.0 ], [ 118.919474875255503, 30.228442393920389, 0.0 ], [ 118.924773574877804, 30.2207713840771, 0.0 ], [ 118.924512559086196, 30.207460612436829, 0.0 ], [ 118.914168840217698, 30.194654486276509, 0.0 ], [ 118.8880154973033, 30.185953599588149, 0.0 ], [ 118.875462102783203, 30.177070010156459, 0.0 ], [ 118.873118326992198, 30.163534648342999, 0.0 ], [ 118.878414717363796, 30.155766674075888, 0.0 ], [ 118.894424861702902, 30.152868136166379, 0.0 ], [ 118.902565202811701, 30.145073397170059, 0.0 ], [ 118.884392021328196, 30.114798306907119, 0.0 ], [ 118.900272116830394, 30.027958087416099, 0.0 ], [ 118.905488338702696, 29.964681414247721, 0.0 ], [ 118.891404376695306, 29.951300312592888, 0.0 ], [ 118.858214181369803, 29.95017543638593, 0.0 ], [ 118.856857677166602, 29.893182827169671, 0.0 ], [ 118.847097366494296, 29.880020167326052, 0.0 ], [ 118.820041339606107, 29.868953271242361, 0.0 ], [ 118.797440564448095, 29.86928162196762, 0.0 ], [ 118.790852323268496, 29.852872860154051, 0.0 ], [ 118.758274532026505, 29.81942712323686, 0.0 ], [ 118.752550368519707, 29.78890702665862, 0.0 ], [ 118.760412136632993, 29.755995349461909, 0.0 ], [ 118.755278474824607, 29.729211058848271, 0.0 ], [ 118.739934421427705, 29.717579034264929, 0.0 ], [ 118.700945824117298, 29.69579161710498, 0.0 ], [ 118.689781191131601, 29.68140311012354, 0.0 ], [ 118.672869517490597, 29.665731050970951, 0.0 ], [ 118.640881413206799, 29.65295821258054, 0.0 ], [ 118.600032221205893, 29.638471816608249, 0.0 ], [ 118.562573242804504, 29.592753436134679, 0.0 ], [ 118.541615413949003, 29.579439468345299, 0.0 ], [ 118.524953540356904, 29.564563869113719, 0.0 ], [ 118.521311723966804, 29.54650478997144, 0.0 ], [ 118.512468796125304, 29.530267478670321, 0.0 ], [ 118.482186242565803, 29.521700149885788, 0.0 ], [ 118.435678907468201, 29.514135033524841, 0.0 ], [ 118.396084606219603, 29.48987085940551, 0.0 ], [ 118.368746009118098, 29.48943243253186, 0.0 ], [ 118.322367219977096, 29.495729655386128, 0.0 ], [ 118.319148957383206, 29.486858546760601, 0.0 ], [ 118.328453870606396, 29.43745218455846, 0.0 ], [ 118.319501052752798, 29.42307949642337, 0.0 ], [ 118.284588507684106, 29.42210476866838, 0.0 ], [ 118.241445871902002, 29.430017313641581, 0.0 ], [ 118.207758889143705, 29.410739650485819, 0.0 ], [ 118.212129606223002, 29.373636099778331, 0.0 ], [ 118.193207086037503, 29.330968177601839, 0.0 ], [ 118.128597328430004, 29.29273700278182, 0.0 ], [ 118.107522732738204, 29.292814461995899, 0.0 ], [ 118.0822201898944, 29.287636393587881, 0.0 ], [ 118.086918632416399, 29.23499084429373, 0.0 ], [ 118.0700418689716, 29.214546607151998, 0.0 ], [ 118.031534620211403, 29.180527357366628, 0.0 ], [ 118.011107494868895, 29.176387649600009, 0.0 ], [ 118.005678485487294, 29.156990293328441, 0.0 ], [ 118.065239371552195, 29.066670471377059, 0.0 ], [ 118.119187338339003, 29.046669533242572, 0.0 ], [ 118.151480852409193, 29.015597474107551, 0.0 ], [ 118.192685036482303, 29.007617582010059, 0.0 ], [ 118.228730471430197, 28.976003359132491, 0.0 ], [ 118.267285024088494, 28.95621465297863, 0.0 ], [ 118.267282777085796, 28.94665462075562, 0.0 ], [ 118.248011893620102, 28.93714964598319, 0.0 ], [ 118.251281187509093, 28.924792865207991, 0.0 ], [ 118.296235927471201, 28.918113920246181, 0.0 ], [ 118.326542520406704, 28.868175102929548, 0.0 ], [ 118.374707704222104, 28.82389669447431, 0.0 ], [ 118.412885795100195, 28.767826740930118, 0.0 ], [ 118.420626017275694, 28.73227708104827, 0.0 ], [ 118.438890193257706, 28.711161835332629, 0.0 ], [ 118.459707882363702, 28.669601680467022, 0.0 ], [ 118.453556942457396, 28.639891762610141, 0.0 ], [ 118.439402120663502, 28.617538698214119, 0.0 ], [ 118.443448541534096, 28.58371896313027, 0.0 ], [ 118.458027140767499, 28.5416383882378, 0.0 ], [ 118.480920421952902, 28.5062774168609, 0.0 ], [ 118.484922272462299, 28.482391340020449, 0.0 ], [ 118.479488506467604, 28.469971771663079, 0.0 ], [ 118.475698428094205, 28.446717173570729, 0.0 ], [ 118.474150065717694, 28.41620077579174, 0.0 ], [ 118.478540800125202, 28.40708691224534, 0.0 ], [ 118.498068322102299, 28.375906495111359, 0.0 ], [ 118.501651158584195, 28.34882437554419, 0.0 ], [ 118.490575619315507, 28.328449773673452, 0.0 ], [ 118.475187068777601, 28.305977985796961, 0.0 ], [ 118.486716772432601, 28.290702648423409, 0.0 ], [ 118.512617516171503, 28.274273373493621, 0.0 ], [ 118.531394045037501, 28.281362315869739, 0.0 ], [ 118.543403326590393, 28.29972582002873, 0.0 ], [ 118.555049999256497, 28.305708776570309, 0.0 ], [ 118.573959788370104, 28.309170244493451, 0.0 ], [ 118.608685685197898, 28.307580048868179, 0.0 ], [ 118.698827308006599, 28.321804607442989, 0.0 ], [ 118.7275717628915, 28.314435171004479, 0.0 ], [ 118.745493500138394, 28.29893614351662, 0.0 ], [ 118.760297229580502, 28.279767054293369, 0.0 ], [ 118.802047973133696, 28.22397166232847, 0.0 ], [ 118.799249797081799, 28.20988267520973, 0.0 ], [ 118.793673219916698, 28.20131377513184, 0.0 ], [ 118.772571066381502, 28.193064254035779, 0.0 ], [ 118.771681309972706, 28.184705119403311, 0.0 ], [ 118.805115033576499, 28.158786815667849, 0.0 ], [ 118.803947937198998, 28.13635643453577, 0.0 ], [ 118.742081048264595, 28.096188281520039, 0.0 ], [ 118.7284677868724, 28.074684940914981, 0.0 ], [ 118.730786390059393, 28.03694575956337, 0.0 ], [ 118.748461390141998, 27.998570283701969, 0.0 ], [ 118.754372622650905, 27.938476830843971, 0.0 ], [ 118.766640785468098, 27.93244183017794, 0.0 ], [ 118.802509833468406, 27.931628966717501, 0.0 ], [ 118.823816804692598, 27.929579000159269, 0.0 ], [ 118.842151136316005, 27.918105812105189, 0.0 ], [ 118.8489703624128, 27.9034187061722, 0.0 ], [ 118.851168856951304, 27.88429108185224, 0.0 ], [ 118.844068040770793, 27.846226037177018, 0.0 ], [ 118.847281390660299, 27.813114576489301, 0.0 ], [ 118.883049067505993, 27.733315793856299, 0.0 ], [ 118.892315762294999, 27.680347268625709, 0.0 ], [ 118.908030876283803, 27.643108139748499, 0.0 ], [ 118.914447700292897, 27.6096610508203, 0.0 ], [ 118.9048924930472, 27.541002309263551, 0.0 ], [ 118.898076170537394, 27.535723504763109, 0.0 ], [ 118.878430418434405, 27.53774783442385, 0.0 ], [ 118.866091486863894, 27.533667206550259, 0.0 ], [ 118.8692844498119, 27.523050425494141, 0.0 ], [ 118.886650386076298, 27.506928837670699, 0.0 ], [ 118.905840745013805, 27.466122624162249, 0.0 ], [ 118.925974892872205, 27.45782825330248, 0.0 ], [ 118.948592421031094, 27.458682351219949, 0.0 ], [ 118.994270580804098, 27.488771896871881, 0.0 ], [ 119.017734787836304, 27.492507221259959, 0.0 ], [ 119.060929101579305, 27.479170434646949, 0.0 ], [ 119.119295994920094, 27.478345738410908, 0.0 ], [ 119.136430950383101, 27.470299748511771, 0.0 ], [ 119.144266530220094, 27.43216851543372, 0.0 ], [ 119.177209210366101, 27.422856744155649, 0.0 ], [ 119.212532541685107, 27.41667351186247, 0.0 ], [ 119.249102704798005, 27.41820805340944, 0.0 ], [ 119.312442696441593, 27.462873842708191, 0.0 ], [ 119.350642679394596, 27.487783276968852, 0.0 ], [ 119.390635573976894, 27.526843081849702, 0.0 ], [ 119.410430378434498, 27.530833611402979, 0.0 ], [ 119.427078141581603, 27.526292129283242, 0.0 ], [ 119.440625045372201, 27.514338405864251, 0.0 ], [ 119.458776962919799, 27.51505989813765, 0.0 ], [ 119.475315761406307, 27.534989240297989, 0.0 ], [ 119.482356197833795, 27.58115623016252, 0.0 ], [ 119.495920021674394, 27.622727224304391, 0.0 ], [ 119.504307201656999, 27.65096409338199, 0.0 ], [ 119.514912742406395, 27.666597856130789, 0.0 ], [ 119.568742004408193, 27.671499109485719, 0.0 ], [ 119.636559599237302, 27.660608240002571, 0.0 ], [ 119.620090381686595, 27.586452886613809, 0.0 ], [ 119.686673211667895, 27.546390906290679, 0.0 ], [ 119.705045291929807, 27.486449819735871, 0.0 ], [ 119.697370401420997, 27.431374681727551, 0.0 ], [ 119.7406961954092, 27.387070473286951, 0.0 ], [ 119.764297711668704, 27.346808532632888, 0.0 ], [ 119.779027663926598, 27.322184841687761, 0.0 ], [ 119.817010860823203, 27.317255645371478, 0.0 ], [ 119.864479171716397, 27.304641622458149, 0.0 ], [ 119.911327836155095, 27.314972166345751, 0.0 ], [ 119.935598734144094, 27.330451569820369, 0.0 ], [ 119.947310252094198, 27.3553996080832, 0.0 ], [ 119.964000978394793, 27.363158218218789, 0.0 ], [ 119.993349001277807, 27.362425483547892, 0.0 ], [ 120.040448187420793, 27.34940820342803, 0.0 ], [ 120.069885099636295, 27.355101471291391, 0.0 ], [ 120.113757555065405, 27.377926778647321, 0.0 ], [ 120.162863836874493, 27.412346984874219, 0.0 ], [ 120.234374766047694, 27.429001032423521, 0.0 ], [ 120.253599847421398, 27.425178039677931, 0.0 ], [ 120.264007662343303, 27.408598891542638, 0.0 ], [ 120.280568443150003, 27.389274057336269, 0.0 ], [ 120.305261217892294, 27.386127293354718, 0.0 ], [ 120.330595136937902, 27.396374403146542, 0.0 ], [ 120.341870014386203, 27.391796842992019, 0.0 ], [ 120.368290435255403, 27.34512984987499, 0.0 ], [ 120.409560417366706, 27.298717113704601, 0.0 ], [ 120.411836568675696, 27.238047413893199, 0.0 ], [ 120.415990684608602, 27.210597180261981, 0.0 ], [ 120.427214529202601, 27.18636573599694, 0.0 ], [ 120.435780789900207, 27.170978097084671, 0.0 ], [ 120.439319087500806, 27.17603089017533, 0.0 ], [ 120.435689099211004, 27.18809313506647, 0.0 ], [ 120.432059110921102, 27.200155379957629, 0.0 ], [ 120.4362977140336, 27.20635289475802, 0.0 ], [ 120.447992679367204, 27.216185177753669, 0.0 ], [ 120.462010924887593, 27.21808221408936, 0.0 ], [ 120.465475618892299, 27.208414358380061, 0.0 ], [ 120.460983338959096, 27.195713270310701, 0.0 ], [ 120.467421737898306, 27.172509836890949, 0.0 ], [ 120.474397900685702, 27.165696442854149, 0.0 ], [ 120.485381738502397, 27.164907070819869, 0.0 ], [ 120.494196777135102, 27.178044038137291, 0.0 ], [ 120.528780993380593, 27.1988362431063, 0.0 ], [ 120.529428265467601, 27.202837706502159, 0.0 ], [ 120.516934841245401, 27.21276398893189, 0.0 ], [ 120.535778849722703, 27.229768034720099, 0.0 ], [ 120.538460277307706, 27.23725577070833, 0.0 ], [ 120.538617355587107, 27.252429485025381, 0.0 ], [ 120.530303784337804, 27.260347316038981, 0.0 ], [ 120.533078627440801, 27.268763723771549, 0.0 ], [ 120.565884069224794, 27.294857072123541, 0.0 ], [ 120.554000055284106, 27.37357495614393, 0.0 ], [ 120.588473790924496, 27.3829201812054, 0.0 ], [ 120.625173689485607, 27.377638759911608, 0.0 ], [ 120.619958321167402, 27.36578752258335, 0.0 ], [ 120.650075432165195, 27.361162705811701, 0.0 ], [ 120.658268514737898, 27.405542665697311, 0.0 ], [ 120.682746324650296, 27.46139379504125, 0.0 ], [ 120.680161265346896, 27.469118744930611, 0.0 ], [ 120.658371441036095, 27.520304686042191, 0.0 ], [ 120.613813234178593, 27.577038769637959, 0.0 ], [ 120.682546592430597, 27.646163608219581, 0.0 ], [ 120.694883797070005, 27.683473151113361, 0.0 ], [ 120.685513166590795, 27.708538033946279, 0.0 ], [ 120.668592116491894, 27.73064232648564, 0.0 ], [ 120.702983748126897, 27.709592654742149, 0.0 ], [ 120.711854715479703, 27.69601197730524, 0.0 ], [ 120.730171626816201, 27.698315842461419, 0.0 ], [ 120.752147723489301, 27.721806093878978, 0.0 ], [ 120.776973880892299, 27.752820076491819, 0.0 ], [ 120.772996777253198, 27.782356232495989, 0.0 ], [ 120.790856244676206, 27.790715739898008, 0.0 ], [ 120.868690341706198, 27.865450286372621, 0.0 ], [ 120.875529904998601, 27.904577212199229, 0.0 ], [ 120.8736528041524, 27.93180658496938, 0.0 ], [ 120.824293623097603, 27.964640955526612, 0.0 ], [ 120.769118104380496, 27.975161816325759, 0.0 ], [ 120.688561583642993, 28.035743023537059, 0.0 ], [ 120.738256330990694, 28.03549518905335, 0.0 ], [ 120.810728564293996, 27.989903158722719, 0.0 ], [ 120.833576197371698, 27.984244956336209, 0.0 ], [ 120.894000301563395, 27.99018841755171, 0.0 ], [ 120.970752808918704, 27.97207731425954, 0.0 ], [ 120.983750866304504, 27.98979837344638, 0.0 ], [ 120.992726783970596, 28.067138422896701, 0.0 ], [ 121.001580132182298, 28.096876339466419, 0.0 ], [ 121.016153257689794, 28.114862756802591, 0.0 ], [ 121.056727562994894, 28.14262784035294, 0.0 ], [ 121.106471279577093, 28.164509025867002, 0.0 ], [ 121.140552129306599, 28.22618579352207, 0.0 ], [ 121.1393298539939, 28.266276396398041, 0.0 ], [ 121.124557560668194, 28.28023878694588, 0.0 ], [ 121.145706233609204, 28.29350201827511, 0.0 ], [ 121.169178709211906, 28.345213103801921, 0.0 ], [ 121.205462422981299, 28.36872125107902, 0.0 ], [ 121.220454961532695, 28.359189803301991, 0.0 ], [ 121.218534998472805, 28.32843039148278, 0.0 ], [ 121.2470211272298, 28.28161955759699, 0.0 ], [ 121.215316341532997, 28.20082842830379, 0.0 ], [ 121.204007345563596, 28.17049938040488, 0.0 ], [ 121.177996436540298, 28.146752764287829, 0.0 ], [ 121.136485394743005, 28.133219076095369, 0.0 ], [ 121.139119178771097, 28.105652551785209, 0.0 ], [ 121.147833282312206, 28.072703943771799, 0.0 ], [ 121.157480928334905, 28.035317105696919, 0.0 ], [ 121.178275884918193, 28.04364751171849, 0.0 ], [ 121.189935489668798, 28.0394121539107, 0.0 ], [ 121.211810941666499, 28.037517933684111, 0.0 ], [ 121.232232538237596, 28.04668529443731, 0.0 ], [ 121.2513566821289, 28.066021597383681, 0.0 ], [ 121.281995136366305, 28.058751392667482, 0.0 ], [ 121.298187699831104, 28.078486838925649, 0.0 ], [ 121.314649493782994, 28.084352637840361, 0.0 ], [ 121.318123304158604, 28.098567254674489, 0.0 ], [ 121.287844838808695, 28.13228574484264, 0.0 ], [ 121.271083355376305, 28.154554889329269, 0.0 ], [ 121.281614841693496, 28.171490350221891, 0.0 ], [ 121.304523976978601, 28.17833148067049, 0.0 ], [ 121.319679708400699, 28.16875448074174, 0.0 ], [ 121.334955297396405, 28.165176306519221, 0.0 ], [ 121.346273496104104, 28.137890209595732, 0.0 ], [ 121.356195552196596, 28.141428904182511, 0.0 ], [ 121.365256458461602, 28.136418598710002, 0.0 ], [ 121.369948995270406, 28.145536131228852, 0.0 ], [ 121.376969707069193, 28.1468627939669, 0.0 ], [ 121.398115179325103, 28.164496696400111, 0.0 ], [ 121.400100637914804, 28.180535358316671, 0.0 ], [ 121.394305103403099, 28.19085664311196, 0.0 ], [ 121.383252658374701, 28.182002895732939, 0.0 ], [ 121.374626841256102, 28.191452114181629, 0.0 ], [ 121.391682877270995, 28.20143166753822, 0.0 ], [ 121.399428740134894, 28.20662483443833, 0.0 ], [ 121.409556776639803, 28.21779148826657, 0.0 ], [ 121.418542617572996, 28.234381573024152, 0.0 ], [ 121.443231857052297, 28.246586472649771, 0.0 ], [ 121.444324967914994, 28.261086265089912, 0.0 ], [ 121.449350111569899, 28.269578598443271, 0.0 ], [ 121.4413348576837, 28.276135271532731, 0.0 ], [ 121.419463950249195, 28.28021390605511, 0.0 ], [ 121.429181776240895, 28.304869223236061, 0.0 ], [ 121.448989804082601, 28.288652385216292, 0.0 ], [ 121.470220593413899, 28.30735401190891, 0.0 ], [ 121.472013806862904, 28.324001994453489, 0.0 ], [ 121.4892607480094, 28.328556547678701, 0.0 ], [ 121.519501733448493, 28.32577914745109, 0.0 ], [ 121.551581507549002, 28.317124053781239, 0.0 ], [ 121.579945866819003, 28.298239745462531, 0.0 ], [ 121.578497962272095, 28.268830267607711, 0.0 ], [ 121.589716587360996, 28.24592743498653, 0.0 ], [ 121.621788270384002, 28.255933972568741, 0.0 ], [ 121.653692700313201, 28.28709520969657, 0.0 ], [ 121.681370671166306, 28.356440764093691, 0.0 ], [ 121.669324508512702, 28.361640155877719, 0.0 ], [ 121.6321127958999, 28.339900768868059, 0.0 ], [ 121.623398429945993, 28.344364525704211, 0.0 ], [ 121.646790462207804, 28.368393350560488, 0.0 ], [ 121.672676854051701, 28.3770495746707, 0.0 ], [ 121.670755218244693, 28.412189278306649, 0.0 ], [ 121.6361578542583, 28.413484514686459, 0.0 ], [ 121.598832029652002, 28.425633189854182, 0.0 ], [ 121.600263611137706, 28.442674743680719, 0.0 ], [ 121.604680600308996, 28.461758053452641, 0.0 ], [ 121.613869652941702, 28.4702013185819, 0.0 ], [ 121.614090575682397, 28.47719418637022, 0.0 ], [ 121.601277974055094, 28.479285945833581, 0.0 ], [ 121.624535462882093, 28.500535706483149, 0.0 ], [ 121.645311214028396, 28.516204979988569, 0.0 ], [ 121.627426449445494, 28.53068697465029, 0.0 ], [ 121.623627984965495, 28.55287255797505, 0.0 ], [ 121.607996991814005, 28.546610366205801, 0.0 ], [ 121.587300837492705, 28.580391692209268, 0.0 ], [ 121.545939853702805, 28.651743948202171, 0.0 ], [ 121.515936785051096, 28.662786129863601, 0.0 ], [ 121.466269727002995, 28.679193770825631, 0.0 ], [ 121.423102435282502, 28.68836726705166, 0.0 ], [ 121.529015222457403, 28.689383557849489, 0.0 ], [ 121.571375457682294, 28.686569450739501, 0.0 ], [ 121.615101469401296, 28.698481521652159, 0.0 ], [ 121.668035813678301, 28.725542886842781, 0.0 ], [ 121.685225980121402, 28.793492198033121, 0.0 ], [ 121.678395466936905, 28.801437766012729, 0.0 ], [ 121.671160022843594, 28.797928043306101, 0.0 ], [ 121.666375410498404, 28.811012382559561, 0.0 ], [ 121.676882929481707, 28.816838201502421, 0.0 ], [ 121.687105007141895, 28.818267379845189, 0.0 ], [ 121.683543158270894, 28.83457389696051, 0.0 ], [ 121.672599154498002, 28.841992051420441, 0.0 ], [ 121.676162247619104, 28.84782919433437, 0.0 ], [ 121.674968088381206, 28.857405197758531, 0.0 ], [ 121.666740362375805, 28.860098203035779, 0.0 ], [ 121.641776181784095, 28.857843872527472, 0.0 ], [ 121.641982469445495, 28.865407023221159, 0.0 ], [ 121.650834446909201, 28.87190816277711, 0.0 ], [ 121.650211719470207, 28.879035067142951, 0.0 ], [ 121.632846306713802, 28.89160674500426, 0.0 ], [ 121.6147870411383, 28.897790648128112, 0.0 ], [ 121.594399010231001, 28.89602035515059, 0.0 ], [ 121.583575563278501, 28.906911463792731, 0.0 ], [ 121.554920079125694, 28.90445301536052, 0.0 ], [ 121.557516785197805, 28.928108207739498, 0.0 ], [ 121.598750060143502, 28.92274843321497, 0.0 ], [ 121.657433207225097, 28.89904339206571, 0.0 ], [ 121.701229201953893, 28.90904619022141, 0.0 ], [ 121.721618457413996, 28.925307916832448, 0.0 ], [ 121.714507349193596, 28.956735463259751, 0.0 ], [ 121.694861671949198, 28.96897260961666, 0.0 ], [ 121.669151052684995, 28.973244929409908, 0.0 ], [ 121.669889908595707, 28.9826741151847, 0.0 ], [ 121.722876082104094, 29.013763294768339, 0.0 ], [ 121.672973277765095, 29.02852983603168, 0.0 ], [ 121.663606308982807, 29.04626485005306, 0.0 ], [ 121.625263422304698, 29.04253059004056, 0.0 ], [ 121.634653441052095, 29.05149417289433, 0.0 ], [ 121.648451959213205, 29.10129433687128, 0.0 ], [ 121.613682750951099, 29.10812303007614, 0.0 ], [ 121.562754372512202, 29.112315716133011, 0.0 ], [ 121.454509296510096, 29.104819476330089, 0.0 ], [ 121.418602957186295, 29.163362157823219, 0.0 ], [ 121.484074407422099, 29.157748526587849, 0.0 ], [ 121.534728873928202, 29.176792581604069, 0.0 ], [ 121.536003779238996, 29.202003357979049, 0.0 ], [ 121.559218756193005, 29.257354036430971, 0.0 ], [ 121.595850572370907, 29.288269713468601, 0.0 ], [ 121.607931308817498, 29.256130015116401, 0.0 ], [ 121.6284124233797, 29.194583430264991, 0.0 ], [ 121.646600284495506, 29.197645036179079, 0.0 ], [ 121.645876409744403, 29.230405571532469, 0.0 ], [ 121.628834313387003, 29.2948124398355, 0.0 ], [ 121.667011498003902, 29.313927377374469, 0.0 ], [ 121.666730935653007, 29.27805167861294, 0.0 ], [ 121.657031504462296, 29.22440566917415, 0.0 ], [ 121.654311964201696, 29.194013819922631, 0.0 ], [ 121.703709181766698, 29.17800483024546, 0.0 ], [ 121.740767076914494, 29.192024190655221, 0.0 ], [ 121.753179684515501, 29.174349326378611, 0.0 ], [ 121.775257621258604, 29.215951822135381, 0.0 ], [ 121.7773680731665, 29.28384359268869, 0.0 ], [ 121.789578232537906, 29.335614042729791, 0.0 ], [ 121.789536008428101, 29.368355594925649, 0.0 ], [ 121.808450118024794, 29.348005422933049, 0.0 ], [ 121.815250704441695, 29.303047276028391, 0.0 ], [ 121.801662712910598, 29.266821466414608, 0.0 ], [ 121.797874905437496, 29.22019770690083, 0.0 ], [ 121.804520879278499, 29.165273116713681, 0.0 ], [ 121.857093370566105, 29.16523560985868, 0.0 ], [ 121.928171103671701, 29.19071860078791, 0.0 ], [ 121.976816431854402, 29.218894134224939, 0.0 ], [ 121.966409043349699, 29.247418415887331, 0.0 ], [ 121.9967431736641, 29.260435468918899, 0.0 ], [ 121.993581271821398, 29.275541223009458, 0.0 ], [ 121.952851462352697, 29.273877280199361, 0.0 ], [ 121.921436947846701, 29.299948244423039, 0.0 ], [ 121.9315879639081, 29.336623732880941, 0.0 ], [ 121.925764151086398, 29.35915135635841, 0.0 ], [ 121.905543291906298, 29.381307877751262, 0.0 ], [ 121.939482749194298, 29.416646351291991, 0.0 ], [ 121.974028008501804, 29.414071180799802, 0.0 ], [ 121.9772345894186, 29.4356535205083, 0.0 ], [ 121.975639856527195, 29.465042746597749, 0.0 ], [ 121.954923471265701, 29.48208979116761, 0.0 ], [ 121.961293892486594, 29.507139408050399, 0.0 ], [ 121.933684367594395, 29.514881023101442, 0.0 ], [ 121.942576112479898, 29.539048835291421, 0.0 ], [ 121.969287381985296, 29.553322319198159, 0.0 ], [ 121.997590503671304, 29.58166071438464, 0.0 ], [ 121.984413887040503, 29.62935913336236, 0.0 ], [ 121.925821864193594, 29.647526984462051, 0.0 ], [ 121.900802697883407, 29.619634323271779, 0.0 ], [ 121.841434744398398, 29.612748972969811, 0.0 ], [ 121.799047381415093, 29.603035747726409, 0.0 ], [ 121.793130811798406, 29.584308534416131, 0.0 ], [ 121.755986796155398, 29.54744101565171, 0.0 ], [ 121.791723837853795, 29.546940348642799, 0.0 ], [ 121.841128102470094, 29.547945997694988, 0.0 ], [ 121.857832568901898, 29.529242136985101, 0.0 ], [ 121.833863705117693, 29.536090723570229, 0.0 ], [ 121.826376890330494, 29.499408982763249, 0.0 ], [ 121.790493520779194, 29.473013763023989, 0.0 ], [ 121.765965286708294, 29.486592147346421, 0.0 ], [ 121.7844373373389, 29.52886868542511, 0.0 ], [ 121.760442432423403, 29.533444373812969, 0.0 ], [ 121.741582540648906, 29.524409683486201, 0.0 ], [ 121.731237903325805, 29.539667654921882, 0.0 ], [ 121.690359345772407, 29.53046302455499, 0.0 ], [ 121.689120646538697, 29.515775473451662, 0.0 ], [ 121.650302092836696, 29.49529630229322, 0.0 ], [ 121.586917670654501, 29.475270730934799, 0.0 ], [ 121.557925146378693, 29.456542729687069, 0.0 ], [ 121.538225208926903, 29.417082546898971, 0.0 ], [ 121.499069679017794, 29.38992054724574, 0.0 ], [ 121.500827310306605, 29.406766275860171, 0.0 ], [ 121.524455775140495, 29.43611349171174, 0.0 ], [ 121.543648521534493, 29.45984440729929, 0.0 ], [ 121.512512363094899, 29.450416081852349, 0.0 ], [ 121.514763241465502, 29.48308519432392, 0.0 ], [ 121.479315497239796, 29.465422056930329, 0.0 ], [ 121.468201021444202, 29.42037043782932, 0.0 ], [ 121.441781046371204, 29.406684019727489, 0.0 ], [ 121.4369694229012, 29.443380523427219, 0.0 ], [ 121.4451252228897, 29.47804911557995, 0.0 ], [ 121.460040026166595, 29.512380601258929, 0.0 ], [ 121.514470072782601, 29.541587132819679, 0.0 ], [ 121.514422991912994, 29.512861655065489, 0.0 ], [ 121.523467276066597, 29.50270955945809, 0.0 ], [ 121.567568716621594, 29.540356800762709, 0.0 ], [ 121.591513011277101, 29.53579678597179, 0.0 ], [ 121.6420562465442, 29.54749881382936, 0.0 ], [ 121.7088371750596, 29.565892290880729, 0.0 ], [ 121.705708645875205, 29.590693978560331, 0.0 ], [ 121.740743629097096, 29.599595599291519, 0.0 ], [ 121.766796589352793, 29.623740696770511, 0.0 ], [ 121.787071117389999, 29.65467523027619, 0.0 ], [ 121.837896234057993, 29.688886775230721, 0.0 ], [ 121.864900857017204, 29.727302882827789, 0.0 ], [ 121.880405190089803, 29.759170398666701, 0.0 ], [ 121.911731368562002, 29.768149126196249, 0.0 ], [ 121.941853190155697, 29.787162556627699, 0.0 ], [ 121.986715129587594, 29.82194518487842, 0.0 ], [ 122.064655435462498, 29.836074176948721, 0.0 ], [ 122.092980401888596, 29.854208763010199, 0.0 ], [ 122.127147013515994, 29.865807914212201, 0.0 ], [ 122.134393324021403, 29.891099637657749, 0.0 ], [ 122.115860560569701, 29.890328720789739, 0.0 ], [ 122.063766327319897, 29.88747197115714, 0.0 ], [ 122.012903757877396, 29.881305433631699, 0.0 ], [ 121.954436543842704, 29.887162755447161, 0.0 ], [ 121.911713136144598, 29.90075636463839, 0.0 ], [ 121.853885644710701, 29.928625762542641, 0.0 ], [ 121.842826205554104, 29.917061755230591, 0.0 ], [ 121.808515994041798, 29.955409907831498, 0.0 ], [ 121.755992808959704, 29.965884579233109, 0.0 ], [ 121.701211275364003, 29.964068133002669, 0.0 ], [ 121.668797284162395, 29.982879283789291, 0.0 ], [ 121.644871363062606, 30.005574377847271, 0.0 ], [ 121.591803223412796, 30.065260884907271, 0.0 ], [ 121.471011634118099, 30.10945136306886, 0.0 ], [ 121.359640333477202, 30.137052816948732, 0.0 ], [ 121.262944652283295, 30.156571633663521, 0.0 ], [ 121.126970346941405, 30.159221528774111, 0.0 ], [ 120.9762630653115, 30.131240445789629, 0.0 ], [ 120.870703636237295, 30.100331556460489, 0.0 ], [ 120.8217307933933, 30.111324158170412, 0.0 ], [ 120.7809057961977, 30.11394348172999, 0.0 ], [ 120.692089902808107, 30.09812756792472, 0.0 ], [ 120.600258463513399, 30.119825303245999, 0.0 ], [ 120.528457764507607, 30.15463448343964, 0.0 ], [ 120.452780966498693, 30.183811227210199, 0.0 ], [ 120.365792093247094, 30.191375000426572, 0.0 ], [ 120.280739806143998, 30.2122961542558, 0.0 ], [ 120.205594210412102, 30.212918057937191, 0.0 ], [ 120.176712538374005, 30.210041168715229, 0.0 ], [ 120.191460338494906, 30.231390968757459, 0.0 ], [ 120.255912134982196, 30.270805008183661, 0.0 ], [ 120.325446810394595, 30.271826841051311, 0.0 ], [ 120.394796349761805, 30.255944919105961, 0.0 ], [ 120.469635439871794, 30.255301493167568, 0.0 ], [ 120.557682526017302, 30.281879792843299, 0.0 ], [ 120.756823707720798, 30.340945616936612, 0.0 ], [ 120.876016485079603, 30.350305359814971, 0.0 ], [ 120.954975318398596, 30.424587662147179, 0.0 ], [ 120.975642021141098, 30.465617719897331, 0.0 ], [ 121.067970681922304, 30.529898785463981, 0.0 ], [ 121.182502728165304, 30.597761231995332, 0.0 ], [ 121.355869530910695, 30.662539431575009, 0.0 ], [ 121.509033316825807, 30.712351225135642, 0.0 ], [ 121.636365475460707, 30.76741268463671, 0.0 ], [ 121.714295691921095, 30.88868547208282, 0.0 ], [ 121.736120400430707, 30.992096913036551, 0.0 ], [ 121.731636681869503, 31.10379344942044, 0.0 ], [ 121.686353715169503, 31.215051345460939, 0.0 ], [ 121.647903824892197, 31.252978520246248, 0.0 ], [ 121.592905463679202, 31.263103059166792, 0.0 ], [ 121.608485515673294, 31.27950817966552, 0.0 ], [ 121.656963985500497, 31.271558927099111, 0.0 ], [ 121.666669732986406, 31.28713745121161, 0.0 ], [ 121.641417349121895, 31.30176347541768, 0.0 ], [ 121.592050582161605, 31.34952667387163, 0.0 ], [ 121.526520725530702, 31.370550374639539, 0.0 ], [ 121.495926481031304, 31.406297220631291, 0.0 ], [ 121.423356052880195, 31.47215858336455, 0.0 ], [ 121.357534773333796, 31.490800408104452, 0.0 ], [ 121.311631101801296, 31.531572309414159, 0.0 ], [ 121.246301865732505, 31.629473987090169, 0.0 ], [ 121.185523497360606, 31.696577400830659, 0.0 ], [ 121.129681589385598, 31.731064871792409, 0.0 ], [ 121.034755962744896, 31.765834217377421, 0.0 ], [ 120.941611704922707, 31.784837920241561, 0.0 ], [ 120.911416490099597, 31.82244951605232, 0.0 ], [ 120.8904557860604, 31.86118956293976, 0.0 ], [ 120.866863173380594, 31.907596917467021, 0.0 ], [ 120.833189526367605, 31.963779922131099, 0.0 ], [ 120.785705319284105, 31.99663418341007, 0.0 ], [ 120.749497882714095, 32.00311571171148, 0.0 ], [ 120.711304209291598, 32.006117415667617, 0.0 ], [ 120.6690039793408, 31.998583664500661, 0.0 ], [ 120.623597157787401, 32.000566818605087, 0.0 ], [ 120.558414168667198, 32.018082005598757, 0.0 ], [ 120.507158554843699, 32.032660374523758, 0.0 ], [ 120.453566686701606, 32.035816842891293, 0.0 ], [ 120.4184434464551, 32.017696210365351, 0.0 ], [ 120.354651474608502, 31.975954851302362, 0.0 ], [ 120.293489457599193, 31.948602555973579, 0.0 ], [ 120.232846592712804, 31.932250326190779, 0.0 ], [ 120.174905731251897, 31.932498776299958, 0.0 ], [ 120.094914187500095, 31.948112479261152, 0.0 ], [ 120.046615962088595, 31.960456303484289, 0.0 ], [ 120.009382929104902, 31.980924432710459, 0.0 ], [ 119.966091318971394, 32.016215406503228, 0.0 ], [ 119.937581610261503, 32.061427717815533, 0.0 ], [ 119.918098011324403, 32.120292372564172, 0.0 ], [ 119.901323400500502, 32.193416326922289, 0.0 ], [ 119.885733933586195, 32.23597905862151, 0.0 ], [ 119.867716666098801, 32.272774090924862, 0.0 ], [ 119.846360975433896, 32.290752778548963, 0.0 ], [ 119.827653091807306, 32.306632979016747, 0.0 ], [ 119.802287600246402, 32.315365257947391, 0.0 ], [ 119.777213370734998, 32.312603927477667, 0.0 ], [ 119.734426026059595, 32.301617638314561, 0.0 ], [ 119.711889772309206, 32.277078667466192, 0.0 ], [ 119.691357958178102, 32.251223546995178, 0.0 ], [ 119.676617215589403, 32.217528702631853, 0.0 ], [ 119.663614897316293, 32.205242037266871, 0.0 ], [ 119.633497243715496, 32.195008761630667, 0.0 ], [ 119.589467503334703, 32.211856906482979, 0.0 ], [ 119.5581518455093, 32.223629775006529, 0.0 ], [ 119.520007535659801, 32.246084305467377, 0.0 ], [ 119.466811482988803, 32.259681377397811, 0.0 ], [ 119.4269695554961, 32.250757681688967, 0.0 ], [ 119.405004471189599, 32.234260192890879, 0.0 ], [ 119.354065221016199, 32.207921434813372, 0.0 ], [ 119.307112597461099, 32.207051329834918, 0.0 ], [ 119.264673859183702, 32.209538568571567, 0.0 ], [ 119.2225188582333, 32.222513037135869, 0.0 ], [ 119.191894035980397, 32.217887851055352, 0.0 ], [ 119.218229763407905, 32.187177282021707, 0.0 ], [ 119.214375282967794, 32.176863532689467, 0.0 ], [ 119.2180297894039, 32.145113718081227, 0.0 ], [ 119.225472763592904, 32.115323875504437, 0.0 ], [ 119.244875686539501, 32.064230949323857, 0.0 ], [ 119.276268839393396, 32.015726282026357, 0.0 ], [ 119.322729546286595, 31.98312218788562, 0.0 ] ] ] } }
]
}
