{
"type": "FeatureCollection",
"name": "tang",
"crs": { "type": "name", "properties": { "name": "urn:ogc:def:crs:EPSG::4979" } },
"features": [
{ "type": "Feature", "id": "06548D4492414A94509C", "properties": { "name": "江南西道", "styleUrl": "#__managed_style_024C72E206414A9450C8" }, "geometry": { "type": "Polygon", "coordinates": [ [ [ 110.738032634527798, 30.048249518649701, 0.0 ], [ 110.709407505837703, 30.049235004584979, 0.0 ], [ 110.693223811298196, 30.064645970600051, 0.0 ], [ 110.669924089331701, 30.077095114195512, 0.0 ], [ 110.658859966557301, 30.073432314963799, 0.0 ], [ 110.634396391712301, 30.057726273917911, 0.0 ], [ 110.617418921352197, 30.05465636828287, 0.0 ], [ 110.572221511673405, 30.06248504943273, 0.0 ], [ 110.514906755096305, 30.049642249482609, 0.0 ], [ 110.458363758911801, 30.005922299135879, 0.0 ], [ 110.460749459684294, 29.994281123430209, 0.0 ], [ 110.514163270437194, 29.985156816942329, 0.0 ], [ 110.5516015779329, 29.960253126795191, 0.0 ], [ 110.539402024967401, 29.949769822703409, 0.0 ], [ 110.496068248603706, 29.94877635534765, 0.0 ], [ 110.492508024094704, 29.92891000219543, 0.0 ], [ 110.552433345341299, 29.891308389767499, 0.0 ], [ 110.559173502594206, 29.877273447100801, 0.0 ], [ 110.546848242362103, 29.839870273511622, 0.0 ], [ 110.523258995083097, 29.82434164572712, 0.0 ], [ 110.4107960532493, 29.763791032176719, 0.0 ], [ 110.3353337526584, 29.72970595481879, 0.0 ], [ 110.305709629463195, 29.72458547168247, 0.0 ], [ 110.264585825270899, 29.727164969629971, 0.0 ], [ 110.202534032749, 29.74529923934238, 0.0 ], [ 110.159245733472702, 29.774462303507129, 0.0 ], [ 110.107962210871094, 29.793732365632319, 0.0 ], [ 110.018740525729797, 29.77609053410881, 0.0 ], [ 109.937589434295802, 29.798439661917602, 0.0 ], [ 109.865347720055794, 29.800503911992379, 0.0 ], [ 109.8047418232008, 29.789173536641041, 0.0 ], [ 109.778045223687698, 29.701063146541991, 0.0 ], [ 109.676946341502202, 29.660562183165869, 0.0 ], [ 109.651585088983794, 29.63914112030589, 0.0 ], [ 109.672885337691497, 29.577430162101908, 0.0 ], [ 109.7164821331816, 29.546121230204388, 0.0 ], [ 109.881639872092705, 29.493446427129619, 0.0 ], [ 109.908004165088499, 29.472683313606801, 0.0 ], [ 109.887478225586705, 29.41584115392028, 0.0 ], [ 109.839334054107596, 29.37995835822888, 0.0 ], [ 109.819235670942604, 29.33236764950653, 0.0 ], [ 109.842255900627706, 29.29331013186458, 0.0 ], [ 109.976446063324602, 29.338938749925219, 0.0 ], [ 110.070510824108894, 29.340579169273191, 0.0 ], [ 110.134645311920906, 29.3189568700443, 0.0 ], [ 110.150525123026696, 29.264210128772952, 0.0 ], [ 110.141212040307096, 29.197764392862322, 0.0 ], [ 110.153778800651907, 29.14945838934274, 0.0 ], [ 110.231572294912098, 29.075967504335239, 0.0 ], [ 110.239817828122398, 29.000533330866968, 0.0 ], [ 110.2763836396838, 28.958513421002671, 0.0 ], [ 110.340333030137401, 28.944856175622238, 0.0 ], [ 110.385325404581806, 28.91490625143804, 0.0 ], [ 110.403779267404701, 28.91490079617169, 0.0 ], [ 110.443368531612293, 28.960430756192881, 0.0 ], [ 110.497115211639994, 28.988368130218589, 0.0 ], [ 110.550507467830897, 29.014435003597129, 0.0 ], [ 110.566652309682794, 29.015949791706181, 0.0 ], [ 110.614012322039102, 28.98494782767521, 0.0 ], [ 110.698147262230293, 28.977926517793911, 0.0 ], [ 110.793493670068997, 28.906490506465691, 0.0 ], [ 110.859743163990402, 28.85940662300705, 0.0 ], [ 111.019860748587504, 28.833525985569441, 0.0 ], [ 111.051824443515599, 28.790698076176859, 0.0 ], [ 111.081993441395497, 28.739207378629789, 0.0 ], [ 111.077720255757995, 28.71054591870525, 0.0 ], [ 111.053756383806103, 28.692409959073519, 0.0 ], [ 111.002055633279397, 28.67162029181679, 0.0 ], [ 110.967612362951499, 28.633335063105001, 0.0 ], [ 110.951333986060902, 28.587212027013869, 0.0 ], [ 110.986585520669095, 28.537346437671271, 0.0 ], [ 110.978102416898395, 28.502457506253371, 0.0 ], [ 110.957743881804305, 28.463728572017128, 0.0 ], [ 110.905628100130698, 28.427350621685932, 0.0 ], [ 110.697695233124605, 28.33303849929575, 0.0 ], [ 110.685488767733801, 28.25964329054036, 0.0 ], [ 110.710284924753694, 28.246192784776309, 0.0 ], [ 110.803550674114703, 28.300758076742841, 0.0 ], [ 110.843937828530201, 28.28979710477034, 0.0 ], [ 110.839622271717701, 28.197981177550911, 0.0 ], [ 110.832093025337301, 28.10754064670741, 0.0 ], [ 110.841979656592002, 28.040506238674951, 0.0 ], [ 110.817104087389694, 28.005966588985679, 0.0 ], [ 110.830902456989406, 27.96065912986629, 0.0 ], [ 110.892910724318696, 27.88052474012386, 0.0 ], [ 110.854456268862293, 27.794916009374639, 0.0 ], [ 110.851938399119803, 27.727480741685351, 0.0 ], [ 110.867353694437, 27.660735469939681, 0.0 ], [ 110.847016193130003, 27.6197182417216, 0.0 ], [ 110.752390168067507, 27.523847151624182, 0.0 ], [ 110.702094464952296, 27.402508572828332, 0.0 ], [ 110.444415783783398, 27.181493730639339, 0.0 ], [ 110.175433810135004, 27.07056820049349, 0.0 ], [ 110.111589079864103, 26.963643681182909, 0.0 ], [ 110.095894778829603, 26.80278613883349, 0.0 ], [ 110.145603839935305, 26.742205058961229, 0.0 ], [ 110.140116870546294, 26.70678140959658, 0.0 ], [ 110.146837362269494, 26.650695844340749, 0.0 ], [ 110.229066812140402, 26.585719430546959, 0.0 ], [ 110.233166398726098, 26.496797594687219, 0.0 ], [ 110.202575230760601, 26.464642516781069, 0.0 ], [ 110.168556009310805, 26.439593952686341, 0.0 ], [ 110.120746367050998, 26.420018981768141, 0.0 ], [ 110.080903968833596, 26.381631126778899, 0.0 ], [ 110.067318780902298, 26.354157645207401, 0.0 ], [ 110.058306973363301, 26.322426275882851, 0.0 ], [ 110.060338014269703, 26.316123689973189, 0.0 ], [ 110.063273331442005, 26.309919559277251, 0.0 ], [ 110.104716280099098, 26.280922614884851, 0.0 ], [ 110.109522488914195, 26.27322844645413, 0.0 ], [ 110.106817249134096, 26.239332466210861, 0.0 ], [ 110.109920877198903, 26.22317883250264, 0.0 ], [ 110.1228495088166, 26.181373703733382, 0.0 ], [ 110.121007365305601, 26.156420281240159, 0.0 ], [ 110.117324027528099, 26.138655578314971, 0.0 ], [ 110.095357600192003, 26.113750603793651, 0.0 ], [ 110.081581242733904, 26.084131640450479, 0.0 ], [ 110.076788546446096, 26.04772856216254, 0.0 ], [ 110.115011582135807, 26.013005507533851, 0.0 ], [ 110.129445748808905, 26.01414537362658, 0.0 ], [ 110.155761705577405, 26.046244803028902, 0.0 ], [ 110.165423602720296, 26.0447792442537, 0.0 ], [ 110.188658685246494, 26.02042559527877, 0.0 ], [ 110.205158841749295, 26.02300335689867, 0.0 ], [ 110.218893012128703, 26.03978741226652, 0.0 ], [ 110.243825456624904, 26.083762784339559, 0.0 ], [ 110.2646891137002, 26.086743616675111, 0.0 ], [ 110.274750219108995, 26.075671470667249, 0.0 ], [ 110.279643193611903, 25.97083255807911, 0.0 ], [ 110.287263582442606, 25.963268799021861, 0.0 ], [ 110.316110343773801, 25.977265654880021, 0.0 ], [ 110.340991792483806, 25.973614015148101, 0.0 ], [ 110.360195999721995, 25.985254555015509, 0.0 ], [ 110.434331077715498, 25.924763493997219, 0.0 ], [ 110.463967153274595, 25.877978702539171, 0.0 ], [ 110.497097794463897, 25.86005236578098, 0.0 ], [ 110.544747066049894, 25.852139137923391, 0.0 ], [ 110.599547648660902, 25.803535538393628, 0.0 ], [ 110.659910044458599, 25.780947914624669, 0.0 ], [ 110.669672923031897, 25.75405156513148, 0.0 ], [ 110.662848726591307, 25.726075770315951, 0.0 ], [ 110.668566325668706, 25.716028907482109, 0.0 ], [ 110.723096275261597, 25.698337178746652, 0.0 ], [ 110.770001626089297, 25.676600228946722, 0.0 ], [ 110.783166955500306, 25.674823165540541, 0.0 ], [ 110.817458690183599, 25.682529225763119, 0.0 ], [ 110.843883486984794, 25.67512822655296, 0.0 ], [ 110.818623990915199, 25.61697135715297, 0.0 ], [ 110.821621859368605, 25.545161497727491, 0.0 ], [ 110.888247936056999, 25.498437582078051, 0.0 ], [ 110.947552008776597, 25.479150907679841, 0.0 ], [ 110.954874012745293, 25.451713666428621, 0.0 ], [ 110.937632063068506, 25.40838758389101, 0.0 ], [ 110.873146336193699, 25.373738389651869, 0.0 ], [ 110.7807375391302, 25.335978307702149, 0.0 ], [ 110.743138713468198, 25.33364693206466, 0.0 ], [ 110.740276098193206, 25.298542577333102, 0.0 ], [ 110.7732287786624, 25.25274423964914, 0.0 ], [ 110.779947765708101, 25.202277333947571, 0.0 ], [ 110.804341731799695, 25.180517046919601, 0.0 ], [ 110.838146456358103, 25.1815197511267, 0.0 ], [ 110.900847281051298, 25.208802938462998, 0.0 ], [ 110.960807243348697, 25.22230753055743, 0.0 ], [ 111.052204643768306, 25.27856364902393, 0.0 ], [ 111.085173966891801, 25.2847212080279, 0.0 ], [ 111.115674169164095, 25.261703635085212, 0.0 ], [ 111.108549167287194, 25.242939065669528, 0.0 ], [ 111.016741480047997, 25.171730213160309, 0.0 ], [ 110.979425300715405, 25.106920300490231, 0.0 ], [ 110.954607254911494, 25.054788588141442, 0.0 ], [ 110.959787031607107, 25.020870418838431, 0.0 ], [ 110.979907558613704, 24.985151943464551, 0.0 ], [ 110.992836878243295, 24.945476102803291, 0.0 ], [ 111.012852342881203, 24.89480476929846, 0.0 ], [ 111.037980378841397, 24.899582377593671, 0.0 ], [ 111.088327849770394, 24.927634815627531, 0.0 ], [ 111.104542344692206, 25.021798315898071, 0.0 ], [ 111.1643121831478, 25.046614904228601, 0.0 ], [ 111.271484802963897, 25.13112562502867, 0.0 ], [ 111.322808210734493, 25.09556075561682, 0.0 ], [ 111.362240770461497, 25.096832553878588, 0.0 ], [ 111.380639087807694, 25.132423260318831, 0.0 ], [ 111.406480769908995, 25.1298702995546, 0.0 ], [ 111.408910955863107, 25.0987355749958, 0.0 ], [ 111.462857010312007, 25.098107791056432, 0.0 ], [ 111.523799599638394, 25.05356039996412, 0.0 ], [ 111.581376712325905, 24.95503545493662, 0.0 ], [ 111.605078739753296, 24.865453643787529, 0.0 ], [ 111.619341915982503, 24.68089012736101, 0.0 ], [ 111.642808966074696, 24.682333260576218, 0.0 ], [ 111.637399925017505, 24.71270013083134, 0.0 ], [ 111.672232291105104, 24.774424863439322, 0.0 ], [ 111.706980050589195, 24.786004619761592, 0.0 ], [ 111.791893527937404, 24.761175399369488, 0.0 ], [ 111.837690864737297, 24.765770739347019, 0.0 ], [ 111.891926951954503, 24.762876474313501, 0.0 ], [ 111.937270729781403, 24.78085317617909, 0.0 ], [ 111.9844134126554, 24.769674659727549, 0.0 ], [ 112.026598835475497, 24.752973034918451, 0.0 ], [ 112.012962256814902, 24.736909871072569, 0.0 ], [ 111.960263855911506, 24.71105350852158, 0.0 ], [ 111.945900224089598, 24.692153139305528, 0.0 ], [ 111.947868862193104, 24.669776192476512, 0.0 ], [ 111.926508039507894, 24.640274061131588, 0.0 ], [ 111.936294144829105, 24.611141854243812, 0.0 ], [ 112.016137077347096, 24.539620844520499, 0.0 ], [ 112.024118162380205, 24.521401485544111, 0.0 ], [ 112.002898753324004, 24.49892453918773, 0.0 ], [ 111.995828525256499, 24.48275099578122, 0.0 ], [ 112.046134038219293, 24.425745756259921, 0.0 ], [ 112.081304879085195, 24.354902327545819, 0.0 ], [ 112.004902492870002, 24.28345108389615, 0.0 ], [ 112.007263151363901, 24.241440420876959, 0.0 ], [ 112.041458393017393, 24.218739495215981, 0.0 ], [ 112.105866594527598, 24.2224671615989, 0.0 ], [ 112.151293574507903, 24.179603735929099, 0.0 ], [ 112.182063373205295, 24.177355672681269, 0.0 ], [ 112.230145490059101, 24.25269880155599, 0.0 ], [ 112.253336237783401, 24.294037343710649, 0.0 ], [ 112.248840081641006, 24.329099816692921, 0.0 ], [ 112.253059716495201, 24.374390816199899, 0.0 ], [ 112.300259672582399, 24.402995119957751, 0.0 ], [ 112.387817479237796, 24.356236197925739, 0.0 ], [ 112.452516144293298, 24.28965710290548, 0.0 ], [ 112.464409714241299, 24.14594910714672, 0.0 ], [ 112.569104966075599, 24.08437364778484, 0.0 ], [ 112.628166540348801, 24.113471976309651, 0.0 ], [ 112.700510039707297, 24.26370433284546, 0.0 ], [ 112.750335823296297, 24.287991997702861, 0.0 ], [ 112.781422520666794, 24.29997486333108, 0.0 ], [ 112.810395200515003, 24.366689140591859, 0.0 ], [ 112.868759138315795, 24.39116458912034, 0.0 ], [ 112.864617850084002, 24.445356312726862, 0.0 ], [ 112.850082373051507, 24.510721133907651, 0.0 ], [ 112.805151293171306, 24.568434352303079, 0.0 ], [ 112.859018514052295, 24.62863362608492, 0.0 ], [ 112.885760748789195, 24.695536171602349, 0.0 ], [ 112.942455757479195, 24.783415327727958, 0.0 ], [ 113.002643050814299, 24.878039233340619, 0.0 ], [ 113.024238692737697, 24.95264420633842, 0.0 ], [ 112.985361124673702, 25.022199974005328, 0.0 ], [ 112.991922297076201, 25.048925078878579, 0.0 ], [ 113.015185640534696, 25.089454207122859, 0.0 ], [ 113.006917570140899, 25.117873311268141, 0.0 ], [ 112.975170877414897, 25.150037617461059, 0.0 ], [ 112.995353230040095, 25.182702822095269, 0.0 ], [ 113.051359208701797, 25.22242101819468, 0.0 ], [ 113.041290251582197, 25.242073454943341, 0.0 ], [ 113.002231231558795, 25.250435673712431, 0.0 ], [ 112.883251352569104, 25.244266727744201, 0.0 ], [ 112.868191870311406, 25.25492047767932, 0.0 ], [ 112.857852276824104, 25.2945162935765, 0.0 ], [ 112.864698784188406, 25.33900882838654, 0.0 ], [ 112.882499082464705, 25.348093327423161, 0.0 ], [ 112.899443875256395, 25.342263232099921, 0.0 ], [ 112.911754054704303, 25.307032244719359, 0.0 ], [ 112.921654710824697, 25.30798829792473, 0.0 ], [ 112.973631283812693, 25.35431053529291, 0.0 ], [ 112.994275641354506, 25.357892318859331, 0.0 ], [ 113.028484030790096, 25.363145483315471, 0.0 ], [ 113.076427730174004, 25.390563430342979, 0.0 ], [ 113.133610017336906, 25.422878269891982, 0.0 ], [ 113.154704927811906, 25.4558385310111, 0.0 ], [ 113.202534396059406, 25.482386724670729, 0.0 ], [ 113.247064727959597, 25.516980738742092, 0.0 ], [ 113.310156333728401, 25.521070625118881, 0.0 ], [ 113.324791152301799, 25.464881942513951, 0.0 ], [ 113.368470732985202, 25.44080026148729, 0.0 ], [ 113.429916944675597, 25.395129897265939, 0.0 ], [ 113.460767564733104, 25.366334813010688, 0.0 ], [ 113.545758841333495, 25.37671090733874, 0.0 ], [ 113.587862567102107, 25.356348063471469, 0.0 ], [ 113.599801360700596, 25.30812177080216, 0.0 ], [ 113.624020980400303, 25.31092522424327, 0.0 ], [ 113.640255230605604, 25.327107488683911, 0.0 ], [ 113.726032030819098, 25.361983683034371, 0.0 ], [ 113.824787455654999, 25.336514703173439, 0.0 ], [ 113.875806638717606, 25.363879738356509, 0.0 ], [ 113.8955735660561, 25.41343676447412, 0.0 ], [ 113.929635485253698, 25.43627268052623, 0.0 ], [ 113.988105890916799, 25.436456585112278, 0.0 ], [ 114.047554093790296, 25.333010049509792, 0.0 ], [ 114.028135954343, 25.26799421591226, 0.0 ], [ 114.0559430744823, 25.2475373583591, 0.0 ], [ 114.137535570726797, 25.308551215947489, 0.0 ], [ 114.171434912496807, 25.311696038321589, 0.0 ], [ 114.210205208351994, 25.2900297597144, 0.0 ], [ 114.263551261676596, 25.29346221330211, 0.0 ], [ 114.298923506750796, 25.289604979989431, 0.0 ], [ 114.338123945858499, 25.322836828130999, 0.0 ], [ 114.414276654630399, 25.33360293055334, 0.0 ], [ 114.458580223013996, 25.384580324705581, 0.0 ], [ 114.511888518223998, 25.37885799572506, 0.0 ], [ 114.540554405793003, 25.410518901531962, 0.0 ], [ 114.589361359789805, 25.402409305362699, 0.0 ], [ 114.593951336697302, 25.361052550821992, 0.0 ], [ 114.625881188395397, 25.335633972308869, 0.0 ], [ 114.7231571542019, 25.30256993620004, 0.0 ], [ 114.749619485412097, 25.27744535611583, 0.0 ], [ 114.746661664608396, 25.256489833275769, 0.0 ], [ 114.705542267635295, 25.204148794928329, 0.0 ], [ 114.6985667944017, 25.15217595665629, 0.0 ], [ 114.704521687757904, 25.139795018997329, 0.0 ], [ 114.739965300869699, 25.129119937265191, 0.0 ], [ 114.753842730579805, 25.1140756398771, 0.0 ], [ 114.740911970168995, 25.10389116247973, 0.0 ], [ 114.6912803623201, 25.095649617949391, 0.0 ], [ 114.659366769539602, 25.07399869076923, 0.0 ], [ 114.585143811128404, 25.056420833443699, 0.0 ], [ 114.537338672421697, 25.012373577866189, 0.0 ], [ 114.474433894202306, 24.98663495191623, 0.0 ], [ 114.409494304512407, 24.931411524548661, 0.0 ], [ 114.408198137967204, 24.879935199816089, 0.0 ], [ 114.368204617580105, 24.834463517471111, 0.0 ], [ 114.345827700579505, 24.773272143691059, 0.0 ], [ 114.319059345849098, 24.733966293950932, 0.0 ], [ 114.292623967497505, 24.71916373615241, 0.0 ], [ 114.256348613029502, 24.706235548804099, 0.0 ], [ 114.190167792003905, 24.694875790776599, 0.0 ], [ 114.181165199959295, 24.679529458734159, 0.0 ], [ 114.1851161991233, 24.66564566009691, 0.0 ], [ 114.215666749367998, 24.654265769679331, 0.0 ], [ 114.249826621084097, 24.649969590616951, 0.0 ], [ 114.282768334525798, 24.63826096834789, 0.0 ], [ 114.298218626947403, 24.619673244113461, 0.0 ], [ 114.310032996788095, 24.596079831577221, 0.0 ], [ 114.324518568752296, 24.58723217189177, 0.0 ], [ 114.346334902900495, 24.594836911377151, 0.0 ], [ 114.363133731590693, 24.594526806108991, 0.0 ], [ 114.369624221379894, 24.591105988834901, 0.0 ], [ 114.372135019568105, 24.580177986257731, 0.0 ], [ 114.372624242383296, 24.53869754924753, 0.0 ], [ 114.377816496810794, 24.52661614255808, 0.0 ], [ 114.394614854046395, 24.511173454069048, 0.0 ], [ 114.412361465042494, 24.497653377652881, 0.0 ], [ 114.452220365712506, 24.496637611545651, 0.0 ], [ 114.492621445995894, 24.53461120625192, 0.0 ], [ 114.509138230259893, 24.54788552334654, 0.0 ], [ 114.5275254167762, 24.557738156471949, 0.0 ], [ 114.5457478549759, 24.55903335995994, 0.0 ], [ 114.587203936593994, 24.54581361763934, 0.0 ], [ 114.600092692844797, 24.549053378878661, 0.0 ], [ 114.613429366019204, 24.561024715430111, 0.0 ], [ 114.633633279899897, 24.585995701800901, 0.0 ], [ 114.659804417963002, 24.593068272188351, 0.0 ], [ 114.676058918304705, 24.58993201447975, 0.0 ], [ 114.682392289569407, 24.570072833737591, 0.0 ], [ 114.694278818322303, 24.556928949280241, 0.0 ], [ 114.703905114466394, 24.551504032603631, 0.0 ], [ 114.710721594231501, 24.548560745941419, 0.0 ], [ 114.723137598244605, 24.54843895025363, 0.0 ], [ 114.732582185312694, 24.556756045376069, 0.0 ], [ 114.736211680491806, 24.56928280407638, 0.0 ], [ 114.738573365522996, 24.59716894008303, 0.0 ], [ 114.734237077569801, 24.622044866299259, 0.0 ], [ 114.738538151718799, 24.63031595731119, 0.0 ], [ 114.746102108304001, 24.635007584873929, 0.0 ], [ 114.787372746870403, 24.62114879054241, 0.0 ], [ 114.819143691394402, 24.60831942250541, 0.0 ], [ 114.847455344139405, 24.59214385472189, 0.0 ], [ 114.859576828975506, 24.58325816801818, 0.0 ], [ 114.872237927089301, 24.578036694456049, 0.0 ], [ 114.879052665309899, 24.578171756433111, 0.0 ], [ 114.882533703152305, 24.584676387975929, 0.0 ], [ 114.883711720952107, 24.596660278962901, 0.0 ], [ 114.911804694678494, 24.6391134236124, 0.0 ], [ 114.929020044194502, 24.67054686875667, 0.0 ], [ 114.937795847938204, 24.67394561273121, 0.0 ], [ 114.959105848307203, 24.67344294040652, 0.0 ], [ 114.976373772744296, 24.66713607279609, 0.0 ], [ 114.991570462228694, 24.668369362635271, 0.0 ], [ 115.001656055928294, 24.672624428780701, 0.0 ], [ 115.013071008018699, 24.683191340383029, 0.0 ], [ 115.039226346360905, 24.68833312025199, 0.0 ], [ 115.041565214169793, 24.713311230537041, 0.0 ], [ 115.026639523330104, 24.736262163556589, 0.0 ], [ 115.038709522225105, 24.743649469388281, 0.0 ], [ 115.060364992575202, 24.73909625535568, 0.0 ], [ 115.098548222053395, 24.712199011011158, 0.0 ], [ 115.122745584451707, 24.68417218753012, 0.0 ], [ 115.141660395917498, 24.68635487024136, 0.0 ], [ 115.209418490878306, 24.716579329484251, 0.0 ], [ 115.276635935845306, 24.76515560744128, 0.0 ], [ 115.2984375693473, 24.767162290839071, 0.0 ], [ 115.327353248249494, 24.75987887500165, 0.0 ], [ 115.351541971008601, 24.74893800361016, 0.0 ], [ 115.360288198321996, 24.74863059695938, 0.0 ], [ 115.362469767794707, 24.76682667304523, 0.0 ], [ 115.368467295869905, 24.774902324079111, 0.0 ], [ 115.3796808827625, 24.782821475847939, 0.0 ], [ 115.406341691488706, 24.789195375705859, 0.0 ], [ 115.436452121092302, 24.788129893502639, 0.0 ], [ 115.461468796963302, 24.775306111275469, 0.0 ], [ 115.482316916638595, 24.75991047642286, 0.0 ], [ 115.537338516611797, 24.699983293388641, 0.0 ], [ 115.564752960345402, 24.693840041195539, 0.0 ], [ 115.576117595746794, 24.685697879344541, 0.0 ], [ 115.594145276678105, 24.657843155168869, 0.0 ], [ 115.605381880328395, 24.62677194900002, 0.0 ], [ 115.7058637022093, 24.547979024871701, 0.0 ], [ 115.759350614206795, 24.558017580816632, 0.0 ], [ 115.811871953120502, 24.560005859020769, 0.0 ], [ 115.821906107500595, 24.574821317422359, 0.0 ], [ 115.819239469061202, 24.60576859980134, 0.0 ], [ 115.802481032103699, 24.634373817314259, 0.0 ], [ 115.795086806444502, 24.654901496292041, 0.0 ], [ 115.795558036507998, 24.674073339253329, 0.0 ], [ 115.799801999389203, 24.68062270853893, 0.0 ], [ 115.802581433863807, 24.692832300092441, 0.0 ], [ 115.8034117184433, 24.700717259231521, 0.0 ], [ 115.799796180269297, 24.706226791848199, 0.0 ], [ 115.773541631197702, 24.729841986900201, 0.0 ], [ 115.766445581092896, 24.745570559281649, 0.0 ], [ 115.766463493650903, 24.767079852574032, 0.0 ], [ 115.770883098420398, 24.79432891768414, 0.0 ], [ 115.770495585668499, 24.808111215236941, 0.0 ], [ 115.768995359564798, 24.81606613867547, 0.0 ], [ 115.761771701396995, 24.827598702928729, 0.0 ], [ 115.761870594833695, 24.83404632126263, 0.0 ], [ 115.765681146630101, 24.8454921388381, 0.0 ], [ 115.809365580516001, 24.878216862106541, 0.0 ], [ 115.839447197652404, 24.88504321883341, 0.0 ], [ 115.849795136080303, 24.885043918366431, 0.0 ], [ 115.921509545205694, 24.863566147323489, 0.0 ], [ 115.929920735565602, 24.863238442723858, 0.0 ], [ 115.935527792188495, 24.86590605120152, 0.0 ], [ 115.936675361793405, 24.87472276902248, 0.0 ], [ 115.898162981677899, 24.925003257983761, 0.0 ], [ 115.879912434361898, 24.945195634843479, 0.0 ], [ 115.8531306134754, 24.998056062439609, 0.0 ], [ 115.860956484622506, 25.020029561993429, 0.0 ], [ 115.891684694287804, 25.047782184417141, 0.0 ], [ 115.883923424187799, 25.077433124469259, 0.0 ], [ 115.841091279097398, 25.108308951298941, 0.0 ], [ 115.831581582211996, 25.13550239365566, 0.0 ], [ 115.843628695188997, 25.175188091681559, 0.0 ], [ 115.868323276420398, 25.194886979860009, 0.0 ], [ 115.910891813983, 25.205194209948949, 0.0 ], [ 115.943478066826202, 25.22830142429402, 0.0 ], [ 115.954521710814603, 25.24772032989728, 0.0 ], [ 115.959416250335394, 25.26982282465567, 0.0 ], [ 115.986954844141707, 25.280992588059139, 0.0 ], [ 115.995433640500195, 25.291792053170429, 0.0 ], [ 115.997422208447404, 25.346515903777512, 0.0 ], [ 115.994079692878401, 25.37153488877243, 0.0 ], [ 115.9848984513998, 25.39010470882857, 0.0 ], [ 115.964647154800701, 25.41084246557584, 0.0 ], [ 115.964086274320707, 25.43473748814078, 0.0 ], [ 115.956668987415796, 25.470168097410738, 0.0 ], [ 115.9596673341957, 25.504020221520321, 0.0 ], [ 115.973737261769898, 25.52093593120555, 0.0 ], [ 116.021397277389497, 25.519778331990519, 0.0 ], [ 116.066997290638199, 25.602170830831049, 0.0 ], [ 116.097994265182393, 25.624098185899669, 0.0 ], [ 116.108634917769294, 25.65982476431698, 0.0 ], [ 116.106144131042001, 25.675800862142939, 0.0 ], [ 116.122615193472697, 25.705825549683329, 0.0 ], [ 116.126669342285098, 25.73672402960683, 0.0 ], [ 116.136191951285497, 25.744074696728131, 0.0 ], [ 116.174316829380899, 25.738487000182261, 0.0 ], [ 116.179802278075599, 25.753759754196022, 0.0 ], [ 116.110090774684096, 25.78976021806481, 0.0 ], [ 116.087424928185598, 25.823361248142891, 0.0 ], [ 116.1062356060567, 25.857426621465489, 0.0 ], [ 116.147407575545202, 25.883827213354639, 0.0 ], [ 116.284326359406805, 25.910663280487011, 0.0 ], [ 116.323900157989499, 25.95262001462396, 0.0 ], [ 116.349632545671895, 25.965866112583718, 0.0 ], [ 116.353999314696793, 25.994245208403239, 0.0 ], [ 116.464026937184997, 26.059102045363922, 0.0 ], [ 116.473364031264197, 26.081083982062069, 0.0 ], [ 116.473945713488007, 26.123959395320089, 0.0 ], [ 116.464203054122606, 26.131708360144149, 0.0 ], [ 116.4400895433741, 26.105038644764399, 0.0 ], [ 116.418317911395505, 26.102028557769241, 0.0 ], [ 116.409539050086906, 26.124921175444921, 0.0 ], [ 116.410046983494098, 26.151565511538621, 0.0 ], [ 116.384677439739406, 26.18458926516066, 0.0 ], [ 116.383075692012, 26.19960752895425, 0.0 ], [ 116.451486077311102, 26.234507743886208, 0.0 ], [ 116.510480902387997, 26.321207009651872, 0.0 ], [ 116.546908243715507, 26.35988716507315, 0.0 ], [ 116.595139105721003, 26.358104286904741, 0.0 ], [ 116.602748808273205, 26.408762325986402, 0.0 ], [ 116.628062813477598, 26.447441816391919, 0.0 ], [ 116.631074982259193, 26.462391910860539, 0.0 ], [ 116.6007814639446, 26.47120213398809, 0.0 ], [ 116.566770108062897, 26.54488705860917, 0.0 ], [ 116.554294977608194, 26.589394351432659, 0.0 ], [ 116.564039658879096, 26.629880489107752, 0.0 ], [ 116.516996152083905, 26.637475786539039, 0.0 ], [ 116.510311617203996, 26.663416906249338, 0.0 ], [ 116.515003906131895, 26.719310458929399, 0.0 ], [ 116.545453758468796, 26.744973000927441, 0.0 ], [ 116.566958249761996, 26.77924775922952, 0.0 ], [ 116.545965817897596, 26.811742426404809, 0.0 ], [ 116.541036784164305, 26.852522570163639, 0.0 ], [ 116.549667785672995, 26.89029380336585, 0.0 ], [ 116.600207580457194, 26.94165025679288, 0.0 ], [ 116.638527357516395, 26.97540486843199, 0.0 ], [ 116.676022389390496, 26.995681184396251, 0.0 ], [ 116.696919372444498, 26.99567457054075, 0.0 ], [ 116.719149244468198, 26.98562686899535, 0.0 ], [ 116.773179429860505, 27.00798161398799, 0.0 ], [ 116.897104345326298, 27.023371257314029, 0.0 ], [ 116.924806183917099, 27.03325247840236, 0.0 ], [ 116.960113063031301, 27.06135297035944, 0.0 ], [ 117.049584026999597, 27.089234800624101, 0.0 ], [ 117.061864146501506, 27.104373134759349, 0.0 ], [ 117.062654094597505, 27.143270501871449, 0.0 ], [ 117.071366253521504, 27.164800112576511, 0.0 ], [ 117.1228081941657, 27.215252994938009, 0.0 ], [ 117.155581669976002, 27.273163280985589, 0.0 ], [ 117.152139177506598, 27.297367260755909, 0.0 ], [ 117.129294749025306, 27.338388366258499, 0.0 ], [ 117.087453569086094, 27.345817563771661, 0.0 ], [ 117.076634389369104, 27.431357668453341, 0.0 ], [ 117.035561501902507, 27.505652641757369, 0.0 ], [ 117.071602902644202, 27.547644283448449, 0.0 ], [ 117.149193845531499, 27.55881205019417, 0.0 ], [ 117.177298877176796, 27.575373016446669, 0.0 ], [ 117.222265214489596, 27.653590477362791, 0.0 ], [ 117.3315876860473, 27.683717369471729, 0.0 ], [ 117.3424543212967, 27.71711436358952, 0.0 ], [ 117.338596006369997, 27.74751298741614, 0.0 ], [ 117.325515154698806, 27.769117851456819, 0.0 ], [ 117.337823019034602, 27.80756675305836, 0.0 ], [ 117.348029189071298, 27.817131338298982, 0.0 ], [ 117.406230452308904, 27.807555702685409, 0.0 ], [ 117.448363830587397, 27.825111963470359, 0.0 ], [ 117.475718982707605, 27.84441353560241, 0.0 ], [ 117.493327771122907, 27.868189179145752, 0.0 ], [ 117.523563567964899, 27.874698068828909, 0.0 ], [ 117.568819993216806, 27.91525115432858, 0.0 ], [ 117.598630158449296, 27.90420559460793, 0.0 ], [ 117.620399022638594, 27.841631135930381, 0.0 ], [ 117.661520107190796, 27.81270372918684, 0.0 ], [ 117.703100100226806, 27.806275260664751, 0.0 ], [ 117.731099337860698, 27.783912449601811, 0.0 ], [ 117.762370773181004, 27.784665715618232, 0.0 ], [ 117.785796316302907, 27.823002589250819, 0.0 ], [ 117.800344967244499, 27.89008122477971, 0.0 ], [ 117.820983142524298, 27.903663379789609, 0.0 ], [ 117.929544119146698, 27.936989779336528, 0.0 ], [ 118.002657652332701, 27.95358069882894, 0.0 ], [ 118.030446412507402, 27.954436569105031, 0.0 ], [ 118.061821664262894, 27.94048119036739, 0.0 ], [ 118.0768705400763, 27.9452479137531, 0.0 ], [ 118.081611722008404, 27.97987533915089, 0.0 ], [ 118.098180583693704, 28.004712086442549, 0.0 ], [ 118.127927287352094, 28.025816292368699, 0.0 ], [ 118.222843286340506, 28.03100619068411, 0.0 ], [ 118.257904750218202, 28.048945676031149, 0.0 ], [ 118.283933677117602, 28.076514468486501, 0.0 ], [ 118.337168223509806, 28.084043470660511, 0.0 ], [ 118.398359941055503, 28.083499845553341, 0.0 ], [ 118.411073676006595, 28.096586078534511, 0.0 ], [ 118.418020372041696, 28.13908055320643, 0.0 ], [ 118.395779124845006, 28.16324036680356, 0.0 ], [ 118.358013995863004, 28.18647357953191, 0.0 ], [ 118.351888423434104, 28.201273648413949, 0.0 ], [ 118.355294996139804, 28.216921856333052, 0.0 ], [ 118.373390067832602, 28.23902141154478, 0.0 ], [ 118.406691136520294, 28.256432190548871, 0.0 ], [ 118.448759144813195, 28.27813565291353, 0.0 ], [ 118.484212042470602, 28.306732092218649, 0.0 ], [ 118.487394515287207, 28.340337909595871, 0.0 ], [ 118.471273234617996, 28.38693220466179, 0.0 ], [ 118.462852935929007, 28.427156613846751, 0.0 ], [ 118.471967721563203, 28.48494283885536, 0.0 ], [ 118.442331081183198, 28.537285313688891, 0.0 ], [ 118.433038411683697, 28.587617045289399, 0.0 ], [ 118.434162188232605, 28.608342694243319, 0.0 ], [ 118.414072347747805, 28.628194093058049, 0.0 ], [ 118.333546922426095, 28.641332979004059, 0.0 ], [ 118.267759832667195, 28.640765480102239, 0.0 ], [ 118.235277978366099, 28.629927556803409, 0.0 ], [ 118.207102848516598, 28.588110968646859, 0.0 ], [ 118.172838874572804, 28.564080387520342, 0.0 ], [ 118.134840112417706, 28.57520555204599, 0.0 ], [ 118.106775206822803, 28.62186605180386, 0.0 ], [ 118.032813485673998, 28.664539484768142, 0.0 ], [ 118.008712358932897, 28.72561116213987, 0.0 ], [ 117.971253570833596, 28.760160825001339, 0.0 ], [ 117.920642899643696, 28.85607218868741, 0.0 ], [ 117.931902401390104, 28.892419807703391, 0.0 ], [ 118.009085448139004, 28.943277050609868, 0.0 ], [ 118.125778067677999, 28.999144716322551, 0.0 ], [ 118.124333182675002, 29.01299753324005, 0.0 ], [ 118.1118061523227, 29.027235370751239, 0.0 ], [ 118.079341259480103, 29.044816575002951, 0.0 ], [ 118.0381496513196, 29.075631386677411, 0.0 ], [ 118.007085943325194, 29.117919313648379, 0.0 ], [ 117.998921835870604, 29.136150435011309, 0.0 ], [ 118.002879674402607, 29.157777682924671, 0.0 ], [ 118.067098058961506, 29.211103293513119, 0.0 ], [ 118.077358536066001, 29.244495815356149, 0.0 ], [ 118.069333107100405, 29.285127314924601, 0.0 ], [ 118.037469668923706, 29.28253191675833, 0.0 ], [ 117.991716107059005, 29.244192755262759, 0.0 ], [ 117.955635486502203, 29.181008266881079, 0.0 ], [ 117.9399111672722, 29.162608849713351, 0.0 ], [ 117.910565396472094, 29.147626776250551, 0.0 ], [ 117.875846213510201, 29.141114402079811, 0.0 ], [ 117.836184124923903, 29.12773226785076, 0.0 ], [ 117.817555745526803, 29.112135945500931, 0.0 ], [ 117.768501486261997, 29.095640834079479, 0.0 ], [ 117.747741096074193, 29.067572979368851, 0.0 ], [ 117.730795140522204, 29.066038273088552, 0.0 ], [ 117.691895633396896, 29.0769204901469, 0.0 ], [ 117.657739054118807, 29.073619063218189, 0.0 ], [ 117.637307318759696, 29.05150645949162, 0.0 ], [ 117.606275880833294, 29.020338484225789, 0.0 ], [ 117.594062299526499, 29.027746313762599, 0.0 ], [ 117.571072467885003, 29.02357776125848, 0.0 ], [ 117.543484687706794, 28.994734338210979, 0.0 ], [ 117.495457114542603, 28.993450495570301, 0.0 ], [ 117.463016566698101, 29.071218081440279, 0.0 ], [ 117.453402776003998, 29.090907946307219, 0.0 ], [ 117.415278519878697, 29.106507250223761, 0.0 ], [ 117.375374577633394, 29.133356806848489, 0.0 ], [ 117.365536023646101, 29.149317298457369, 0.0 ], [ 117.362852132340606, 29.187704456761821, 0.0 ], [ 117.413238308867506, 29.24221510031013, 0.0 ], [ 117.448864041050598, 29.310898192630471, 0.0 ], [ 117.469599126732206, 29.3416717859389, 0.0 ], [ 117.532187024888302, 29.357580097502449, 0.0 ], [ 117.556545547500704, 29.370379042161741, 0.0 ], [ 117.588009399086999, 29.40376381135945, 0.0 ], [ 117.595015076807798, 29.440794118343469, 0.0 ], [ 117.596418939132306, 29.461289557729021, 0.0 ], [ 117.606464068518903, 29.48106443329554, 0.0 ], [ 117.668370594573005, 29.534929529464129, 0.0 ], [ 117.672735734879794, 29.566022903555769, 0.0 ], [ 117.663251183467295, 29.60850681303253, 0.0 ], [ 117.650458388943406, 29.6131778104129, 0.0 ], [ 117.602355319415196, 29.595712976703151, 0.0 ], [ 117.561359650271299, 29.583830590353809, 0.0 ], [ 117.541582351167904, 29.590856148920249, 0.0 ], [ 117.530982030321894, 29.607465888541771, 0.0 ], [ 117.520519759039701, 29.643244291224541, 0.0 ], [ 117.464814811776094, 29.681928242161039, 0.0 ], [ 117.451286427189899, 29.72169663360031, 0.0 ], [ 117.451205492704304, 29.735943345617802, 0.0 ], [ 117.438274182226394, 29.760259162770019, 0.0 ], [ 117.415581740752899, 29.77764101617845, 0.0 ], [ 117.411983029585897, 29.793073003477719, 0.0 ], [ 117.415455333324104, 29.813905312522969, 0.0 ], [ 117.428473635497795, 29.842052441823348, 0.0 ], [ 117.418598886472296, 29.851588968152441, 0.0 ], [ 117.403968600794101, 29.852055306814041, 0.0 ], [ 117.388556795720504, 29.844191727165839, 0.0 ], [ 117.382106006396299, 29.8286899942267, 0.0 ], [ 117.365067182429598, 29.818146461430469, 0.0 ], [ 117.351326674422594, 29.824112800264199, 0.0 ], [ 117.342203960106303, 29.839495428982321, 0.0 ], [ 117.337173364339506, 29.842443683214231, 0.0 ], [ 117.329640933265196, 29.842367256828691, 0.0 ], [ 117.321516564827505, 29.84272096010783, 0.0 ], [ 117.310276039302593, 29.83842268730433, 0.0 ], [ 117.297365406819793, 29.827306218421569, 0.0 ], [ 117.291615559549498, 29.826931628639549, 0.0 ], [ 117.279211494845796, 29.826102675068149, 0.0 ], [ 117.266931644573106, 29.829340526726622, 0.0 ], [ 117.252086751155701, 29.841355041584318, 0.0 ], [ 117.252013325877698, 29.850827917535451, 0.0 ], [ 117.257491168634601, 29.875761823437369, 0.0 ], [ 117.257948308506997, 29.896542848902332, 0.0 ], [ 117.256421023592296, 29.906887807983779, 0.0 ], [ 117.241181927305803, 29.924493799747271, 0.0 ], [ 117.235073244845296, 29.937400437253022, 0.0 ], [ 117.244828912443694, 29.968548560610639, 0.0 ], [ 117.299979519024006, 29.986433891745669, 0.0 ], [ 117.380515735487606, 29.990790381781839, 0.0 ], [ 117.402511113877196, 29.996233849002149, 0.0 ], [ 117.421170532388601, 30.004660998455059, 0.0 ], [ 117.464118308159797, 30.036290169483259, 0.0 ], [ 117.532672390664004, 30.039433193243461, 0.0 ], [ 117.576263067738694, 30.028764265916969, 0.0 ], [ 117.752435449007294, 30.035453578645161, 0.0 ], [ 117.961729738141401, 30.04903351056182, 0.0 ], [ 118.068992012415606, 30.1108907627377, 0.0 ], [ 118.106906043202599, 30.142393825652569, 0.0 ], [ 118.174800702248604, 30.138546594418958, 0.0 ], [ 118.244632713748601, 30.134217391370338, 0.0 ], [ 118.271981102756698, 30.12287534288134, 0.0 ], [ 118.302710217786696, 30.110754264744369, 0.0 ], [ 118.378677920943204, 30.109172390705009, 0.0 ], [ 118.402848911628098, 30.121939993119589, 0.0 ], [ 118.446718159393299, 30.156063314435269, 0.0 ], [ 118.5145991722367, 30.17650435393044, 0.0 ], [ 118.551910361802996, 30.19741453008016, 0.0 ], [ 118.571798432054294, 30.232193640588861, 0.0 ], [ 118.604390405392195, 30.265509141962369, 0.0 ], [ 118.6213355332699, 30.275190622614371, 0.0 ], [ 118.656918602652894, 30.283904173675669, 0.0 ], [ 118.712382897376898, 30.27742944241286, 0.0 ], [ 118.728262983639496, 30.26421862173536, 0.0 ], [ 118.738592631766906, 30.238020631657641, 0.0 ], [ 118.761454178040196, 30.21120215085022, 0.0 ], [ 118.795039515648895, 30.209364429008311, 0.0 ], [ 118.871744180616005, 30.222055939786721, 0.0 ], [ 118.887076351334301, 30.23592532197436, 0.0 ], [ 118.889756135424605, 30.25568506438422, 0.0 ], [ 118.880287908330502, 30.298238796372011, 0.0 ], [ 118.886782686402, 30.316856541315271, 0.0 ], [ 118.921934729650502, 30.336934023022621, 0.0 ], [ 118.941625206622803, 30.355033812750179, 0.0 ], [ 118.970752270723096, 30.357865840219791, 0.0 ], [ 119.006604057192803, 30.333500990218798, 0.0 ], [ 119.016798918811403, 30.325539717367821, 0.0 ], [ 119.165302894017103, 30.311202948360041, 0.0 ], [ 119.211631963402695, 30.30858612397617, 0.0 ], [ 119.246492289623305, 30.3177283230029, 0.0 ], [ 119.308304736606303, 30.358352952887849, 0.0 ], [ 119.319247296433602, 30.363790998165189, 0.0 ], [ 119.356337340272404, 30.370101699858839, 0.0 ], [ 119.362206731145804, 30.37609740043322, 0.0 ], [ 119.353649575598396, 30.403359852468238, 0.0 ], [ 119.353064614994295, 30.430000704772009, 0.0 ], [ 119.345286272765605, 30.45380887591471, 0.0 ], [ 119.343341396601701, 30.48606075629063, 0.0 ], [ 119.337016815061602, 30.516969446334411, 0.0 ], [ 119.325002080929494, 30.52284156651627, 0.0 ], [ 119.305892420145, 30.525090957281989, 0.0 ], [ 119.288408894162998, 30.52171743232898, 0.0 ], [ 119.279620309560599, 30.511281144275159, 0.0 ], [ 119.2659468653072, 30.505639330698472, 0.0 ], [ 119.251873704190103, 30.506596018033012, 0.0 ], [ 119.241456692736193, 30.51155009045657, 0.0 ], [ 119.231085147032005, 30.546501800072551, 0.0 ], [ 119.234288697559805, 30.55958457195204, 0.0 ], [ 119.250499950551898, 30.57254764230532, 0.0 ], [ 119.256974724691204, 30.58107049504525, 0.0 ], [ 119.256626283451496, 30.60001203941215, 0.0 ], [ 119.260359845436994, 30.61655560853502, 0.0 ], [ 119.265413388840599, 30.61928708155698, 0.0 ], [ 119.315425497996301, 30.621833595016241, 0.0 ], [ 119.329578016976697, 30.628255395497689, 0.0 ], [ 119.335690341075704, 30.648707935271741, 0.0 ], [ 119.349009891388107, 30.66305992065945, 0.0 ], [ 119.370505794948599, 30.67850597442423, 0.0 ], [ 119.379108930471702, 30.683442428612409, 0.0 ], [ 119.4021996568747, 30.68031061672125, 0.0 ], [ 119.407553394336105, 30.669691381587882, 0.0 ], [ 119.407721815843502, 30.65314442281197, 0.0 ], [ 119.411823066829498, 30.64538945931967, 0.0 ], [ 119.417807463428701, 30.642558444689691, 0.0 ], [ 119.502521093834005, 30.656342278232032, 0.0 ], [ 119.544791373093702, 30.69300399023928, 0.0 ], [ 119.556540656673207, 30.713426091248301, 0.0 ], [ 119.558179649010697, 30.73884878835263, 0.0 ], [ 119.562561728162905, 30.752850919420869, 0.0 ], [ 119.582263030067793, 30.809221468720789, 0.0 ], [ 119.619436310688798, 30.86128841907497, 0.0 ], [ 119.664632935344301, 30.922457821214959, 0.0 ], [ 119.665881862545405, 30.935615829314951, 0.0 ], [ 119.662498151097907, 30.945768107074009, 0.0 ], [ 119.631987257671597, 30.983946022508629, 0.0 ], [ 119.626950649352196, 31.007159236453109, 0.0 ], [ 119.629639236334796, 31.03218218957937, 0.0 ], [ 119.640008616807805, 31.081486099545621, 0.0 ], [ 119.642010496910601, 31.09885290102816, 0.0 ], [ 119.637432425558998, 31.108374322393761, 0.0 ], [ 119.600513650307903, 31.11784231065139, 0.0 ], [ 119.578431341181499, 31.127192230889221, 0.0 ], [ 119.546172601958503, 31.144962536207771, 0.0 ], [ 119.544724349653706, 31.161857647508789, 0.0 ], [ 119.549243218499896, 31.203959298926261, 0.0 ], [ 119.558852462288797, 31.244365466683401, 0.0 ], [ 119.552399781188896, 31.255766977676199, 0.0 ], [ 119.515439610613299, 31.314132549083808, 0.0 ], [ 119.523632581675898, 31.355844607526169, 0.0 ], [ 119.530162629117498, 31.372922457026391, 0.0 ], [ 119.545176741820001, 31.39508521284413, 0.0 ], [ 119.552571425922693, 31.420549753193431, 0.0 ], [ 119.554289065527399, 31.4471655253151, 0.0 ], [ 119.546103589324204, 31.460204834285779, 0.0 ], [ 119.506268378880506, 31.493385907694961, 0.0 ], [ 119.497088261070203, 31.516874868585401, 0.0 ], [ 119.494400193449096, 31.554635414212409, 0.0 ], [ 119.486759657885997, 31.56545567856945, 0.0 ], [ 119.471520800715894, 31.56837688851105, 0.0 ], [ 119.387837274845694, 31.573321294089379, 0.0 ], [ 119.348567791748906, 31.586235291415068, 0.0 ], [ 119.3048970547881, 31.592489971582602, 0.0 ], [ 119.283376812180293, 31.58781713165121, 0.0 ], [ 119.246210587730303, 31.57353535400847, 0.0 ], [ 119.227166811060599, 31.571210883628499, 0.0 ], [ 119.209716101489093, 31.574045712575611, 0.0 ], [ 119.185869101986498, 31.59033853003892, 0.0 ], [ 119.165489503752696, 31.598165505138521, 0.0 ], [ 119.153412639285804, 31.612095274059701, 0.0 ], [ 119.1342601098534, 31.656281705793159, 0.0 ], [ 119.109370190430695, 31.669647991919309, 0.0 ], [ 119.0697785139144, 31.674505123683211, 0.0 ], [ 119.046054601364403, 31.686521606865892, 0.0 ], [ 119.022930879102503, 31.70184037741063, 0.0 ], [ 119.004376771989996, 31.70336400592743, 0.0 ], [ 118.973057214092705, 31.698879494721279, 0.0 ], [ 118.943354842578202, 31.690107637723042, 0.0 ], [ 118.927401731388201, 31.668047981364829, 0.0 ], [ 118.912060077544695, 31.631663250222001, 0.0 ], [ 118.881495511302305, 31.62664010167309, 0.0 ], [ 118.837869944289295, 31.635896100783139, 0.0 ], [ 118.813645970837896, 31.627794066667381, 0.0 ], [ 118.794753641967702, 31.625463543073401, 0.0 ], [ 118.785240560376806, 31.662184714012341, 0.0 ], [ 118.764432755266995, 31.676285748862622, 0.0 ], [ 118.740116613514203, 31.648956120931341, 0.0 ], [ 118.700541413168295, 31.639360270723209, 0.0 ], [ 118.658327441599994, 31.651801826305629, 0.0 ], [ 118.639332339995903, 31.69981898623135, 0.0 ], [ 118.584529468941099, 31.699606193312679, 0.0 ], [ 118.519310519035599, 31.705394565882401, 0.0 ], [ 118.482518059768793, 31.735438097162771, 0.0 ], [ 118.462849543259395, 31.736176090711432, 0.0 ], [ 118.452618131927494, 31.621808348779801, 0.0 ], [ 118.421142947964299, 31.55166753476589, 0.0 ], [ 118.349575940619403, 31.46985884581478, 0.0 ], [ 118.343119480293396, 31.391601968613699, 0.0 ], [ 118.350670209646907, 31.30823572709323, 0.0 ], [ 118.286077421039195, 31.267942895507641, 0.0 ], [ 118.1191748036251, 31.24116832313133, 0.0 ], [ 118.033627305791299, 31.1980138688713, 0.0 ], [ 117.939208354465194, 31.109768809306271, 0.0 ], [ 117.805628111792302, 31.054597558329309, 0.0 ], [ 117.759555381789795, 30.931728200335758, 0.0 ], [ 117.722086093846499, 30.81087613541456, 0.0 ], [ 117.608667332167201, 30.75357121483923, 0.0 ], [ 117.425495937620298, 30.713698691582469, 0.0 ], [ 117.274478719522094, 30.651456380795121, 0.0 ], [ 117.253452065287902, 30.556478288864849, 0.0 ], [ 117.192597269442103, 30.497327342242539, 0.0 ], [ 117.094296290552194, 30.500749487150109, 0.0 ], [ 117.002454915002204, 30.475933890226418, 0.0 ], [ 116.932678171750197, 30.409547825700091, 0.0 ], [ 116.927825972903705, 30.329678545676408, 0.0 ], [ 116.925753896920497, 30.28665458966076, 0.0 ], [ 116.918723613478605, 30.243636726761618, 0.0 ], [ 116.873169057697396, 30.167853767602999, 0.0 ], [ 116.809230626782806, 30.101145499794931, 0.0 ], [ 116.732375076424304, 30.054959854836039, 0.0 ], [ 116.636678769715004, 30.045149596311969, 0.0 ], [ 116.591925932518507, 30.019244918643661, 0.0 ], [ 116.5765267911965, 29.966967326545031, 0.0 ], [ 116.569225971979805, 29.919638257691759, 0.0 ], [ 116.516787322246799, 29.890426243102699, 0.0 ], [ 116.438120554778806, 29.877374968687249, 0.0 ], [ 116.370306575781299, 29.86200409296357, 0.0 ], [ 116.312872936206801, 29.806564754722409, 0.0 ], [ 116.247999899922306, 29.765835796456809, 0.0 ], [ 116.180401020289807, 29.763725391911301, 0.0 ], [ 116.065869704178297, 29.76924773106289, 0.0 ], [ 116.033903215163406, 29.754585007226321, 0.0 ], [ 115.950180673967296, 29.722981158785551, 0.0 ], [ 115.898537130094795, 29.733223369971309, 0.0 ], [ 115.835126397399307, 29.76355784358762, 0.0 ], [ 115.759380291682106, 29.790308029818739, 0.0 ], [ 115.707735665622806, 29.857917700432399, 0.0 ], [ 115.640889682089593, 29.849060442959541, 0.0 ], [ 115.534217606945703, 29.844867561792132, 0.0 ], [ 115.445246610619094, 29.86478968125515, 0.0 ], [ 115.409774907560006, 29.91463796601737, 0.0 ], [ 115.379501529115601, 29.97938082986024, 0.0 ], [ 115.332731049892701, 30.029512771551708, 0.0 ], [ 115.317566660057594, 30.074983429321559, 0.0 ], [ 115.308428608764203, 30.118804344578201, 0.0 ], [ 115.248149016661401, 30.17749233950952, 0.0 ], [ 115.2134987886907, 30.216388409919482, 0.0 ], [ 115.173932877739105, 30.216498747578139, 0.0 ], [ 115.113512072396603, 30.215354422385079, 0.0 ], [ 115.080569464821494, 30.237562817082861, 0.0 ], [ 115.078326718394706, 30.27977475333406, 0.0 ], [ 115.089130387409796, 30.328719078919612, 0.0 ], [ 115.080167774223199, 30.382022309957112, 0.0 ], [ 115.025957482171194, 30.401726255605212, 0.0 ], [ 114.958742121049895, 30.398858624546872, 0.0 ], [ 114.887794131343895, 30.42409451519076, 0.0 ], [ 114.841943800810796, 30.44063592805324, 0.0 ], [ 114.835885192964298, 30.488123254054202, 0.0 ], [ 114.842548835662299, 30.559302687557569, 0.0 ], [ 114.836965410460394, 30.603538821576809, 0.0 ], [ 114.792761581215601, 30.61804736983435, 0.0 ], [ 114.7131867977089, 30.586272384280569, 0.0 ], [ 114.638033256080007, 30.565459012795241, 0.0 ], [ 114.586575661458298, 30.570189847963551, 0.0 ], [ 114.560973432501001, 30.645429836497978, 0.0 ], [ 114.521357582130605, 30.686091151910201, 0.0 ], [ 114.449126145636697, 30.69378289883657, 0.0 ], [ 114.389787775068399, 30.67110001808647, 0.0 ], [ 114.332718596788396, 30.620387348955219, 0.0 ], [ 114.294262300020307, 30.553260237908539, 0.0 ], [ 114.246985106049095, 30.48546487192419, 0.0 ], [ 114.178508020773407, 30.40801849113366, 0.0 ], [ 114.106718396603199, 30.336414517243998, 0.0 ], [ 114.089917586829699, 30.26787796596226, 0.0 ], [ 114.062159654562805, 30.222593470954941, 0.0 ], [ 114.031871100635996, 30.23840491688151, 0.0 ], [ 113.981283767116807, 30.300129873686629, 0.0 ], [ 113.921566441584105, 30.296000193496319, 0.0 ], [ 113.885818335436397, 30.224771442882599, 0.0 ], [ 113.876453968421302, 30.19212417528815, 0.0 ], [ 113.918050980720807, 30.184535874829798, 0.0 ], [ 113.976671993525102, 30.201632589820441, 0.0 ], [ 114.027200056919995, 30.163596239436739, 0.0 ], [ 114.083403375326697, 30.130041367139381, 0.0 ], [ 114.097859517712294, 30.103283035763209, 0.0 ], [ 114.058495278829099, 30.082224141234981, 0.0 ], [ 113.951936548999399, 30.039202516650938, 0.0 ], [ 113.931079581560596, 30.027106133387409, 0.0 ], [ 113.8758690199613, 29.968478408066659, 0.0 ], [ 113.814457452967503, 29.938110534143231, 0.0 ], [ 113.767187483527707, 29.927487814957029, 0.0 ], [ 113.721325871831795, 29.938028239931871, 0.0 ], [ 113.676321492866094, 29.92873748739143, 0.0 ], [ 113.618021111555507, 29.87816842243614, 0.0 ], [ 113.544695120173998, 29.83194138852566, 0.0 ], [ 113.4741592472582, 29.78424526335894, 0.0 ], [ 113.394500035915698, 29.717677136457201, 0.0 ], [ 113.300005773993604, 29.61478511019244, 0.0 ], [ 113.245674534901696, 29.565405927999461, 0.0 ], [ 113.153155821584406, 29.45981129135966, 0.0 ], [ 113.128714155372407, 29.448791587665649, 0.0 ], [ 113.069606236916599, 29.441851710213228, 0.0 ], [ 113.069871053564398, 29.46523388240659, 0.0 ], [ 113.068660855421996, 29.495391260235571, 0.0 ], [ 113.045195794860206, 29.506933607965848, 0.0 ], [ 113.007588436730302, 29.492299369014258, 0.0 ], [ 112.9622385114981, 29.476370967048329, 0.0 ], [ 112.940802701442195, 29.48472383130666, 0.0 ], [ 112.940960575852799, 29.530104146631921, 0.0 ], [ 112.920946178212105, 29.609474348118439, 0.0 ], [ 112.921356464629497, 29.6513419547449, 0.0 ], [ 112.927765692628199, 29.681522579213301, 0.0 ], [ 112.964074046044004, 29.71330133110693, 0.0 ], [ 113.006544965130601, 29.762142097872012, 0.0 ], [ 113.0091690213861, 29.784044592475031, 0.0 ], [ 112.980815190845505, 29.79266451948552, 0.0 ], [ 112.914073859397305, 29.79479618612886, 0.0 ], [ 112.871373796768097, 29.782161904413741, 0.0 ], [ 112.806790092013301, 29.731496162465358, 0.0 ], [ 112.788243905798694, 29.693128696575108, 0.0 ], [ 112.734921549006202, 29.685966790752499, 0.0 ], [ 112.722538286667302, 29.661465936437089, 0.0 ], [ 112.7083620878429, 29.621132508408412, 0.0 ], [ 112.648473849334195, 29.611186220040821, 0.0 ], [ 112.606578066267204, 29.613937323039469, 0.0 ], [ 112.516008043024399, 29.632763434049529, 0.0 ], [ 112.480729253395495, 29.642908238269019, 0.0 ], [ 112.452175759866506, 29.63890577663593, 0.0 ], [ 112.412985549292401, 29.581847110395081, 0.0 ], [ 112.3681476105954, 29.536214622039111, 0.0 ], [ 112.342836802983399, 29.526036353968848, 0.0 ], [ 112.3145790153673, 29.537189741211261, 0.0 ], [ 112.2996328236854, 29.573996562781339, 0.0 ], [ 112.2700485162554, 29.61536662962973, 0.0 ], [ 112.264491589535496, 29.63205338246064, 0.0 ], [ 112.253745318594397, 29.644290792598358, 0.0 ], [ 112.186420117016496, 29.654256962932632, 0.0 ], [ 112.157981798110697, 29.675265073163029, 0.0 ], [ 112.150417046531203, 29.69146603328797, 0.0 ], [ 112.144026333365204, 29.700164389169409, 0.0 ], [ 112.086947917295504, 29.72346243336791, 0.0 ], [ 112.051120297338102, 29.74365295835312, 0.0 ], [ 112.016902035727199, 29.770200247389319, 0.0 ], [ 112.000524241200395, 29.807757443686931, 0.0 ], [ 111.965496107580606, 29.832493475392891, 0.0 ], [ 111.926275042945505, 29.853707259767759, 0.0 ], [ 111.896331270130105, 29.856804118349601, 0.0 ], [ 111.881795368608394, 29.864683556507028, 0.0 ], [ 111.862405453117603, 29.87513749038418, 0.0 ], [ 111.825625388997807, 29.87508115251109, 0.0 ], [ 111.805897256620696, 29.89266052635416, 0.0 ], [ 111.785301175984401, 29.913145269523849, 0.0 ], [ 111.748749505789704, 29.92656629980306, 0.0 ], [ 111.732628625089205, 29.919937326835111, 0.0 ], [ 111.708048735595995, 29.889998492313619, 0.0 ], [ 111.670247295770295, 29.880186238998672, 0.0 ], [ 111.629563155618698, 29.893922294591409, 0.0 ], [ 111.578221027171594, 29.898867385487261, 0.0 ], [ 111.5387146770464, 29.90388274039714, 0.0 ], [ 111.521917116481902, 29.927151373932219, 0.0 ], [ 111.496694398639505, 29.929559625777479, 0.0 ], [ 111.454513735665202, 29.913959074132549, 0.0 ], [ 111.411538869218703, 29.91395378400345, 0.0 ], [ 111.391171085890804, 29.928542560785829, 0.0 ], [ 111.392142033848799, 29.947668822176631, 0.0 ], [ 111.368007575508798, 29.958952708048152, 0.0 ], [ 111.356406481586305, 29.953087929265429, 0.0 ], [ 111.316810262985499, 29.989181098869761, 0.0 ], [ 111.286845520335902, 30.003894136204611, 0.0 ], [ 111.259581578031799, 30.02575819936445, 0.0 ], [ 111.232431612322102, 30.0369334607654, 0.0 ], [ 111.1132315113244, 30.051027006989688, 0.0 ], [ 111.074640065595801, 30.052748174155699, 0.0 ], [ 110.952446440840802, 30.064626738997141, 0.0 ], [ 110.929530327639796, 30.074942402833351, 0.0 ], [ 110.924510066801204, 30.112053624872189, 0.0 ], [ 110.891244207939494, 30.113457277390939, 0.0 ], [ 110.8361369929559, 30.117476576035411, 0.0 ], [ 110.798855806636297, 30.112396757384222, 0.0 ], [ 110.776409335588397, 30.101251419922932, 0.0 ], [ 110.7585234273959, 30.056177293481841, 0.0 ], [ 110.738032634527798, 30.048249518649701, 0.0 ] ] ] } },
{ "type": "Feature", "id": "0FB093C66A414AB7A363", "properties": { "name": "江南东道", "styleUrl": "#__managed_style_024C72E206414A9450C8" }, "geometry": { "type": "Polygon", "coordinates": [ [ [ 118.658327441599994, 31.651801826305629, 0.0 ], [ 118.700541413168295, 31.639360270723209, 0.0 ], [ 118.740116613514203, 31.648956120931341, 0.0 ], [ 118.764432755266995, 31.676285748862622, 0.0 ], [ 118.785240560376806, 31.662184714012341, 0.0 ], [ 118.794753641967702, 31.625463543073401, 0.0 ], [ 118.813645970837896, 31.627794066667381, 0.0 ], [ 118.837869944289295, 31.635896100783139, 0.0 ], [ 118.881495511302305, 31.62664010167309, 0.0 ], [ 118.912060077544695, 31.631663250222001, 0.0 ], [ 118.927401731388201, 31.668047981364829, 0.0 ], [ 118.943354842578202, 31.690107637723042, 0.0 ], [ 118.973057214092705, 31.698879494721279, 0.0 ], [ 119.004376771989996, 31.70336400592743, 0.0 ], [ 119.022930879102503, 31.70184037741063, 0.0 ], [ 119.046054601364403, 31.686521606865892, 0.0 ], [ 119.0697785139144, 31.674505123683211, 0.0 ], [ 119.109370190430695, 31.669647991919309, 0.0 ], [ 119.1342601098534, 31.656281705793159, 0.0 ], [ 119.153412639285804, 31.612095274059701, 0.0 ], [ 119.165489503752696, 31.598165505138521, 0.0 ], [ 119.185869101986498, 31.59033853003892, 0.0 ], [ 119.209716101489093, 31.574045712575611, 0.0 ], [ 119.227166811060599, 31.571210883628499, 0.0 ], [ 119.246210587730303, 31.57353535400847, 0.0 ], [ 119.283376812180293, 31.58781713165121, 0.0 ], [ 119.3048970547881, 31.592489971582602, 0.0 ], [ 119.348567791748906, 31.586235291415068, 0.0 ], [ 119.387837274845694, 31.573321294089379, 0.0 ], [ 119.471520800715894, 31.56837688851105, 0.0 ], [ 119.486759657885997, 31.56545567856945, 0.0 ], [ 119.494400193449096, 31.554635414212409, 0.0 ], [ 119.497088261070203, 31.516874868585401, 0.0 ], [ 119.506268378880506, 31.493385907694961, 0.0 ], [ 119.546103589324204, 31.460204834285779, 0.0 ], [ 119.554289065527399, 31.4471655253151, 0.0 ], [ 119.552571425922693, 31.420549753193431, 0.0 ], [ 119.545176741820001, 31.39508521284413, 0.0 ], [ 119.530162629117498, 31.372922457026391, 0.0 ], [ 119.523632581675898, 31.355844607526169, 0.0 ], [ 119.515439610613299, 31.314132549083808, 0.0 ], [ 119.552399781188896, 31.255766977676199, 0.0 ], [ 119.558852462288797, 31.244365466683401, 0.0 ], [ 119.549243218499896, 31.203959298926261, 0.0 ], [ 119.544724349653706, 31.161857647508789, 0.0 ], [ 119.546172601958503, 31.144962536207771, 0.0 ], [ 119.578431341181499, 31.127192230889221, 0.0 ], [ 119.600513650307903, 31.11784231065139, 0.0 ], [ 119.637432425558998, 31.108374322393761, 0.0 ], [ 119.642010496910601, 31.09885290102816, 0.0 ], [ 119.640008616807805, 31.081486099545621, 0.0 ], [ 119.629639236334796, 31.03218218957937, 0.0 ], [ 119.626950649352196, 31.007159236453109, 0.0 ], [ 119.631987257671597, 30.983946022508629, 0.0 ], [ 119.662498151097907, 30.945768107074009, 0.0 ], [ 119.665881862545405, 30.935615829314951, 0.0 ], [ 119.664632935344301, 30.922457821214959, 0.0 ], [ 119.619436310688798, 30.86128841907497, 0.0 ], [ 119.582263030067793, 30.809221468720789, 0.0 ], [ 119.562561728162905, 30.752850919420869, 0.0 ], [ 119.558179649010697, 30.73884878835263, 0.0 ], [ 119.556540656673207, 30.713426091248301, 0.0 ], [ 119.544791373093702, 30.69300399023928, 0.0 ], [ 119.502521093834005, 30.656342278232032, 0.0 ], [ 119.417807463428701, 30.642558444689691, 0.0 ], [ 119.411823066829498, 30.64538945931967, 0.0 ], [ 119.407721815843502, 30.65314442281197, 0.0 ], [ 119.407553394336105, 30.669691381587882, 0.0 ], [ 119.4021996568747, 30.68031061672125, 0.0 ], [ 119.379108930471702, 30.683442428612409, 0.0 ], [ 119.370505794948599, 30.67850597442423, 0.0 ], [ 119.349009891388107, 30.66305992065945, 0.0 ], [ 119.335690341075704, 30.648707935271741, 0.0 ], [ 119.329578016976697, 30.628255395497689, 0.0 ], [ 119.315425497996301, 30.621833595016241, 0.0 ], [ 119.265413388840599, 30.61928708155698, 0.0 ], [ 119.260359845436994, 30.61655560853502, 0.0 ], [ 119.256626283451496, 30.60001203941215, 0.0 ], [ 119.256974724691204, 30.58107049504525, 0.0 ], [ 119.250499950551898, 30.57254764230532, 0.0 ], [ 119.234288697559805, 30.55958457195204, 0.0 ], [ 119.231085147032005, 30.546501800072551, 0.0 ], [ 119.241456692736193, 30.51155009045657, 0.0 ], [ 119.251873704190103, 30.506596018033012, 0.0 ], [ 119.2659468653072, 30.505639330698472, 0.0 ], [ 119.279620309560599, 30.511281144275159, 0.0 ], [ 119.288408894162998, 30.52171743232898, 0.0 ], [ 119.305892420145, 30.525090957281989, 0.0 ], [ 119.325002080929494, 30.52284156651627, 0.0 ], [ 119.337016815061602, 30.516969446334411, 0.0 ], [ 119.343341396601701, 30.48606075629063, 0.0 ], [ 119.345286272765605, 30.45380887591471, 0.0 ], [ 119.353064614994295, 30.430000704772009, 0.0 ], [ 119.353649575598396, 30.403359852468238, 0.0 ], [ 119.362206731145804, 30.37609740043322, 0.0 ], [ 119.356337340272404, 30.370101699858839, 0.0 ], [ 119.319247296433602, 30.363790998165189, 0.0 ], [ 119.308304736606303, 30.358352952887849, 0.0 ], [ 119.246492289623305, 30.3177283230029, 0.0 ], [ 119.211631963402695, 30.30858612397617, 0.0 ], [ 119.165302894017103, 30.311202948360041, 0.0 ], [ 119.016798918811403, 30.325539717367821, 0.0 ], [ 119.006604057192803, 30.333500990218798, 0.0 ], [ 118.970752270723096, 30.357865840219791, 0.0 ], [ 118.941625206622803, 30.355033812750179, 0.0 ], [ 118.921934729650502, 30.336934023022621, 0.0 ], [ 118.886782686402, 30.316856541315271, 0.0 ], [ 118.880287908330502, 30.298238796372011, 0.0 ], [ 118.889756135424605, 30.25568506438422, 0.0 ], [ 118.887076351334301, 30.23592532197436, 0.0 ], [ 118.871744180616005, 30.222055939786721, 0.0 ], [ 118.795039515648895, 30.209364429008311, 0.0 ], [ 118.761454178040196, 30.21120215085022, 0.0 ], [ 118.738592631766906, 30.238020631657641, 0.0 ], [ 118.728262983639496, 30.26421862173536, 0.0 ], [ 118.712382897376898, 30.27742944241286, 0.0 ], [ 118.656918602652894, 30.283904173675669, 0.0 ], [ 118.6213355332699, 30.275190622614371, 0.0 ], [ 118.604390405392195, 30.265509141962369, 0.0 ], [ 118.571798432054294, 30.232193640588861, 0.0 ], [ 118.551910361802996, 30.19741453008016, 0.0 ], [ 118.5145991722367, 30.17650435393044, 0.0 ], [ 118.446718159393299, 30.156063314435269, 0.0 ], [ 118.402848911628098, 30.121939993119589, 0.0 ], [ 118.378677920943204, 30.109172390705009, 0.0 ], [ 118.302710217786696, 30.110754264744369, 0.0 ], [ 118.271981102756698, 30.12287534288134, 0.0 ], [ 118.244632713748601, 30.134217391370338, 0.0 ], [ 118.174800702248604, 30.138546594418958, 0.0 ], [ 118.106906043202599, 30.142393825652569, 0.0 ], [ 118.068992012415606, 30.1108907627377, 0.0 ], [ 117.961729738141401, 30.04903351056182, 0.0 ], [ 117.752435449007294, 30.035453578645161, 0.0 ], [ 117.576263067738694, 30.028764265916969, 0.0 ], [ 117.532672390664004, 30.039433193243461, 0.0 ], [ 117.464118308159797, 30.036290169483259, 0.0 ], [ 117.421170532388601, 30.004660998455059, 0.0 ], [ 117.402511113877196, 29.996233849002149, 0.0 ], [ 117.380515735487606, 29.990790381781839, 0.0 ], [ 117.299979519024006, 29.986433891745669, 0.0 ], [ 117.244828912443694, 29.968548560610639, 0.0 ], [ 117.235073244845296, 29.937400437253022, 0.0 ], [ 117.241181927305803, 29.924493799747271, 0.0 ], [ 117.256421023592296, 29.906887807983779, 0.0 ], [ 117.257948308506997, 29.896542848902332, 0.0 ], [ 117.257491168634601, 29.875761823437369, 0.0 ], [ 117.252013325877698, 29.850827917535451, 0.0 ], [ 117.252086751155701, 29.841355041584318, 0.0 ], [ 117.266931644573106, 29.829340526726622, 0.0 ], [ 117.279211494845796, 29.826102675068149, 0.0 ], [ 117.291615559549498, 29.826931628639549, 0.0 ], [ 117.297365406819793, 29.827306218421569, 0.0 ], [ 117.310276039302593, 29.83842268730433, 0.0 ], [ 117.321516564827505, 29.84272096010783, 0.0 ], [ 117.329640933265196, 29.842367256828691, 0.0 ], [ 117.337173364339506, 29.842443683214231, 0.0 ], [ 117.342203960106303, 29.839495428982321, 0.0 ], [ 117.351326674422594, 29.824112800264199, 0.0 ], [ 117.365067182429598, 29.818146461430469, 0.0 ], [ 117.382106006396299, 29.8286899942267, 0.0 ], [ 117.388556795720504, 29.844191727165839, 0.0 ], [ 117.403968600794101, 29.852055306814041, 0.0 ], [ 117.418598886472296, 29.851588968152441, 0.0 ], [ 117.428473635497795, 29.842052441823348, 0.0 ], [ 117.415455333324104, 29.813905312522969, 0.0 ], [ 117.411983029585897, 29.793073003477719, 0.0 ], [ 117.415581740752899, 29.77764101617845, 0.0 ], [ 117.438274182226394, 29.760259162770019, 0.0 ], [ 117.451205492704304, 29.735943345617802, 0.0 ], [ 117.451286427189899, 29.72169663360031, 0.0 ], [ 117.464814811776094, 29.681928242161039, 0.0 ], [ 117.520519759039701, 29.643244291224541, 0.0 ], [ 117.530982030321894, 29.607465888541771, 0.0 ], [ 117.541582351167904, 29.590856148920249, 0.0 ], [ 117.561359650271299, 29.583830590353809, 0.0 ], [ 117.602355319415196, 29.595712976703151, 0.0 ], [ 117.650458388943406, 29.6131778104129, 0.0 ], [ 117.663251183467295, 29.60850681303253, 0.0 ], [ 117.672735734879794, 29.566022903555769, 0.0 ], [ 117.668370594573005, 29.534929529464129, 0.0 ], [ 117.606464068518903, 29.48106443329554, 0.0 ], [ 117.596418939132306, 29.461289557729021, 0.0 ], [ 117.595015076807798, 29.440794118343469, 0.0 ], [ 117.588009399086999, 29.40376381135945, 0.0 ], [ 117.556545547500704, 29.370379042161741, 0.0 ], [ 117.532187024888302, 29.357580097502449, 0.0 ], [ 117.469599126732206, 29.3416717859389, 0.0 ], [ 117.448864041050598, 29.310898192630471, 0.0 ], [ 117.413238308867506, 29.24221510031013, 0.0 ], [ 117.362852132340606, 29.187704456761821, 0.0 ], [ 117.365536023646101, 29.149317298457369, 0.0 ], [ 117.375374577633394, 29.133356806848489, 0.0 ], [ 117.415278519878697, 29.106507250223761, 0.0 ], [ 117.453402776003998, 29.090907946307219, 0.0 ], [ 117.463016566698101, 29.071218081440279, 0.0 ], [ 117.495457114542603, 28.993450495570301, 0.0 ], [ 117.606275880833294, 29.020338484225789, 0.0 ], [ 117.637307318759696, 29.05150645949162, 0.0 ], [ 117.657739054118807, 29.073619063218189, 0.0 ], [ 117.691895633396896, 29.0769204901469, 0.0 ], [ 117.730795140522204, 29.066038273088552, 0.0 ], [ 117.747741096074193, 29.067572979368851, 0.0 ], [ 117.768501486261997, 29.095640834079479, 0.0 ], [ 117.817555745526803, 29.112135945500931, 0.0 ], [ 117.836184124923903, 29.12773226785076, 0.0 ], [ 117.875846213510201, 29.141114402079811, 0.0 ], [ 117.910565396472094, 29.147626776250551, 0.0 ], [ 117.9399111672722, 29.162608849713351, 0.0 ], [ 117.955635486502203, 29.181008266881079, 0.0 ], [ 117.991716107059005, 29.244192755262759, 0.0 ], [ 118.037469668923706, 29.28253191675833, 0.0 ], [ 118.069333107100405, 29.285127314924601, 0.0 ], [ 118.077358536066001, 29.244495815356149, 0.0 ], [ 118.067098058961506, 29.211103293513119, 0.0 ], [ 118.002879674402607, 29.157777682924671, 0.0 ], [ 117.998921835870604, 29.136150435011309, 0.0 ], [ 118.007085943325194, 29.117919313648379, 0.0 ], [ 118.0381496513196, 29.075631386677411, 0.0 ], [ 118.079341259480103, 29.044816575002951, 0.0 ], [ 118.1118061523227, 29.027235370751239, 0.0 ], [ 118.124333182675002, 29.01299753324005, 0.0 ], [ 118.125778067677999, 28.999144716322551, 0.0 ], [ 118.009085448139004, 28.943277050609868, 0.0 ], [ 117.931902401390104, 28.892419807703391, 0.0 ], [ 117.920642899643696, 28.85607218868741, 0.0 ], [ 117.971253570833596, 28.760160825001339, 0.0 ], [ 118.008712358932897, 28.72561116213987, 0.0 ], [ 118.032813485673998, 28.664539484768142, 0.0 ], [ 118.106775206822803, 28.62186605180386, 0.0 ], [ 118.134840112417706, 28.57520555204599, 0.0 ], [ 118.172838874572804, 28.564080387520342, 0.0 ], [ 118.207102848516598, 28.588110968646859, 0.0 ], [ 118.235277978366099, 28.629927556803409, 0.0 ], [ 118.267759832667195, 28.640765480102239, 0.0 ], [ 118.333546922426095, 28.641332979004059, 0.0 ], [ 118.414072347747805, 28.628194093058049, 0.0 ], [ 118.434162188232605, 28.608342694243319, 0.0 ], [ 118.433038411683697, 28.587617045289399, 0.0 ], [ 118.442331081183198, 28.537285313688891, 0.0 ], [ 118.471967721563203, 28.48494283885536, 0.0 ], [ 118.462852935929007, 28.427156613846751, 0.0 ], [ 118.471273234617996, 28.38693220466179, 0.0 ], [ 118.487394515287207, 28.340337909595871, 0.0 ], [ 118.484212042470602, 28.306732092218649, 0.0 ], [ 118.448759144813195, 28.27813565291353, 0.0 ], [ 118.406691136520294, 28.256432190548871, 0.0 ], [ 118.373390067832602, 28.23902141154478, 0.0 ], [ 118.355294996139804, 28.216921856333052, 0.0 ], [ 118.351888423434104, 28.201273648413949, 0.0 ], [ 118.358013995863004, 28.18647357953191, 0.0 ], [ 118.395779124845006, 28.16324036680356, 0.0 ], [ 118.418020372041696, 28.13908055320643, 0.0 ], [ 118.411073676006595, 28.096586078534511, 0.0 ], [ 118.398359941055503, 28.083499845553341, 0.0 ], [ 118.337168223509806, 28.084043470660511, 0.0 ], [ 118.283933677117602, 28.076514468486501, 0.0 ], [ 118.257904750218202, 28.048945676031149, 0.0 ], [ 118.222843286340506, 28.03100619068411, 0.0 ], [ 118.127927287352094, 28.025816292368699, 0.0 ], [ 118.098180583693704, 28.004712086442549, 0.0 ], [ 118.081611722008404, 27.97987533915089, 0.0 ], [ 118.0768705400763, 27.9452479137531, 0.0 ], [ 118.061821664262894, 27.94048119036739, 0.0 ], [ 118.030446412507402, 27.954436569105031, 0.0 ], [ 118.002657652332701, 27.95358069882894, 0.0 ], [ 117.929544119146698, 27.936989779336528, 0.0 ], [ 117.820983142524298, 27.903663379789609, 0.0 ], [ 117.800344967244499, 27.89008122477971, 0.0 ], [ 117.785796316302907, 27.823002589250819, 0.0 ], [ 117.762370773181004, 27.784665715618232, 0.0 ], [ 117.731099337860698, 27.783912449601811, 0.0 ], [ 117.703100100226806, 27.806275260664751, 0.0 ], [ 117.661520107190796, 27.81270372918684, 0.0 ], [ 117.620399022638594, 27.841631135930381, 0.0 ], [ 117.598630158449296, 27.90420559460793, 0.0 ], [ 117.568819993216806, 27.91525115432858, 0.0 ], [ 117.523563567964899, 27.874698068828909, 0.0 ], [ 117.493327771122907, 27.868189179145752, 0.0 ], [ 117.475718982707605, 27.84441353560241, 0.0 ], [ 117.448363830587397, 27.825111963470359, 0.0 ], [ 117.406230452308904, 27.807555702685409, 0.0 ], [ 117.348029189071298, 27.817131338298982, 0.0 ], [ 117.337823019034602, 27.80756675305836, 0.0 ], [ 117.325515154698806, 27.769117851456819, 0.0 ], [ 117.338596006369997, 27.74751298741614, 0.0 ], [ 117.3424543212967, 27.71711436358952, 0.0 ], [ 117.3315876860473, 27.683717369471729, 0.0 ], [ 117.222265214489596, 27.653590477362791, 0.0 ], [ 117.177298877176796, 27.575373016446669, 0.0 ], [ 117.149193845531499, 27.55881205019417, 0.0 ], [ 117.071602902644202, 27.547644283448449, 0.0 ], [ 117.035561501902507, 27.505652641757369, 0.0 ], [ 117.076634389369104, 27.431357668453341, 0.0 ], [ 117.087453569086094, 27.345817563771661, 0.0 ], [ 117.129294749025306, 27.338388366258499, 0.0 ], [ 117.152139177506598, 27.297367260755909, 0.0 ], [ 117.155581669976002, 27.273163280985589, 0.0 ], [ 117.1228081941657, 27.215252994938009, 0.0 ], [ 117.071366253521504, 27.164800112576511, 0.0 ], [ 117.062654094597505, 27.143270501871449, 0.0 ], [ 117.061864146501506, 27.104373134759349, 0.0 ], [ 117.049584026999597, 27.089234800624101, 0.0 ], [ 116.960113063031301, 27.06135297035944, 0.0 ], [ 116.924806183917099, 27.03325247840236, 0.0 ], [ 116.897104345326298, 27.023371257314029, 0.0 ], [ 116.773179429860505, 27.00798161398799, 0.0 ], [ 116.719149244468198, 26.98562686899535, 0.0 ], [ 116.696919372444498, 26.99567457054075, 0.0 ], [ 116.676022389390496, 26.995681184396251, 0.0 ], [ 116.638527357516395, 26.97540486843199, 0.0 ], [ 116.600207580457194, 26.94165025679288, 0.0 ], [ 116.549667785672995, 26.89029380336585, 0.0 ], [ 116.541036784164305, 26.852522570163639, 0.0 ], [ 116.545965817897596, 26.811742426404809, 0.0 ], [ 116.566958249761996, 26.77924775922952, 0.0 ], [ 116.545453758468796, 26.744973000927441, 0.0 ], [ 116.515003906131895, 26.719310458929399, 0.0 ], [ 116.510311617203996, 26.663416906249338, 0.0 ], [ 116.516996152083905, 26.637475786539039, 0.0 ], [ 116.564039658879096, 26.629880489107752, 0.0 ], [ 116.554294977608194, 26.589394351432659, 0.0 ], [ 116.566770108062897, 26.54488705860917, 0.0 ], [ 116.6007814639446, 26.47120213398809, 0.0 ], [ 116.631074982259193, 26.462391910860539, 0.0 ], [ 116.628062813477598, 26.447441816391919, 0.0 ], [ 116.602748808273205, 26.408762325986402, 0.0 ], [ 116.595139105721003, 26.358104286904741, 0.0 ], [ 116.546908243715507, 26.35988716507315, 0.0 ], [ 116.510480902387997, 26.321207009651872, 0.0 ], [ 116.451486077311102, 26.234507743886208, 0.0 ], [ 116.383075692012, 26.19960752895425, 0.0 ], [ 116.384677439739406, 26.18458926516066, 0.0 ], [ 116.410046983494098, 26.151565511538621, 0.0 ], [ 116.409539050086906, 26.124921175444921, 0.0 ], [ 116.418317911395505, 26.102028557769241, 0.0 ], [ 116.4400895433741, 26.105038644764399, 0.0 ], [ 116.464203054122606, 26.131708360144149, 0.0 ], [ 116.473945713488007, 26.123959395320089, 0.0 ], [ 116.473364031264197, 26.081083982062069, 0.0 ], [ 116.464026937184997, 26.059102045363922, 0.0 ], [ 116.353999314696793, 25.994245208403239, 0.0 ], [ 116.349632545671895, 25.965866112583718, 0.0 ], [ 116.323900157989499, 25.95262001462396, 0.0 ], [ 116.284326359406805, 25.910663280487011, 0.0 ], [ 116.147407575545202, 25.883827213354639, 0.0 ], [ 116.1062356060567, 25.857426621465489, 0.0 ], [ 116.087424928185598, 25.823361248142891, 0.0 ], [ 116.110090774684096, 25.78976021806481, 0.0 ], [ 116.179802278075599, 25.753759754196022, 0.0 ], [ 116.174316829380899, 25.738487000182261, 0.0 ], [ 116.136191951285497, 25.744074696728131, 0.0 ], [ 116.126669342285098, 25.73672402960683, 0.0 ], [ 116.122615193472697, 25.705825549683329, 0.0 ], [ 116.106144131042001, 25.675800862142939, 0.0 ], [ 116.108634917769294, 25.65982476431698, 0.0 ], [ 116.097994265182393, 25.624098185899669, 0.0 ], [ 116.066997290638199, 25.602170830831049, 0.0 ], [ 116.021397277389497, 25.519778331990519, 0.0 ], [ 115.973737261769898, 25.52093593120555, 0.0 ], [ 115.9596673341957, 25.504020221520321, 0.0 ], [ 115.956668987415796, 25.470168097410738, 0.0 ], [ 115.964086274320707, 25.43473748814078, 0.0 ], [ 115.964647154800701, 25.41084246557584, 0.0 ], [ 115.9848984513998, 25.39010470882857, 0.0 ], [ 115.994079692878401, 25.37153488877243, 0.0 ], [ 115.997422208447404, 25.346515903777512, 0.0 ], [ 115.995433640500195, 25.291792053170429, 0.0 ], [ 115.986954844141707, 25.280992588059139, 0.0 ], [ 115.959416250335394, 25.26982282465567, 0.0 ], [ 115.954521710814603, 25.24772032989728, 0.0 ], [ 115.943478066826202, 25.22830142429402, 0.0 ], [ 115.910891813983, 25.205194209948949, 0.0 ], [ 115.868323276420398, 25.194886979860009, 0.0 ], [ 115.843628695188997, 25.175188091681559, 0.0 ], [ 115.831581582211996, 25.13550239365566, 0.0 ], [ 115.841091279097398, 25.108308951298941, 0.0 ], [ 115.883923424187799, 25.077433124469259, 0.0 ], [ 115.891684694287804, 25.047782184417141, 0.0 ], [ 115.860956484622506, 25.020029561993429, 0.0 ], [ 115.8531306134754, 24.998056062439609, 0.0 ], [ 115.879912434361898, 24.945195634843479, 0.0 ], [ 115.898162981677899, 24.925003257983761, 0.0 ], [ 115.959865306704998, 24.914211309083619, 0.0 ], [ 116.046625933315099, 24.885509242651391, 0.0 ], [ 116.084316890196902, 24.853430310858201, 0.0 ], [ 116.150322912100407, 24.835005029473891, 0.0 ], [ 116.201361621764903, 24.85660358995132, 0.0 ], [ 116.229793470625097, 24.853831399551179, 0.0 ], [ 116.257186307024895, 24.787492931007002, 0.0 ], [ 116.297394413263902, 24.791394837377052, 0.0 ], [ 116.370937981683696, 24.833487640013921, 0.0 ], [ 116.441677524817607, 24.761361613207651, 0.0 ], [ 116.502019859015704, 24.714488417139691, 0.0 ], [ 116.536959703318004, 24.617055746825539, 0.0 ], [ 116.670093042688407, 24.664586495674719, 0.0 ], [ 116.816149064737502, 24.688964814980221, 0.0 ], [ 116.817210001915001, 24.64822592070793, 0.0 ], [ 116.774282620111507, 24.56755013852904, 0.0 ], [ 116.804388868552095, 24.509102327564609, 0.0 ], [ 116.867953494381695, 24.485331448937671, 0.0 ], [ 116.8506640606997, 24.44350370417164, 0.0 ], [ 116.923210835420306, 24.383021528515691, 0.0 ], [ 116.942089990392503, 24.291700689767321, 0.0 ], [ 116.936367690624706, 24.255039041637211, 0.0 ], [ 116.9983289119875, 24.204633357678659, 0.0 ], [ 116.975438463923894, 24.17438145504746, 0.0 ], [ 116.927238026844194, 24.110229859303679, 0.0 ], [ 116.983245745125501, 23.977715527814318, 0.0 ], [ 116.988047483272297, 23.899414477616379, 0.0 ], [ 117.035611995438799, 23.85465599825741, 0.0 ], [ 117.073771062272499, 23.705724946993382, 0.0 ], [ 117.166975434643703, 23.664114388234381, 0.0 ], [ 117.201642827624994, 23.617260846051121, 0.0 ], [ 117.255631458601499, 23.596701845840609, 0.0 ], [ 117.291328, 23.571225, 0.0 ], [ 117.302415, 23.550379, 0.0 ], [ 117.387415, 23.555317, 0.0 ], [ 117.463791, 23.584937, 0.0 ], [ 117.454552, 23.628259, 0.0 ], [ 117.493357, 23.642514, 0.0 ], [ 117.501364, 23.70445, 0.0 ], [ 117.54448, 23.715956, 0.0 ], [ 117.601762, 23.70171, 0.0 ], [ 117.660276, 23.789357, 0.0 ], [ 117.651653, 23.815093, 0.0 ], [ 117.671979, 23.878041, 0.0 ], [ 117.691073, 23.888985, 0.0 ], [ 117.762522, 23.886796, 0.0 ], [ 117.792703, 23.906494, 0.0 ], [ 117.807486, 23.947521, 0.0 ], [ 117.864768, 24.004938, 0.0 ], [ 117.910347, 24.012045, 0.0 ], [ 117.927594, 24.039922, 0.0 ], [ 117.936217, 24.100029, 0.0 ], [ 118.000275, 24.152462, 0.0 ], [ 118.019369, 24.197232, 0.0 ], [ 118.074803, 24.225615, 0.0 ], [ 118.115455, 24.229435, 0.0 ], [ 118.158571, 24.269814, 0.0 ], [ 118.112376, 24.357075, 0.0 ], [ 118.081579, 24.35653, 0.0 ], [ 118.088354, 24.408858, 0.0 ], [ 118.048934, 24.418122, 0.0 ], [ 118.053966069977022, 24.440112527158863, 0.0 ], [ 118.08532832948562, 24.539606591806731, 0.0 ], [ 118.121615, 24.570067, 0.0 ], [ 118.150564, 24.583673, 0.0 ], [ 118.169042, 24.559725, 0.0 ], [ 118.242955, 24.51236, 0.0 ], [ 118.375382, 24.536317, 0.0 ], [ 118.363679, 24.567889, 0.0 ], [ 118.444367, 24.614689, 0.0 ], [ 118.512736, 24.60816, 0.0 ], [ 118.557084, 24.572788, 0.0 ], [ 118.558316, 24.51236, 0.0 ], [ 118.614366, 24.521617, 0.0 ], [ 118.680272, 24.58204, 0.0 ], [ 118.687047, 24.63373, 0.0 ], [ 118.661178, 24.622306, 0.0 ], [ 118.652554, 24.653857, 0.0 ], [ 118.670417, 24.679962, 0.0 ], [ 118.703677, 24.665278, 0.0 ], [ 118.748599563445794, 24.709665740348836, 0.0 ], [ 118.778822, 24.743569, 0.0 ], [ 118.786213, 24.77672, 0.0 ], [ 118.650707, 24.808774, 0.0 ], [ 118.647627, 24.843536, 0.0 ], [ 118.702445, 24.865258, 0.0 ], [ 118.69875, 24.848967, 0.0 ], [ 118.748641, 24.84245, 0.0 ], [ 118.807771, 24.870687, 0.0 ], [ 118.834256, 24.854397, 0.0 ], [ 118.864437, 24.887518, 0.0 ], [ 118.933423, 24.870687, 0.0 ], [ 118.988857, 24.878831, 0.0 ], [ 118.987009, 24.898375, 0.0 ], [ 118.932807, 24.906518, 0.0 ], [ 118.91864, 24.932569, 0.0 ], [ 118.945741, 24.954275, 0.0 ], [ 119.014111, 24.941252, 0.0 ], [ 119.032589, 24.961328, 0.0 ], [ 119.007335, 24.963499, 0.0 ], [ 119.004872, 24.970009, 0.0 ], [ 118.989473, 24.973807, 0.0 ], [ 119.023966, 25.04377, 0.0 ], [ 119.016575, 25.058409, 0.0 ], [ 118.974691, 25.024792, 0.0 ], [ 118.945126, 25.028588, 0.0 ], [ 118.892155, 25.092558, 0.0 ], [ 118.974691, 25.115319, 0.0 ], [ 118.951901, 25.15162, 0.0 ], [ 118.985162, 25.168954, 0.0 ], [ 118.985162, 25.19495, 0.0 ], [ 118.942046, 25.211195, 0.0 ], [ 118.940198, 25.21715, 0.0 ], [ 118.943278, 25.221482, 0.0 ], [ 118.903242, 25.239347, 0.0 ], [ 118.900162, 25.242595, 0.0 ], [ 118.919256, 25.248008, 0.0 ], [ 118.91556, 25.256668, 0.0 ], [ 118.956212, 25.272905, 0.0 ], [ 118.996864, 25.266411, 0.0 ], [ 118.975307, 25.237723, 0.0 ], [ 118.990089, 25.20199, 0.0 ], [ 119.055379, 25.219316, 0.0 ], [ 119.074473, 25.211195, 0.0 ], [ 119.054147, 25.168412, 0.0 ], [ 119.032589, 25.17437, 0.0 ], [ 119.028893, 25.139702, 0.0 ], [ 119.06585, 25.102855, 0.0 ], [ 119.075705, 25.099604, 0.0 ], [ 119.134219, 25.106107, 0.0 ], [ 119.107118, 25.075214, 0.0 ], [ 119.119436, 25.012861, 0.0 ], [ 119.146538, 25.056782, 0.0 ], [ 119.165632, 25.145661, 0.0 ], [ 119.137299, 25.15487, 0.0 ], [ 119.108349, 25.193867, 0.0 ], [ 119.131755, 25.223106, 0.0 ], [ 119.190269, 25.175995, 0.0 ], [ 119.231537, 25.188993, 0.0 ], [ 119.26911, 25.159746, 0.0 ], [ 119.277044038814594, 25.163494129720849, 0.0 ], [ 119.314689, 25.190076, 0.0 ], [ 119.294979, 25.237182, 0.0 ], [ 119.331935, 25.230685, 0.0 ], [ 119.380595, 25.250173, 0.0 ], [ 119.333167, 25.287516, 0.0 ], [ 119.299291, 25.328634, 0.0 ], [ 119.247552, 25.333502, 0.0 ], [ 119.240776, 25.316733, 0.0 ], [ 119.218603, 25.368115, 0.0 ], [ 119.14469, 25.388121, 0.0 ], [ 119.151465, 25.426503, 0.0 ], [ 119.191501, 25.424341, 0.0 ], [ 119.219834, 25.468654, 0.0 ], [ 119.256175, 25.488643, 0.0 ], [ 119.275269, 25.476758, 0.0 ], [ 119.26295, 25.428124, 0.0 ], [ 119.288204, 25.410827, 0.0 ], [ 119.353493, 25.411908, 0.0 ], [ 119.343638, 25.472436, 0.0 ], [ 119.359037, 25.521592, 0.0 ], [ 119.400921, 25.493505, 0.0 ], [ 119.45266, 25.493505, 0.0 ], [ 119.438493, 25.412449, 0.0 ], [ 119.463131, 25.448661, 0.0 ], [ 119.491464, 25.443257, 0.0 ], [ 119.48592, 25.418935, 0.0 ], [ 119.507478, 25.396231, 0.0 ], [ 119.486536, 25.369737, 0.0 ], [ 119.548746, 25.365952, 0.0 ], [ 119.578927, 25.400556, 0.0 ], [ 119.555521, 25.429205, 0.0 ], [ 119.577695, 25.445959, 0.0 ], [ 119.59063, 25.398394, 0.0 ], [ 119.582623, 25.374063, 0.0 ], [ 119.597405, 25.334584, 0.0 ], [ 119.649144, 25.342697, 0.0 ], [ 119.665159, 25.3719, 0.0 ], [ 119.656535, 25.396772, 0.0 ], [ 119.670086, 25.435691, 0.0 ], [ 119.622659, 25.434069, 0.0 ], [ 119.675014, 25.468113, 0.0 ], [ 119.682405, 25.445959, 0.0 ], [ 119.773564, 25.395691, 0.0 ], [ 119.764325, 25.433529, 0.0 ], [ 119.804977, 25.457847, 0.0 ], [ 119.866571, 25.455145, 0.0 ], [ 119.862875, 25.474597, 0.0 ], [ 119.811136, 25.507009, 0.0 ], [ 119.81668, 25.532393, 0.0 ], [ 119.861027, 25.531313, 0.0 ], [ 119.883817, 25.546432, 0.0 ], [ 119.831462, 25.579905, 0.0 ], [ 119.843165, 25.597717, 0.0 ], [ 119.790194, 25.614447, 0.0 ], [ 119.785883, 25.66786, 0.0 ], [ 119.700267, 25.616606, 0.0 ], [ 119.683637, 25.592859, 0.0 ], [ 119.716898, 25.551292, 0.0 ], [ 119.715666, 25.51187, 0.0 ], [ 119.680557, 25.497827, 0.0 ], [ 119.675014, 25.475137, 0.0 ], [ 119.634362, 25.475137, 0.0 ], [ 119.611572, 25.519972, 0.0 ], [ 119.616499, 25.556691, 0.0 ], [ 119.586934, 25.59232, 0.0 ], [ 119.534579, 25.585303, 0.0 ], [ 119.541355, 25.6247, 0.0 ], [ 119.478529, 25.631715, 0.0 ], [ 119.472986, 25.662466, 0.0 ], [ 119.543819, 25.684581, 0.0 ], [ 119.602949, 25.68512, 0.0 ], [ 119.602949, 25.714779, 0.0 ], [ 119.626354, 25.723406, 0.0 ], [ 119.628202, 25.87212, 0.0 ], [ 119.638057, 25.889888, 0.0 ], [ 119.69534, 25.904424, 0.0 ], [ 119.723673, 26.011503, 0.0 ], [ 119.700267, 26.032477, 0.0 ], [ 119.668854, 26.026024, 0.0 ], [ 119.654688, 26.090002, 0.0 ], [ 119.618963, 26.11956, 0.0 ], [ 119.604181, 26.168985, 0.0 ], [ 119.664543, 26.202282, 0.0 ], [ 119.676246, 26.262943, 0.0 ], [ 119.7711, 26.285481, 0.0 ], [ 119.802513, 26.268846, 0.0 ], [ 119.806825, 26.307479, 0.0 ], [ 119.845013, 26.323036, 0.0 ], [ 119.862875, 26.307479, 0.0 ], [ 119.904143, 26.308552, 0.0 ], [ 119.95465, 26.352534, 0.0 ], [ 119.946027, 26.374519, 0.0 ], [ 119.893672, 26.355752, 0.0 ], [ 119.842425954883652, 26.425667991218411, 0.0 ], [ 119.835774, 26.434019, 0.0 ], [ 119.83639, 26.454381, 0.0 ], [ 119.825274719214832, 26.482816246422029, 0.0 ], [ 119.814553084700748, 26.514068670431236, 0.0 ], [ 119.801550251353817, 26.547298133428864, 0.0 ], [ 119.788346, 26.583435, 0.0 ], [ 119.740303, 26.610727, 0.0 ], [ 119.670086, 26.618218, 0.0 ], [ 119.605412, 26.595744, 0.0 ], [ 119.577695, 26.622498, 0.0 ], [ 119.619579, 26.649246, 0.0 ], [ 119.637441, 26.703256, 0.0 ], [ 119.664543, 26.726243, 0.0 ], [ 119.711354, 26.686681, 0.0 ], [ 119.744748400417379, 26.689264740789437, 0.0 ], [ 119.772274866333035, 26.688884540983974, 0.0 ], [ 119.798888852715578, 26.691089699855667, 0.0 ], [ 119.833926, 26.690959, 0.0 ], [ 119.864107, 26.671174, 0.0 ], [ 119.873962, 26.642827, 0.0 ], [ 119.908455, 26.661547, 0.0 ], [ 119.899216, 26.693098, 0.0 ], [ 119.938636, 26.747088, 0.0 ], [ 119.942947, 26.784492, 0.0 ], [ 120.052584, 26.786629, 0.0 ], [ 120.061824, 26.768997, 0.0 ], [ 119.99407, 26.720363, 0.0 ], [ 119.969433, 26.686681, 0.0 ], [ 119.972512, 26.654594, 0.0 ], [ 119.949107, 26.624638, 0.0 ], [ 119.901679, 26.624638, 0.0 ], [ 119.851788, 26.595209, 0.0 ], [ 119.828383, 26.524013, 0.0 ], [ 119.867187, 26.509019, 0.0 ], [ 119.947875, 26.56042, 0.0 ], [ 119.93802, 26.576478, 0.0 ], [ 119.967585, 26.597885, 0.0 ], [ 120.007621, 26.595744, 0.0 ], [ 120.063671, 26.627848, 0.0 ], [ 120.093852, 26.613938, 0.0 ], [ 120.1382, 26.638012, 0.0 ], [ 120.110483, 26.692563, 0.0 ], [ 120.162222, 26.717691, 0.0 ], [ 120.151135, 26.750829, 0.0 ], [ 120.106787, 26.752966, 0.0 ], [ 120.136352, 26.797847, 0.0 ], [ 120.103707, 26.794642, 0.0 ], [ 120.102476, 26.82669, 0.0 ], [ 120.073526, 26.823485, 0.0 ], [ 120.042729, 26.828292, 0.0 ], [ 120.054432, 26.863533, 0.0 ], [ 120.117874, 26.882751, 0.0 ], [ 120.126497, 26.920644, 0.0 ], [ 120.130193, 26.917976, 0.0 ], [ 120.1807, 26.920644, 0.0 ], [ 120.233055, 26.907837, 0.0 ], [ 120.25954, 26.982526, 0.0 ], [ 120.279866, 26.987326, 0.0 ], [ 120.275554, 27.027315, 0.0 ], [ 120.29588, 27.035845, 0.0 ], [ 120.282946, 27.089671, 0.0 ], [ 120.391967, 27.081146, 0.0 ], [ 120.403054, 27.10086, 0.0 ], [ 120.461568, 27.142407, 0.0 ], [ 120.492365, 27.136016, 0.0 ], [ 120.545952, 27.156785, 0.0 ], [ 120.574901, 27.234501, 0.0 ], [ 120.554575, 27.25206, 0.0 ], [ 120.580444, 27.321203, 0.0 ], [ 120.60674584825199, 27.33517351696684, 0.0 ], [ 120.665444, 27.357884, 0.0 ], [ 120.673451, 27.420055, 0.0 ], [ 120.703016, 27.478475, 0.0 ], [ 120.637111, 27.561271, 0.0 ], [ 120.634647, 27.577186, 0.0 ], [ 120.685154, 27.622797, 0.0 ], [ 120.709176, 27.682699, 0.0 ], [ 120.771386, 27.734623, 0.0 ], [ 120.797871, 27.779638, 0.0 ], [ 120.840371, 27.758986, 0.0 ], [ 120.910588, 27.864852, 0.0 ], [ 120.942001, 27.896592, 0.0 ], [ 120.97403, 27.887071, 0.0 ], [ 121.027616, 27.832574, 0.0 ], [ 121.070116, 27.834162, 0.0 ], [ 121.107688, 27.81352, 0.0 ], [ 121.152036, 27.815638, 0.0 ], [ 121.153268, 27.809815, 0.0 ], [ 121.192072, 27.822518, 0.0 ], [ 121.193304, 27.872259, 0.0 ], [ 121.162507, 27.879136, 0.0 ], [ 121.162507, 27.90717, 0.0 ], [ 121.099681, 27.895005, 0.0 ], [ 121.05595, 27.900294, 0.0 ], [ 120.991892, 27.95, 0.0 ], [ 121.015298, 27.981714, 0.0 ], [ 121.059029, 28.096338, 0.0 ], [ 121.108304, 28.139092, 0.0 ], [ 121.121239, 28.12537, 0.0 ], [ 121.140949, 28.031382, 0.0 ], [ 121.176058, 28.022401, 0.0 ], [ 121.261057, 28.034551, 0.0 ], [ 121.299862, 28.067297, 0.0 ], [ 121.328195, 28.134343, 0.0 ], [ 121.373774, 28.133287, 0.0 ], [ 121.402107, 28.197127, 0.0 ], [ 121.45631, 28.250385, 0.0 ], [ 121.488955, 28.301509, 0.0 ], [ 121.538846, 28.299401, 0.0 ], [ 121.571491, 28.279376, 0.0 ], [ 121.580114, 28.240368, 0.0 ], [ 121.627541, 28.251966, 0.0 ], [ 121.637900937889, 28.269725440483001, 0.0 ], [ 121.669425, 28.33312, 0.0 ], [ 121.660186, 28.355768, 0.0 ], [ 121.634317, 28.347868, 0.0 ], [ 121.658954, 28.392628, 0.0 ], [ 121.692831, 28.407368, 0.0 ], [ 121.671273, 28.472621, 0.0 ], [ 121.646019, 28.511544, 0.0 ], [ 121.634317, 28.562542, 0.0 ], [ 121.596128, 28.575156, 0.0 ], [ 121.558777413377101, 28.64655398418002, 0.0 ], [ 121.540694, 28.655537, 0.0 ], [ 121.646019, 28.682842, 0.0 ], [ 121.689135, 28.719062, 0.0 ], [ 121.704534, 28.804577, 0.0 ], [ 121.687287, 28.863294, 0.0 ], [ 121.774751, 28.863818, 0.0 ], [ 121.772287, 28.898404, 0.0 ], [ 121.743338, 28.954451, 0.0 ], [ 121.711309, 28.985865, 0.0 ], [ 121.712541, 29.028783, 0.0 ], [ 121.658954, 29.058606, 0.0 ], [ 121.659138909778704, 29.082943573804098, 0.0 ], [ 121.660186, 29.118226, 0.0 ], [ 121.616454, 29.143318, 0.0 ], [ 121.608447, 29.168927, 0.0 ], [ 121.715621, 29.125022, 0.0 ], [ 121.750113, 29.136523, 0.0 ], [ 121.767975, 29.166837, 0.0 ], [ 121.780294, 29.10986, 0.0 ], [ 121.811091, 29.10986, 0.0 ], [ 121.85975, 29.086328, 0.0 ], [ 121.884388, 29.105677, 0.0 ], [ 121.966308, 29.052852, 0.0 ], [ 121.970004, 29.092604, 0.0 ], [ 121.988482, 29.110906, 0.0 ], [ 121.986634, 29.154817, 0.0 ], [ 121.948446, 29.193485, 0.0 ], [ 121.971851, 29.193485, 0.0 ], [ 121.966924, 29.249894, 0.0 ], [ 122.002032, 29.260336, 0.0 ], [ 122.000185, 29.278608, 0.0 ], [ 121.94475, 29.28435, 0.0 ], [ 121.958301, 29.334448, 0.0 ], [ 121.936127, 29.348012, 0.0 ], [ 121.937975, 29.384, 0.0 ], [ 121.975547, 29.411113, 0.0 ], [ 121.993409, 29.45229, 0.0 ], [ 121.973083, 29.477821, 0.0 ], [ 121.968772, 29.515846, 0.0 ], [ 121.995257, 29.545007, 0.0 ], [ 122.000185, 29.582486, 0.0 ], [ 121.966308, 29.636078, 0.0 ], [ 121.909641, 29.650122, 0.0 ], [ 121.872685, 29.632437, 0.0 ], [ 121.833265, 29.653242, 0.0 ], [ 121.937359, 29.748373, 0.0 ], [ 122.003264, 29.762401, 0.0 ], [ 122.043916, 29.822647, 0.0 ], [ 122.10243, 29.859504, 0.0 ], [ 122.143082, 29.877668, 0.0 ], [ 122.140003, 29.901535, 0.0 ], [ 122.081937991224436, 29.897720205799722, 0.0 ], [ 122.00696, 29.891678, 0.0 ], [ 122.00388, 29.92021, 0.0 ], [ 121.971235, 29.955476, 0.0 ], [ 121.919497, 29.920729, 0.0 ], [ 121.835113, 29.958068, 0.0 ], [ 121.798337546160994, 29.97328455931882, 0.0 ], [ 121.715399423328705, 29.953456730659632, 0.0 ], [ 121.6745669911448, 29.976619005034049, 0.0 ], [ 121.604878836247707, 30.058374753235508, 0.0 ], [ 121.453037586678604, 30.116397168010451, 0.0 ], [ 121.322475171979093, 30.157978310718391, 0.0 ], [ 121.154294607805895, 30.155113826840019, 0.0 ], [ 121.011739815204606, 30.14770506947881, 0.0 ], [ 120.921366006054797, 30.119479876629288, 0.0 ], [ 120.796418443016194, 30.10905753832656, 0.0 ], [ 120.682141305935005, 30.11704589164416, 0.0 ], [ 120.557553151765205, 30.150225682657791, 0.0 ], [ 120.425871738227798, 30.181931389300399, 0.0 ], [ 120.347988656993195, 30.202594621877701, 0.0 ], [ 120.335871566656905, 30.223832827181859, 0.0 ], [ 120.340799870952907, 30.2548607799556, 0.0 ], [ 120.387512435748704, 30.262731032820689, 0.0 ], [ 120.448601694894904, 30.28460572016413, 0.0 ], [ 120.5026938135629, 30.330615529438429, 0.0 ], [ 120.575579636142706, 30.372049676437019, 0.0 ], [ 120.690403947127606, 30.37458362120044, 0.0 ], [ 120.741433580206206, 30.356938851627309, 0.0 ], [ 120.780614153945095, 30.33418936898082, 0.0 ], [ 120.829772172743105, 30.336759633658311, 0.0 ], [ 120.879638516178503, 30.36073661421274, 0.0 ], [ 120.926946105047406, 30.36832563166459, 0.0 ], [ 120.920406306809596, 30.395238472526071, 0.0 ], [ 120.939449519443997, 30.396724371438282, 0.0 ], [ 120.965581493360006, 30.44159030902842, 0.0 ], [ 121.049086236757205, 30.492720642486489, 0.0 ], [ 121.292105660110707, 30.59661756397902, 0.0 ], [ 121.526685860072106, 30.75619468910919, 0.0 ], [ 121.596301713571194, 30.903809829043791, 0.0 ], [ 121.604579987944504, 31.05943388241662, 0.0 ], [ 121.549302913386001, 31.19712477550318, 0.0 ], [ 121.403576312742501, 31.247819410063649, 0.0 ], [ 121.484466426991304, 31.278535198542659, 0.0 ], [ 121.4891803655335, 31.331917079666422, 0.0 ], [ 121.341556552463501, 31.47624858013786, 0.0 ], [ 121.189850570853807, 31.650478932310211, 0.0 ], [ 121.029607519286301, 31.74398459603772, 0.0 ], [ 120.916806728962001, 31.747691101512249, 0.0 ], [ 120.816288334778093, 31.789616482424812, 0.0 ], [ 120.714109743126997, 31.840668886867931, 0.0 ], [ 120.536015101434799, 31.89022470251837, 0.0 ], [ 120.459050086588107, 31.942562961894119, 0.0 ], [ 120.373275454080797, 31.957312895214901, 0.0 ], [ 120.219366579047403, 31.913040014352799, 0.0 ], [ 120.098551351136507, 31.9462767952711, 0.0 ], [ 120.021195663576904, 31.94131850386054, 0.0 ], [ 119.998735889108801, 31.991573710430341, 0.0 ], [ 119.897005165105995, 32.067675157582173, 0.0 ], [ 119.798331313309205, 32.112492183897167, 0.0 ], [ 119.822938619061802, 32.198326260013623, 0.0 ], [ 119.716461718393006, 32.240123496723818, 0.0 ], [ 119.630549781822097, 32.263056881083067, 0.0 ], [ 119.437449926622705, 32.264838989514388, 0.0 ], [ 119.141015889575598, 32.217269362964871, 0.0 ], [ 118.8250114627687, 32.177188795795722, 0.0 ], [ 118.7135026025488, 32.039070245110871, 0.0 ], [ 118.566573679741396, 31.897788647849051, 0.0 ], [ 118.482518059768793, 31.735438097162771, 0.0 ], [ 118.519310519035599, 31.705394565882401, 0.0 ], [ 118.584529468941099, 31.699606193312679, 0.0 ], [ 118.639332339995903, 31.69981898623135, 0.0 ], [ 118.658327441599994, 31.651801826305629, 0.0 ] ] ] } }
]
}
