{
"type": "FeatureCollection",
"name": "八府一州",
"features": [
{ "type": "Feature", "id": "09C5E948D7419B7B2341", "properties": { "name": "八府一州", "styleUrl": "#__managed_style_0A4AD8E818419B7B236C" }, "geometry": { "type": "Polygon", "coordinates": [ [ [ 119.048097508331693, 32.501131903230338, 0.0 ], [ 119.015260633758899, 32.509015735228232, 0.0 ], [ 118.983204330899099, 32.519855119762163, 0.0 ], [ 118.959345306119104, 32.54353966017009, 0.0 ], [ 118.930775415795296, 32.566230582222992, 0.0 ], [ 118.894937042557899, 32.581505129161897, 0.0 ], [ 118.856002556272102, 32.585174609167169, 0.0 ], [ 118.812562496639003, 32.589764307374558, 0.0 ], [ 118.796651740356793, 32.590852844319677, 0.0 ], [ 118.778862646183597, 32.598500291299992, 0.0 ], [ 118.757796696681496, 32.607676263102718, 0.0 ], [ 118.744358562657794, 32.610426819894123, 0.0 ], [ 118.732742406247795, 32.608892506987672, 0.0 ], [ 118.717150717904801, 32.599092201176887, 0.0 ], [ 118.705191104929995, 32.590210717743297, 0.0 ], [ 118.681608449905298, 32.584072158539762, 0.0 ], [ 118.656550413462796, 32.584965095611061, 0.0 ], [ 118.624590958725506, 32.591033016588497, 0.0 ], [ 118.597833692200396, 32.591849831182579, 0.0 ], [ 118.580154768051102, 32.58688633767607, 0.0 ], [ 118.565650721766602, 32.582161942890217, 0.0 ], [ 118.560586656679007, 32.576482349404039, 0.0 ], [ 118.561412389052506, 32.569958532343954, 0.0 ], [ 118.566908463830302, 32.562927687730188, 0.0 ], [ 118.580943715775504, 32.552298763766203, 0.0 ], [ 118.592350860511502, 32.535989532920453, 0.0 ], [ 118.601684543016901, 32.524990568656818, 0.0 ], [ 118.606373546219302, 32.501774281231093, 0.0 ], [ 118.608818954962103, 32.488353532676193, 0.0 ], [ 118.613098586716703, 32.471828638214021, 0.0 ], [ 118.616563214395995, 32.465973119470057, 0.0 ], [ 118.627774236720597, 32.465794340225671, 0.0 ], [ 118.641422260003196, 32.470736669996761, 0.0 ], [ 118.658155873497407, 32.47411544547186, 0.0 ], [ 118.677348723719604, 32.471248852283971, 0.0 ], [ 118.687539474643998, 32.464571204279117, 0.0 ], [ 118.690784211893998, 32.451362373900743, 0.0 ], [ 118.692188608618807, 32.434905092092428, 0.0 ], [ 118.698595660328394, 32.408057573596999, 0.0 ], [ 118.696221147988794, 32.384148424823849, 0.0 ], [ 118.699090751437893, 32.361466382337973, 0.0 ], [ 118.697187174811404, 32.355831738147693, 0.0 ], [ 118.694012905907002, 32.352075643648668, 0.0 ], [ 118.691963891669602, 32.345513776345499, 0.0 ], [ 118.694492724645599, 32.335038792451023, 0.0 ], [ 118.696242282371699, 32.326456804081218, 0.0 ], [ 118.694974144689397, 32.321629632364647, 0.0 ], [ 118.6894208193183, 32.31720405926977, 0.0 ], [ 118.6822781299486, 32.317738254384942, 0.0 ], [ 118.676406699439596, 32.315993403113502, 0.0 ], [ 118.672600610638696, 32.312238298919411, 0.0 ], [ 118.670858623303403, 32.307948015623182, 0.0 ], [ 118.671656669840502, 32.302720978873431, 0.0 ], [ 118.6742008169429, 32.295752391166303, 0.0 ], [ 118.674202451977294, 32.293473853514513, 0.0 ], [ 118.671988512407694, 32.284091472897593, 0.0 ], [ 118.669613693490803, 32.278462137582558, 0.0 ], [ 118.667126768005005, 32.272519527732221, 0.0 ], [ 118.667946190672694, 32.264560210835221, 0.0 ], [ 118.670255180265997, 32.255349012397453, 0.0 ], [ 118.672529903834203, 32.247263891366273, 0.0 ], [ 118.675588784041395, 32.240009887806941, 0.0 ], [ 118.677378439839003, 32.230824557307777, 0.0 ], [ 118.677221977873003, 32.223011429724473, 0.0 ], [ 118.672203587474101, 32.217391026186377, 0.0 ], [ 118.660700203394597, 32.217524131090983, 0.0 ], [ 118.653572103091193, 32.216835946689422, 0.0 ], [ 118.6470957016043, 32.213269762217479, 0.0 ], [ 118.639974085129793, 32.207921537084069, 0.0 ], [ 118.635280669702794, 32.204493012580237, 0.0 ], [ 118.629938234468597, 32.202023103939823, 0.0 ], [ 118.6135782606882, 32.200092279227903, 0.0 ], [ 118.601752177269802, 32.198711242451083, 0.0 ], [ 118.594789510947095, 32.195734876489922, 0.0 ], [ 118.585671860477902, 32.192979631785263, 0.0 ], [ 118.573135971380907, 32.192565646915327, 0.0 ], [ 118.561088346105294, 32.192563833232207, 0.0 ], [ 118.546758892175205, 32.194351267089253, 0.0 ], [ 118.530797196435302, 32.197652299607583, 0.0 ], [ 118.517765195825902, 32.199850903696102, 0.0 ], [ 118.506521133654005, 32.20232528766217, 0.0 ], [ 118.493649361430002, 32.203006083961803, 0.0 ], [ 118.489744594458898, 32.200522407770343, 0.0 ], [ 118.488941664662704, 32.195284823077721, 0.0 ], [ 118.491557616364403, 32.190877271487317, 0.0 ], [ 118.493876180480498, 32.186610151530033, 0.0 ], [ 118.499767126207203, 32.180006726438073, 0.0 ], [ 118.503666267517502, 32.175738352570818, 0.0 ], [ 118.509183623039107, 32.167632972505487, 0.0 ], [ 118.510976785267601, 32.163501109103407, 0.0 ], [ 118.514728504338095, 32.150001631542679, 0.0 ], [ 118.514730509908006, 32.146557058854121, 0.0 ], [ 118.513107634847202, 32.138701926328913, 0.0 ], [ 118.501563959663599, 32.120915131436647, 0.0 ], [ 118.481456673418194, 32.106040647194909, 0.0 ], [ 118.458117046010898, 32.092590016384563, 0.0 ], [ 118.440594204706898, 32.083719111074281, 0.0 ], [ 118.423308805309802, 32.07936857664675, 0.0 ], [ 118.415862291783398, 32.074401118150412, 0.0 ], [ 118.400809201645302, 32.061486090163299, 0.0 ], [ 118.397437194992094, 32.052359203024757, 0.0 ], [ 118.396798828942394, 32.021578034460141, 0.0 ], [ 118.393094210932503, 31.994486182390681, 0.0 ], [ 118.393123546751696, 31.989354831473712, 0.0 ], [ 118.384481483803796, 31.974702909750491, 0.0 ], [ 118.373313182629801, 31.944229785669851, 0.0 ], [ 118.374024873783497, 31.92978895793064, 0.0 ], [ 118.3777605742373, 31.923066865375791, 0.0 ], [ 118.409496168761194, 31.911869886418629, 0.0 ], [ 118.4194484581474, 31.900217061987469, 0.0 ], [ 118.433157161928605, 31.89102653351457, 0.0 ], [ 118.440194640111002, 31.890870130251859, 0.0 ], [ 118.456555013169805, 31.886038192852169, 0.0 ], [ 118.468733344315595, 31.876038223963551, 0.0 ], [ 118.477434091964497, 31.858941925791179, 0.0 ], [ 118.483957152407498, 31.85264501059428, 0.0 ], [ 118.504094338210393, 31.843614997638969, 0.0 ], [ 118.507894078575802, 31.837804641751021, 0.0 ], [ 118.511143972769403, 31.795356269394041, 0.0 ], [ 118.522041850707296, 31.7709886450622, 0.0 ], [ 118.534435074463104, 31.754899928044559, 0.0 ], [ 118.538402814681405, 31.74014470198286, 0.0 ], [ 118.543885999937999, 31.726268992635202, 0.0 ], [ 118.549677035613001, 31.724037480119279, 0.0 ], [ 118.578175244027605, 31.735499712677601, 0.0 ], [ 118.598885775545497, 31.74779515704375, 0.0 ], [ 118.614398520361704, 31.75070911945247, 0.0 ], [ 118.627283903028001, 31.74914859854006, 0.0 ], [ 118.637285521302999, 31.744461098152762, 0.0 ], [ 118.650165392756705, 31.72456566946753, 0.0 ], [ 118.657791083431405, 31.707376304163031, 0.0 ], [ 118.663309916716202, 31.686981943573102, 0.0 ], [ 118.661733932073304, 31.6571556108787, 0.0 ], [ 118.666721527508301, 31.649638802700071, 0.0 ], [ 118.675652716106896, 31.643821403656169, 0.0 ], [ 118.708748558257497, 31.62948885221282, 0.0 ], [ 118.719515590994504, 31.618739286298791, 0.0 ], [ 118.732648528485896, 31.6167167606791, 0.0 ], [ 118.738428680687804, 31.620294598530641, 0.0 ], [ 118.754380738907599, 31.647468041002391, 0.0 ], [ 118.762664891841098, 31.664093311242201, 0.0 ], [ 118.770563171926895, 31.669898829148359, 0.0 ], [ 118.782844416990201, 31.668153391652421, 0.0 ], [ 118.785705341994998, 31.65563984011164, 0.0 ], [ 118.788477857517705, 31.639854874158761, 0.0 ], [ 118.789274268138797, 31.61999953422351, 0.0 ], [ 118.797321868437805, 31.617219389196439, 0.0 ], [ 118.808607415922793, 31.618013994916929, 0.0 ], [ 118.821630865136697, 31.62475274908487, 0.0 ], [ 118.8348433173025, 31.634491977248921, 0.0 ], [ 118.850712666498893, 31.633935035341111, 0.0 ], [ 118.873614637718902, 31.615256369963401, 0.0 ], [ 118.879820335425293, 31.603062188795452, 0.0 ], [ 118.880300409032202, 31.577847935993258, 0.0 ], [ 118.872676803762701, 31.55670117981272, 0.0 ], [ 118.876500740615697, 31.546944821613629, 0.0 ], [ 118.887003760440606, 31.53556482996887, 0.0 ], [ 118.870831669098195, 31.466467038110309, 0.0 ], [ 118.844661635883398, 31.413201479667141, 0.0 ], [ 118.810385819758196, 31.39162177702574, 0.0 ], [ 118.769898868437593, 31.385460199722651, 0.0 ], [ 118.752290808558101, 31.373637524522451, 0.0 ], [ 118.7101172060012, 31.329318101650951, 0.0 ], [ 118.716271595421901, 31.308488962670669, 0.0 ], [ 118.759772989168397, 31.278588828039069, 0.0 ], [ 118.804051946314004, 31.237000911519861, 0.0 ], [ 118.833761550165704, 31.230531309810189, 0.0 ], [ 118.909887090377794, 31.238975459661411, 0.0 ], [ 119.047656745255296, 31.24286219730741, 0.0 ], [ 119.1063568264738, 31.25250480881741, 0.0 ], [ 119.145371344167899, 31.275175467667001, 0.0 ], [ 119.166777252915495, 31.295972971445181, 0.0 ], [ 119.185871979176895, 31.293033504892961, 0.0 ], [ 119.200663678389901, 31.283878893510369, 0.0 ], [ 119.225503204670204, 31.270984277178108, 0.0 ], [ 119.270985128994695, 31.26041478381946, 0.0 ], [ 119.309575975280197, 31.26435380308045, 0.0 ], [ 119.345170772293201, 31.27721618810925, 0.0 ], [ 119.363464614633401, 31.295098541006261, 0.0 ], [ 119.372293947660594, 31.296485850349729, 0.0 ], [ 119.378504989976904, 31.284472052327828, 0.0 ], [ 119.386997052166507, 31.261024312740322, 0.0 ], [ 119.387319457253994, 31.209395259513041, 0.0 ], [ 119.400676531955497, 31.197745867024551, 0.0 ], [ 119.421187063263403, 31.18941515809891, 0.0 ], [ 119.447252510211499, 31.182981221909611, 0.0 ], [ 119.471895204446, 31.16663419968015, 0.0 ], [ 119.486137656471698, 31.159173463369829, 0.0 ], [ 119.499148668834593, 31.159156329466121, 0.0 ], [ 119.546725703283002, 31.15789494294178, 0.0 ], [ 119.584424250108498, 31.13255074985241, 0.0 ], [ 119.643271942287797, 31.130408566241531, 0.0 ], [ 119.641907495596996, 31.094363808230739, 0.0 ], [ 119.635215966874, 31.06008897111326, 0.0 ], [ 119.6340121225888, 31.031200130108271, 0.0 ], [ 119.627354139719699, 31.006341512312101, 0.0 ], [ 119.603243582827702, 30.980407006236248, 0.0 ], [ 119.570076864552902, 30.907501869133299, 0.0 ], [ 119.560431620149103, 30.875359769939081, 0.0 ], [ 119.563601177459702, 30.808672076115371, 0.0 ], [ 119.553945463913095, 30.790942754588201, 0.0 ], [ 119.532966075825598, 30.781683117257959, 0.0 ], [ 119.513137697666295, 30.77732449765378, 0.0 ], [ 119.496807666738206, 30.758917912280779, 0.0 ], [ 119.489046521470698, 30.734511577716049, 0.0 ], [ 119.490039825539, 30.689312198701518, 0.0 ], [ 119.489760889789395, 30.659726122330749, 0.0 ], [ 119.472312022340603, 30.646911940545031, 0.0 ], [ 119.425967656509698, 30.64356005171825, 0.0 ], [ 119.390688925252405, 30.645710171638431, 0.0 ], [ 119.347503328894405, 30.638886271442701, 0.0 ], [ 119.300120948544006, 30.61765774214452, 0.0 ], [ 119.255821258223804, 30.57538186982217, 0.0 ], [ 119.244082938901101, 30.537106753975639, 0.0 ], [ 119.255205206535095, 30.51782704999896, 0.0 ], [ 119.277022054307096, 30.511681713988899, 0.0 ], [ 119.301212633228602, 30.522298422755679, 0.0 ], [ 119.331496232196898, 30.52090395809185, 0.0 ], [ 119.339086793489201, 30.507367681972759, 0.0 ], [ 119.341889255317298, 30.477099204672339, 0.0 ], [ 119.346521630398598, 30.449181552923719, 0.0 ], [ 119.362805348532902, 30.42540675127476, 0.0 ], [ 119.392394226301604, 30.401900162888701, 0.0 ], [ 119.414550961178307, 30.389508836049711, 0.0 ], [ 119.412791169530905, 30.378003433805532, 0.0 ], [ 119.387996815258802, 30.367212517804099, 0.0 ], [ 119.354389213531704, 30.362102407281899, 0.0 ], [ 119.328665299702905, 30.372389643581698, 0.0 ], [ 119.288510291611004, 30.353044960711539, 0.0 ], [ 119.258072845692297, 30.32582600142889, 0.0 ], [ 119.247809295549203, 30.31084842730931, 0.0 ], [ 119.172843947072806, 30.313656629475329, 0.0 ], [ 119.096906305397596, 30.31918170109325, 0.0 ], [ 119.036720152129902, 30.323067540752461, 0.0 ], [ 118.972425355095297, 30.34160056075676, 0.0 ], [ 118.914784655100505, 30.33392373936325, 0.0 ], [ 118.885303434313599, 30.317420903127839, 0.0 ], [ 118.894280052010203, 30.280139820520539, 0.0 ], [ 118.899741372150999, 30.23519592376033, 0.0 ], [ 118.920147271436093, 30.219614753290109, 0.0 ], [ 118.9220535199957, 30.208538628553409, 0.0 ], [ 118.902015680684599, 30.197350759703529, 0.0 ], [ 118.875966077596402, 30.188378577771111, 0.0 ], [ 118.866431830439694, 30.175478591357251, 0.0 ], [ 118.8669365325527, 30.161866550710929, 0.0 ], [ 118.883243556406896, 30.15865963721237, 0.0 ], [ 118.897880734715102, 30.153953205754309, 0.0 ], [ 118.894402652999304, 30.14279817618436, 0.0 ], [ 118.890595187035601, 30.132097543127429, 0.0 ], [ 118.883116328222897, 30.124432636368169, 0.0 ], [ 118.877159394094605, 30.112896047513878, 0.0 ], [ 118.877671950288899, 30.101448605357941, 0.0 ], [ 118.8921820953219, 30.07355290394462, 0.0 ], [ 118.897569811388394, 30.061584799501901, 0.0 ], [ 118.895761108631604, 30.041545410738991, 0.0 ], [ 118.896833762087894, 30.03376411340528, 0.0 ], [ 118.899716251015604, 30.019932548872259, 0.0 ], [ 118.924039820176802, 30.02036487230578, 0.0 ], [ 118.951004920085893, 30.02286016305931, 0.0 ], [ 118.981243915420905, 30.024652655128659, 0.0 ], [ 119.013189702706896, 30.02637930742852, 0.0 ], [ 119.041618954577203, 30.029694321924101, 0.0 ], [ 119.071532552291103, 30.027720708020539, 0.0 ], [ 119.089851844690997, 30.025394741969219, 0.0 ], [ 119.110561741000893, 30.01781172322633, 0.0 ], [ 119.130724650923298, 30.006285415154831, 0.0 ], [ 119.138176659212704, 30.001035549459178, 0.0 ], [ 119.162291695444196, 29.9766074024161, 0.0 ], [ 119.176280372471993, 29.958337296117641, 0.0 ], [ 119.197897270408603, 29.948933612698831, 0.0 ], [ 119.222235357372895, 29.94620464307453, 0.0 ], [ 119.240999655979806, 29.950904073766399, 0.0 ], [ 119.259649592395604, 29.971842846712541, 0.0 ], [ 119.277338905422994, 29.99311301730603, 0.0 ], [ 119.286627499589699, 30.002027462137221, 0.0 ], [ 119.305073516882103, 30.004124687546451, 0.0 ], [ 119.345932008385304, 29.990187374854511, 0.0 ], [ 119.379307575509003, 29.980281306827489, 0.0 ], [ 119.417937127178604, 29.975568163913191, 0.0 ], [ 119.439103510944193, 29.97807678012202, 0.0 ], [ 119.450549328659804, 29.986998695512291, 0.0 ], [ 119.458673900289995, 29.985644123261888, 0.0 ], [ 119.475854139104499, 29.987110482473931, 0.0 ], [ 119.503378473174394, 29.993641606613391, 0.0 ], [ 119.530953459116205, 30.001628494581372, 0.0 ], [ 119.5527289524411, 30.017444536082849, 0.0 ], [ 119.565964776330404, 30.025585231870899, 0.0 ], [ 119.588423800236697, 30.029675169536141, 0.0 ], [ 119.607311720902501, 30.02689608892652, 0.0 ], [ 119.631933975933293, 30.00344760145347, 0.0 ], [ 119.6765561488656, 29.97535538261279, 0.0 ], [ 119.707394502713299, 29.935653011859841, 0.0 ], [ 119.735048822069402, 29.89978505945815, 0.0 ], [ 119.773481106938405, 29.87812148725169, 0.0 ], [ 119.827161242626602, 29.8537067120388, 0.0 ], [ 119.872217198345993, 29.817511816853521, 0.0 ], [ 119.893165292064594, 29.789683411850071, 0.0 ], [ 119.918390064430994, 29.783694476240509, 0.0 ], [ 119.965231414215907, 29.77965513687391, 0.0 ], [ 120.014568217898997, 29.78070945260168, 0.0 ], [ 120.044363807896104, 29.78229742738106, 0.0 ], [ 120.049284509232393, 29.790004233122129, 0.0 ], [ 120.047169754233906, 29.812382919671489, 0.0 ], [ 120.050487348581598, 29.843019432783731, 0.0 ], [ 120.055198833810607, 29.88011623836567, 0.0 ], [ 120.066927072385596, 29.912917227828761, 0.0 ], [ 120.095482988241699, 29.953567692546351, 0.0 ], [ 120.130943200310796, 30.00943774579483, 0.0 ], [ 120.157049313783702, 30.058495758492949, 0.0 ], [ 120.173238023128604, 30.089580626414911, 0.0 ], [ 120.179403019327296, 30.110322195913181, 0.0 ], [ 120.179081134070898, 30.116160687875031, 0.0 ], [ 120.177247879003801, 30.12119468337232, 0.0 ], [ 120.171218621283202, 30.127669532805811, 0.0 ], [ 120.150593788756893, 30.141987504721321, 0.0 ], [ 120.131881690653998, 30.149286733140801, 0.0 ], [ 120.118960253209593, 30.154327876513449, 0.0 ], [ 120.1155875101352, 30.16224069748419, 0.0 ], [ 120.116052345169805, 30.17073464502413, 0.0 ], [ 120.116248907316603, 30.177153345527131, 0.0 ], [ 120.122120995217699, 30.185659180338011, 0.0 ], [ 120.137235171352899, 30.191866057759899, 0.0 ], [ 120.158924859799598, 30.198843917346949, 0.0 ], [ 120.175111228922205, 30.2053072263781, 0.0 ], [ 120.204812598403706, 30.22036605525938, 0.0 ], [ 120.220816501113603, 30.237410343796011, 0.0 ], [ 120.227729893231299, 30.246915567401999, 0.0 ], [ 120.245959252891694, 30.267010825047748, 0.0 ], [ 120.257567708658797, 30.277192329423279, 0.0 ], [ 120.274804597361594, 30.284706062613811, 0.0 ], [ 120.286532280457394, 30.288346125651479, 0.0 ], [ 120.297722659584807, 30.286734308001421, 0.0 ], [ 120.313745348793901, 30.280245039673989, 0.0 ], [ 120.326933857588998, 30.269766725086491, 0.0 ], [ 120.344346172014099, 30.25598507417142, 0.0 ], [ 120.354612685202099, 30.250737801452381, 0.0 ], [ 120.365544350735604, 30.251871576229291, 0.0 ], [ 120.378943630899997, 30.262608119743209, 0.0 ], [ 120.393272590723697, 30.279337000694529, 0.0 ], [ 120.408034695747304, 30.305563148417981, 0.0 ], [ 120.421927494663606, 30.342050391482282, 0.0 ], [ 120.439398620880397, 30.374544823276839, 0.0 ], [ 120.451273092824195, 30.385262347087551, 0.0 ], [ 120.467657574060695, 30.390016487157641, 0.0 ], [ 120.524218528500498, 30.394766631433491, 0.0 ], [ 120.569443207970707, 30.396148030343259, 0.0 ], [ 120.615001234036797, 30.394512130064061, 0.0 ], [ 120.651993788816199, 30.385442689127661, 0.0 ], [ 120.690807810008593, 30.37011525373206, 0.0 ], [ 120.728073034172297, 30.330365978676589, 0.0 ], [ 120.763247162881896, 30.305387281621929, 0.0 ], [ 120.794999265585105, 30.291657202595481, 0.0 ], [ 120.840125088404207, 30.312154561772061, 0.0 ], [ 120.875630060728099, 30.33925431669201, 0.0 ], [ 120.902024023551505, 30.36901246243881, 0.0 ], [ 120.914308390465905, 30.370579627033159, 0.0 ], [ 120.923565667652596, 30.38424463325947, 0.0 ], [ 120.912156470761303, 30.400814595724089, 0.0 ], [ 120.922018566525296, 30.413483403461711, 0.0 ], [ 120.944008031271593, 30.412649886663232, 0.0 ], [ 120.953554105342107, 30.424532860252281, 0.0 ], [ 120.961816376994605, 30.42912798333349, 0.0 ], [ 120.964504465906103, 30.433570612191328, 0.0 ], [ 120.945957303169607, 30.447081041335, 0.0 ], [ 120.938880541377998, 30.478331029106801, 0.0 ], [ 120.951960304833307, 30.506567817606069, 0.0 ], [ 120.975452200086295, 30.52693478634739, 0.0 ], [ 121.008435298135694, 30.554504162403269, 0.0 ], [ 121.049677577500603, 30.574965980047971, 0.0 ], [ 121.092544547799903, 30.59044510474941, 0.0 ], [ 121.108207280089303, 30.58906537801586, 0.0 ], [ 121.132110465507395, 30.59392412330239, 0.0 ], [ 121.148453992849994, 30.601341980334599, 0.0 ], [ 121.163828192227498, 30.633926040932291, 0.0 ], [ 121.237402009534605, 30.66547643902976, 0.0 ], [ 121.285148519322604, 30.692554118194369, 0.0 ], [ 121.341880482979803, 30.697896330165921, 0.0 ], [ 121.417632556964804, 30.75881161325621, 0.0 ], [ 121.516289992590799, 30.799157758968189, 0.0 ], [ 121.640737886819693, 30.835151589157089, 0.0 ], [ 121.703842378048805, 30.845494837482519, 0.0 ], [ 121.766079274104399, 30.846386426235188, 0.0 ], [ 121.833666884539397, 30.841337390111391, 0.0 ], [ 121.855630290483404, 30.848205594615131, 0.0 ], [ 121.890586380462494, 30.846693555959309, 0.0 ], [ 121.964435850810105, 30.874957680736411, 0.0 ], [ 121.979034523961204, 30.88296359278856, 0.0 ], [ 121.978600894845201, 30.92236072654504, 0.0 ], [ 121.946748240363604, 30.991766629023861, 0.0 ], [ 121.910798135427797, 31.05437466631259, 0.0 ], [ 121.916437498909417, 31.092267417577816, 0.0 ], [ 121.926797262198036, 31.106394367516838, 0.0 ], [ 121.940924212137048, 31.114870537480254, 0.0 ], [ 121.959760145389083, 31.131822877407082, 0.0 ], [ 121.990839435254898, 31.154425997309513, 0.0 ], [ 122.006849978519128, 31.159370429788172, 0.0 ], [ 122.091611678153257, 31.267206147656047, 0.0 ], [ 122.110447611405277, 31.304878014160106, 0.0 ], [ 121.988014045267079, 31.515840466582855, 0.0 ], [ 121.878765632405305, 31.62885606609504, 0.0 ], [ 121.784585966145144, 31.651459185997478, 0.0 ], [ 121.569856327071989, 31.713617765729182, 0.0 ], [ 121.411634487754924, 31.785194312086897, 0.0 ], [ 121.377729807901275, 31.839818518517788, 0.0 ], [ 121.287317328291522, 31.862421638420226, 0.0 ], [ 121.210090001958193, 31.826633365241367, 0.0 ], [ 121.166767355478555, 31.792022337890764, 0.0 ], [ 121.105654340415398, 31.7244455217328, 0.0 ], [ 120.886489738836602, 31.860816302777021, 0.0 ], [ 120.8455390344932, 31.932093465249419, 0.0 ], [ 120.781768108899996, 31.994240333162359, 0.0 ], [ 120.691195161878596, 32.001092595742747, 0.0 ], [ 120.645220032742898, 32.003913916818703, 0.0 ], [ 120.617419021141401, 32.010707346657718, 0.0 ], [ 120.583576779940898, 32.030251633566898, 0.0 ], [ 120.558326657720599, 32.049883882191459, 0.0 ], [ 120.493789037753302, 32.087741737943503, 0.0 ], [ 120.434167185088299, 32.109956741170222, 0.0 ], [ 120.334102362707398, 32.120155015768191, 0.0 ], [ 120.2539925996346, 32.093262930240833, 0.0 ], [ 120.149452072483001, 32.07935581261404, 0.0 ], [ 120.090088777836002, 32.062948630207657, 0.0 ], [ 120.056903197058105, 32.029391181833837, 0.0 ], [ 120.050923803728395, 31.992029220215411, 0.0 ], [ 120.031774295138305, 31.979774944855841, 0.0 ], [ 120.007040876320602, 31.98161082926919, 0.0 ], [ 119.984766769101498, 31.99177182054062, 0.0 ], [ 119.973572001146593, 32.007146144005532, 0.0 ], [ 119.948860099501204, 32.036781711633587, 0.0 ], [ 119.912237450424698, 32.13591320459328, 0.0 ], [ 119.882250255871995, 32.238454079710117, 0.0 ], [ 119.864446790941997, 32.276930005884509, 0.0 ], [ 119.821872344830297, 32.310516369659048, 0.0 ], [ 119.794719251786603, 32.320728051173177, 0.0 ], [ 119.767018740499907, 32.322051248721657, 0.0 ], [ 119.746949468495899, 32.317437310755551, 0.0 ], [ 119.730829753069301, 32.306968153472198, 0.0 ], [ 119.716819139198506, 32.295946234565918, 0.0 ], [ 119.708139143824795, 32.282060558605757, 0.0 ], [ 119.698571222764997, 32.268486139004672, 0.0 ], [ 119.692799506282199, 32.254113520562143, 0.0 ], [ 119.679800795891097, 32.222724438923848, 0.0 ], [ 119.668951178738794, 32.210345497521367, 0.0 ], [ 119.6517721863964, 32.198384734647803, 0.0 ], [ 119.634874605425793, 32.193271204165399, 0.0 ], [ 119.606657049512094, 32.186292331799308, 0.0 ], [ 119.587649160612898, 32.185514699141081, 0.0 ], [ 119.572724914593095, 32.188170775871399, 0.0 ], [ 119.559422184518098, 32.192830992147393, 0.0 ], [ 119.553613032024401, 32.198534579669769, 0.0 ], [ 119.551787807084906, 32.209842405484963, 0.0 ], [ 119.551138204679603, 32.219798833509671, 0.0 ], [ 119.551297707908802, 32.22677928796378, 0.0 ], [ 119.548600951547797, 32.233370538164408, 0.0 ], [ 119.541983489351495, 32.239562796850628, 0.0 ], [ 119.533644680280702, 32.244035570921923, 0.0 ], [ 119.522843840343498, 32.250656887556268, 0.0 ], [ 119.510701760682394, 32.254456863903961, 0.0 ], [ 119.498398531383202, 32.251492343218352, 0.0 ], [ 119.483134020525895, 32.243600160515157, 0.0 ], [ 119.454234111840194, 32.22576274152231, 0.0 ], [ 119.442274842446906, 32.220677008480983, 0.0 ], [ 119.425538849665301, 32.219112951125886, 0.0 ], [ 119.408918954300603, 32.22416771214499, 0.0 ], [ 119.394440881821694, 32.22439137905868, 0.0 ], [ 119.383260362959604, 32.220598610605293, 0.0 ], [ 119.368503685525397, 32.215008304732287, 0.0 ], [ 119.333335630022603, 32.204121934193672, 0.0 ], [ 119.304000587253896, 32.198594497321608, 0.0 ], [ 119.2802833223638, 32.199616290578227, 0.0 ], [ 119.232295470856897, 32.211863516859211, 0.0 ], [ 119.229495178079901, 32.21949977585178, 0.0 ], [ 119.211841884116794, 32.23434561915974, 0.0 ], [ 119.188664816631004, 32.243093165213423, 0.0 ], [ 119.152023789186202, 32.245377523132859, 0.0 ], [ 119.118195939378197, 32.24621089818077, 0.0 ], [ 119.083071750679196, 32.245511204971557, 0.0 ], [ 119.014681785355194, 32.270174168132201, 0.0 ], [ 119.001213175886605, 32.282074328650459, 0.0 ], [ 119.015372186726793, 32.303368955922167, 0.0 ], [ 119.017453870321305, 32.321630232749698, 0.0 ], [ 119.004754537467406, 32.33778885107489, 0.0 ], [ 119.008821904316505, 32.3532126137791, 0.0 ], [ 119.022985850987496, 32.375344294384611, 0.0 ], [ 119.024648521516298, 32.39271303053539, 0.0 ], [ 119.014562913975894, 32.421142180423047, 0.0 ], [ 119.003562634514907, 32.4416569655709, 0.0 ], [ 119.011196306060995, 32.467623842816607, 0.0 ], [ 119.036171536728801, 32.48453439050342, 0.0 ], [ 119.048097508331693, 32.501131903230338, 0.0 ] ] ] } },
{ "type": "Feature", "id": "011A21EB1C419B8420DB", "properties": { "name": "江宁府-镇江府", "styleUrl": "#__managed_style_0A4AD8E818419B7B236C" }, "geometry": { "type": "LineString", "coordinates": [ [ 119.199395250154097, 31.284187555351291, 0.0 ], [ 119.207722555569205, 31.326724338566201, 0.0 ], [ 119.192609343272906, 31.341578756790181, 0.0 ], [ 119.166250186433899, 31.361889346271472, 0.0 ], [ 119.143524592203306, 31.38580686089815, 0.0 ], [ 119.129989616753804, 31.414424880278901, 0.0 ], [ 119.138204732978707, 31.441557391107221, 0.0 ], [ 119.148888833509005, 31.46564738919443, 0.0 ], [ 119.173771315032894, 31.487800946907061, 0.0 ], [ 119.175708172773994, 31.509819970028499, 0.0 ], [ 119.1777978150227, 31.52442141324897, 0.0 ], [ 119.199034780815296, 31.55688955653946, 0.0 ], [ 119.196248536384502, 31.57801382292071, 0.0 ], [ 119.209343156271501, 31.603073261903731, 0.0 ], [ 119.236516322407894, 31.625214070713628, 0.0 ], [ 119.271751148301902, 31.64849434110997, 0.0 ], [ 119.296690024396696, 31.672259297897359, 0.0 ], [ 119.301538281256498, 31.743408951846529, 0.0 ], [ 119.318357626341196, 31.800729937382119, 0.0 ], [ 119.337251759300997, 31.873731876192782, 0.0 ], [ 119.3371572195217, 31.92861991721394, 0.0 ], [ 119.362504848521198, 31.964137870106949, 0.0 ], [ 119.377542931486104, 31.986303027238801, 0.0 ], [ 119.377255780780402, 32.004113686155151, 0.0 ], [ 119.3526052004908, 32.019173395272567, 0.0 ], [ 119.299532874088797, 32.034412439074863, 0.0 ], [ 119.261208554712098, 32.049036842490928, 0.0 ], [ 119.240952651252201, 32.072806609918537, 0.0 ], [ 119.229531988028796, 32.10287007630172, 0.0 ], [ 119.233129589787893, 32.135690936320287, 0.0 ], [ 119.233871414576001, 32.176647989572039, 0.0 ], [ 119.232464758206305, 32.193162955451747, 0.0 ], [ 119.2310997697831, 32.210831542858223, 0.0 ] ] } },
{ "type": "Feature", "id": "0FF850B7AA419B851BB4", "properties": { "name": "镇江府-常州府", "styleUrl": "#__managed_style_0A4AD8E818419B7B236C" }, "geometry": { "type": "LineString", "coordinates": [ [ 119.517024534071297, 31.15828117424385, 0.0 ], [ 119.514885399959695, 31.187058295559041, 0.0 ], [ 119.509513746870397, 31.210633971102471, 0.0 ], [ 119.500718424837899, 31.24461575611215, 0.0 ], [ 119.507268200518297, 31.297865871671871, 0.0 ], [ 119.516113575298405, 31.336347343980979, 0.0 ], [ 119.530845862687997, 31.375547400114701, 0.0 ], [ 119.555236288501305, 31.40608064974052, 0.0 ], [ 119.5827031720262, 31.43256311965995, 0.0 ], [ 119.586825934033101, 31.453067394068778, 0.0 ], [ 119.576971214422798, 31.477726601576531, 0.0 ], [ 119.5754170307344, 31.501683151142831, 0.0 ], [ 119.574944116854596, 31.52625420777736, 0.0 ], [ 119.556047126375105, 31.525942477668661, 0.0 ], [ 119.537791940673003, 31.523707503376421, 0.0 ], [ 119.526185729194495, 31.53317091260363, 0.0 ], [ 119.546511222921097, 31.585166910172781, 0.0 ], [ 119.569269850568205, 31.601764634304139, 0.0 ], [ 119.587114874365099, 31.591294760904489, 0.0 ], [ 119.609225048247296, 31.584839157214301, 0.0 ], [ 119.636290955231502, 31.611342411421369, 0.0 ], [ 119.666650140422703, 31.646509645831539, 0.0 ], [ 119.675876826156696, 31.676677029494691, 0.0 ], [ 119.685284314309499, 31.70057607956447, 0.0 ], [ 119.710580466200895, 31.70533724972919, 0.0 ], [ 119.7285422057315, 31.71176604789634, 0.0 ], [ 119.733081942836094, 31.736918661170961, 0.0 ], [ 119.7420242516244, 31.75939907440895, 0.0 ], [ 119.763405326569995, 31.796176522306961, 0.0 ], [ 119.779959007546495, 31.824168427461601, 0.0 ], [ 119.775472574082997, 31.849909611485749, 0.0 ], [ 119.759132544922906, 31.867209412223279, 0.0 ], [ 119.766731881420995, 31.89985293701243, 0.0 ], [ 119.774905355680303, 31.95366367461677, 0.0 ], [ 119.776433560497196, 31.986806019268489, 0.0 ], [ 119.777518240456502, 32.029654923497937, 0.0 ], [ 119.780644777969101, 32.047651312103739, 0.0 ], [ 119.801867092424104, 32.071951979965448, 0.0 ], [ 119.814955871191003, 32.09598059073209, 0.0 ], [ 119.823584101244293, 32.125931302899147, 0.0 ], [ 119.843932614974307, 32.192751948377577, 0.0 ], [ 119.8519366637546, 32.236995313574042, 0.0 ], [ 119.854640494780298, 32.263685364198217, 0.0 ], [ 119.855555222905807, 32.282993452955893, 0.0 ] ] } },
{ "type": "Feature", "id": "0E663DDD01419B85F420", "properties": { "name": "常州府-苏州府", "styleUrl": "#__managed_style_0A4AD8E818419B7B236C" }, "geometry": { "type": "LineString", "coordinates": [ [ 119.641722460080501, 31.13038611187736, 0.0 ], [ 119.649966007319804, 31.148732326588181, 0.0 ], [ 119.668125566448893, 31.163333811758118, 0.0 ], [ 119.701908516144599, 31.17248408324776, 0.0 ], [ 119.739529425988806, 31.18067741836564, 0.0 ], [ 119.766480759181903, 31.181028624943639, 0.0 ], [ 119.786785739961701, 31.178225297328439, 0.0 ], [ 119.807654238468601, 31.165823963422479, 0.0 ], [ 119.827562936203506, 31.16893950610212, 0.0 ], [ 119.854912339976295, 31.17207032517873, 0.0 ], [ 119.890337132848302, 31.16925721046659, 0.0 ], [ 119.920379731185704, 31.165942594645301, 0.0 ], [ 119.943083276078596, 31.16380541060289, 0.0 ], [ 119.963125624857597, 31.210886010134029, 0.0 ], [ 120.004427698884101, 31.26677687636532, 0.0 ], [ 120.040447847795804, 31.31781993770058, 0.0 ], [ 120.061630612307894, 31.327947474099361, 0.0 ], [ 120.1041163681315, 31.33429577030256, 0.0 ], [ 120.1602334443769, 31.354822862165371, 0.0 ], [ 120.205850928852897, 31.371618371265161, 0.0 ], [ 120.268252695728293, 31.380635832057902, 0.0 ], [ 120.366429732129205, 31.412888324003941, 0.0 ], [ 120.442613404329293, 31.420506878435152, 0.0 ], [ 120.513840106810093, 31.459568989411089, 0.0 ], [ 120.548753401314201, 31.49715982113818, 0.0 ], [ 120.586183985820995, 31.539825770446011, 0.0 ], [ 120.614521948635101, 31.56606596869786, 0.0 ], [ 120.597948552721505, 31.581175209137712, 0.0 ], [ 120.537249174771702, 31.596270841190009, 0.0 ], [ 120.554070887692205, 31.630751691962011, 0.0 ], [ 120.557288447832704, 31.661686821503519, 0.0 ], [ 120.549892193200293, 31.69878402239717, 0.0 ], [ 120.572461043880494, 31.743314833077878, 0.0 ], [ 120.5575218938326, 31.793436468144481, 0.0 ], [ 120.5474065376564, 31.851089886377121, 0.0 ], [ 120.549514110045905, 31.903657158480009, 0.0 ], [ 120.556755608901497, 32.048187973945488, 0.0 ] ] } },
{ "type": "Feature", "id": "075C184924419B872500", "properties": { "name": "湖州府", "styleUrl": "#__managed_style_0A4AD8E818419B7B236C" }, "geometry": { "type": "LineString", "coordinates": [ [ 119.943325476762993, 31.163118121558639, 0.0 ], [ 119.978509999484999, 31.155375750899811, 0.0 ], [ 120.007602649624801, 31.14930183150609, 0.0 ], [ 120.036069492500005, 31.149709214416951, 0.0 ], [ 120.053763165615905, 31.147950529860729, 0.0 ], [ 120.069619690147107, 31.135543938502661, 0.0 ], [ 120.092940358683705, 31.105438877215779, 0.0 ], [ 120.142021676958095, 31.064236808423789, 0.0 ], [ 120.183074991369296, 31.03542804335499, 0.0 ], [ 120.226428105952095, 31.015544886257349, 0.0 ], [ 120.272827731995903, 31.001590943745729, 0.0 ], [ 120.336188873805398, 30.983987146902422, 0.0 ], [ 120.3658220889603, 30.965269917259029, 0.0 ], [ 120.372030018487393, 30.948178664189829, 0.0 ], [ 120.371280001810604, 30.91429710947342, 0.0 ], [ 120.366471492797302, 30.89651280806542, 0.0 ], [ 120.368293372439894, 30.884269668556382, 0.0 ], [ 120.373219293265393, 30.87757523514837, 0.0 ], [ 120.383335024888297, 30.879412530465341, 0.0 ], [ 120.403695768843804, 30.887997608581639, 0.0 ], [ 120.422356696009103, 30.894982183610491, 0.0 ], [ 120.432471081960102, 30.89618133824359, 0.0 ], [ 120.439612003050698, 30.885133853922792, 0.0 ], [ 120.454624688663998, 30.858696062924839, 0.0 ], [ 120.470465199998699, 30.8264627763748, 0.0 ], [ 120.495229365648001, 30.763915234127062, 0.0 ], [ 120.507337461690497, 30.74401398705059, 0.0 ], [ 120.521419969402601, 30.739957487718311, 0.0 ], [ 120.497071509656493, 30.718867218153179, 0.0 ], [ 120.447662751452398, 30.693442491115849, 0.0 ], [ 120.389892891126806, 30.655110702157049, 0.0 ], [ 120.337242049691895, 30.595335162564211, 0.0 ], [ 120.311597334477298, 30.538928243899161, 0.0 ], [ 120.3049945881436, 30.509467798096409, 0.0 ], [ 120.260177918542098, 30.5069490953029, 0.0 ], [ 120.208613259662698, 30.476721800112159, 0.0 ], [ 120.086424399188303, 30.457214830386231, 0.0 ], [ 119.999703864712302, 30.447754751757589, 0.0 ], [ 119.945781396920196, 30.46248718243827, 0.0 ], [ 119.902740006926805, 30.50652862283729, 0.0 ], [ 119.841319824, 30.539107124699189, 0.0 ], [ 119.792101622180297, 30.532988444002111, 0.0 ], [ 119.7098000022946, 30.494754560071019, 0.0 ], [ 119.602725489939601, 30.427862618739059, 0.0 ], [ 119.514361967571304, 30.397018936427891, 0.0 ], [ 119.453760055458901, 30.390102641970191, 0.0 ], [ 119.412834131584304, 30.387814365394441, 0.0 ] ] } },
{ "type": "Feature", "id": "07D9DC4527419B883BEC", "properties": { "name": "苏州府", "styleUrl": "#__managed_style_0A4AD8E818419B7B236C" }, "geometry": { "type": "LineString", "coordinates": [ [ 120.521126072326695, 30.740938942532988, 0.0 ], [ 120.529217878169504, 30.757184920275542, 0.0 ], [ 120.551308941203601, 30.785026827977831, 0.0 ], [ 120.567639306555407, 30.811303802578191, 0.0 ], [ 120.592128073171807, 30.842687905397248, 0.0 ], [ 120.611142838817003, 30.846247166127529, 0.0 ], [ 120.649264987693499, 30.845128027002229, 0.0 ], [ 120.675153389048305, 30.85550688495298, 0.0 ], [ 120.693232200274693, 30.881501487995429, 0.0 ], [ 120.706969735293498, 30.902332501300421, 0.0 ], [ 120.709928030215494, 30.918002937323632, 0.0 ], [ 120.718714940873895, 30.934575869018719, 0.0 ], [ 120.714641786063495, 30.9613230567623, 0.0 ], [ 120.737631851211702, 30.970544934408839, 0.0 ], [ 120.759298826657897, 30.96771731863647, 0.0 ], [ 120.767419134377405, 30.975816722153201, 0.0 ], [ 120.771938800387701, 30.989871723994561, 0.0 ], [ 120.7951172243705, 30.99900842631569, 0.0 ], [ 120.824100996989898, 31.00426679042496, 0.0 ], [ 120.847227109488998, 30.99977379320611, 0.0 ], [ 120.877651341075193, 31.0047485018499, 0.0 ], [ 120.899494568433397, 31.01479238903352, 0.0 ], [ 120.900994647427893, 31.041891983891411, 0.0 ], [ 120.890760955326002, 31.069694615778811, 0.0 ], [ 120.8787011016192, 31.090637341008399, 0.0 ], [ 120.863997089974603, 31.110319428404789, 0.0 ], [ 120.868624613013694, 31.131175803170379, 0.0 ], [ 120.886742837563204, 31.143617034382409, 0.0 ], [ 120.921604661335607, 31.147744954588401, 0.0 ], [ 120.953978193268597, 31.132653650950711, 0.0 ], [ 120.995082561851007, 31.12588771035082, 0.0 ], [ 121.037150644881706, 31.131463136778741, 0.0 ], [ 121.080028780961797, 31.140416284436778, 0.0 ], [ 121.093660111858895, 31.149585237837648, 0.0 ], [ 121.089845427359407, 31.170657914591679, 0.0 ], [ 121.071423357087497, 31.185550098919549, 0.0 ], [ 121.065348706846095, 31.197363593644479, 0.0 ], [ 121.064000721003197, 31.22757857410479, 0.0 ], [ 121.060295501193593, 31.24291071098288, 0.0 ], [ 121.061355172844998, 31.26073243276328, 0.0 ], [ 121.088849488537093, 31.272828886787831, 0.0 ], [ 121.121589657318196, 31.27543696009975, 0.0 ], [ 121.147658770062193, 31.26860754690459, 0.0 ], [ 121.143965716682004, 31.28263296139227, 0.0 ], [ 121.124939896470394, 31.320529631413301, 0.0 ], [ 121.107009294209902, 31.358846195035309, 0.0 ], [ 121.082763892805502, 31.401797539712621, 0.0 ], [ 121.055608308866596, 31.442878334750581, 0.0 ], [ 121.028481033872296, 31.471549749355169, 0.0 ], [ 120.991710425272899, 31.497145765407669, 0.0 ], [ 120.983542939125797, 31.51308294990265, 0.0 ], [ 120.991850216758905, 31.533199733651799, 0.0 ], [ 121.011481208746304, 31.582156108033129, 0.0 ], [ 121.033203426465903, 31.631797913869299, 0.0 ], [ 121.055128170253099, 31.672375108591279, 0.0 ], [ 121.081529652267804, 31.71636656840418, 0.0 ], [ 121.092039950951204, 31.731473420979881, 0.0 ] ] } },
{ "type": "Feature", "id": "0AE6D56E9F419B88F586", "properties": { "name": "太仓州", "styleUrl": "#__managed_style_0A4AD8E818419B7B236C" }, "geometry": { "type": "LineString", "coordinates": [ [ 121.148001251772101, 31.267962496987639, 0.0 ], [ 121.172600069076296, 31.27073918185188, 0.0 ], [ 121.201782979695096, 31.257654391456949, 0.0 ], [ 121.23027720911, 31.2527775189027, 0.0 ], [ 121.263557432781894, 31.254095992886061, 0.0 ], [ 121.288852088462804, 31.231663505672081, 0.0 ], [ 121.320035549921101, 31.22716282932728, 0.0 ], [ 121.355737964274098, 31.237789060525859, 0.0 ], [ 121.377323336040305, 31.219554459560641, 0.0 ], [ 121.3968690900506, 31.219011209034122, 0.0 ], [ 121.429975883100795, 31.22213950629942, 0.0 ], [ 121.438134087376397, 31.233665927410382, 0.0 ], [ 121.448521888820395, 31.251697184470451, 0.0 ], [ 121.468988239436499, 31.26460216228876, 0.0 ], [ 121.486480287042298, 31.271653931373098, 0.0 ], [ 121.501366445353796, 31.28666351811685, 0.0 ], [ 121.510301076498806, 31.29483141854919, 0.0 ], [ 121.534963685636598, 31.294788607600001, 0.0 ], [ 121.543869829453001, 31.298373892399859, 0.0 ], [ 121.552573262522799, 31.3138411503773, 0.0 ], [ 121.558846006258804, 31.327915505489081, 0.0 ], [ 121.586866810022599, 31.336347250591349, 0.0 ], [ 121.611739293996493, 31.336713181107079, 0.0 ], [ 121.634465800118804, 31.339421974034462, 0.0 ], [ 121.6445066328141, 31.338701067266321, 0.0 ], [ 121.651039135710207, 31.340735251294699, 0.0 ] ] } },
{ "type": "Feature", "id": "0973EEBE2A419B89A608", "properties": { "name": "松江府", "styleUrl": "#__managed_style_0A4AD8E818419B7B236C" }, "geometry": { "type": "LineString", "coordinates": [ [ 120.900364252352901, 31.014277641414569, 0.0 ], [ 120.926683510589001, 31.01633872088162, 0.0 ], [ 120.968218985686093, 31.015518877936721, 0.0 ], [ 120.985785854815404, 31.001430091360721, 0.0 ], [ 121.000072987972501, 30.982330807258581, 0.0 ], [ 121.008449111363802, 30.962949774527619, 0.0 ], [ 121.009682252365096, 30.935199382692488, 0.0 ], [ 121.009002429499304, 30.92344324646589, 0.0 ], [ 121.015564727917095, 30.89931013033209, 0.0 ], [ 121.013163299451307, 30.871598188112308, 0.0 ], [ 121.006829401124193, 30.841700994691241, 0.0 ], [ 121.005887936670305, 30.833571867856811, 0.0 ], [ 121.014040862817495, 30.831306784893521, 0.0 ], [ 121.030062118916007, 30.83743893933919, 0.0 ], [ 121.052906308066596, 30.84290248374603, 0.0 ], [ 121.092093927133405, 30.842514515312889, 0.0 ], [ 121.128308121254193, 30.84003743868448, 0.0 ], [ 121.139517259469301, 30.825832254366549, 0.0 ], [ 121.133947591402304, 30.803185943656679, 0.0 ], [ 121.130108563721194, 30.78160253578141, 0.0 ], [ 121.146596757507993, 30.77171422733112, 0.0 ], [ 121.183746794495207, 30.7761256048448, 0.0 ], [ 121.217907484263506, 30.777776467631028, 0.0 ], [ 121.231856271447299, 30.766385235729619, 0.0 ], [ 121.248065117071306, 30.731640135616669, 0.0 ], [ 121.266259562940903, 30.7015281355729, 0.0 ], [ 121.272525546970201, 30.687259452933102, 0.0 ] ] } },
{ "type": "Feature", "id": "04800944C1419B8A2C50", "properties": { "name": "嘉兴府", "styleUrl": "#__managed_style_0A4AD8E818419B7B236C" }, "geometry": { "type": "LineString", "coordinates": [ [ 120.304848557109295, 30.50897866437894, 0.0 ], [ 120.360534872977198, 30.517769534518269, 0.0 ], [ 120.389351041003906, 30.523049834851388, 0.0 ], [ 120.433905311674806, 30.50467760004231, 0.0 ], [ 120.505241148196504, 30.504297406833629, 0.0 ], [ 120.592533635799597, 30.51539211305391, 0.0 ], [ 120.648926024939001, 30.525366099813962, 0.0 ], [ 120.699388888430093, 30.535706258633539, 0.0 ], [ 120.749577486394401, 30.523883659757519, 0.0 ], [ 120.774824010297905, 30.506510596451591, 0.0 ], [ 120.800967139840395, 30.45952066176627, 0.0 ], [ 120.8209477314645, 30.394795777249541, 0.0 ], [ 120.831976405759605, 30.3558836290443, 0.0 ], [ 120.841728864487607, 30.340911110652531, 0.0 ], [ 120.855438147784398, 30.32342970479263, 0.0 ] ] } }
]
}
