{"type":"FeatureCollection","features":[{"type":"Feature","properties":{},"geometry":{"type":"LineString","coordinates":[[108.57797,21.886006],[108.589521,21.888649],[108.596769,21.88991],[108.601008,21.892702],[108.603661,21.898136],[108.604373,21.903329],[108.603698,21.908472],[108.603216,21.913206],[108.600135,21.915707],[108.597246,21.919549],[108.598594,21.923613],[108.606634,21.927409],[108.613658,21.931652],[108.618744,21.936635],[108.620964,21.943546],[108.620678,21.950721],[108.621967,21.955771],[108.628701,21.957631],[108.633666,21.960521],[108.634311,21.970353],[108.638036,21.973674],[108.638394,21.979454],[108.639325,21.986163],[108.645844,21.991543],[108.649896,21.999584],[108.655946,22.012309],[108.661273,22.023777],[108.668046,22.028716],[108.671748,22.036249],[108.67563,22.042526],[108.680687,22.044284],[108.689085,22.044786],[108.695857,22.050226],[108.700054,22.056699],[108.707921,22.058025],[108.709828,22.061781],[108.705299,22.066421],[108.701246,22.071281],[108.705537,22.079345],[108.709113,22.091164],[108.716504,22.097459],[108.719066,22.10459],[108.742055,22.119485],[108.753475,22.130342],[108.754527,22.141476],[108.756781,22.150105],[108.769252,22.154837],[108.774511,22.156785],[108.783676,22.157342],[108.788334,22.16082],[108.792992,22.165969],[108.807514,22.167626],[108.81698,22.1718],[108.821338,22.17834],[108.827498,22.191419],[108.853342,22.202687],[108.863701,22.215518],[108.873032,22.220668],[108.874109,22.230469],[108.87034,22.236448],[108.878236,22.237279],[108.882348,22.238735],[108.883673,22.24364],[108.886442,22.245925],[108.893969,22.246482],[108.900894,22.249102],[108.910267,22.260431],[108.916447,22.264866],[108.926348,22.263407],[108.932449,22.263102],[108.939298,22.267742],[108.940154,22.277249],[108.940276,22.286642],[108.937341,22.294789],[108.933672,22.300334],[108.937096,22.315608],[108.945261,22.332729],[108.942284,22.344487],[108.939077,22.347983],[108.939993,22.358151],[108.934381,22.363447],[108.934038,22.368637],[108.934556,22.380232],[108.931041,22.389482],[108.924688,22.395106],[108.918199,22.403356],[108.91928,22.412104],[108.918063,22.417603],[108.922277,22.425232],[108.931064,22.434979],[108.937823,22.447473],[108.940797,22.45447],[108.935232,22.46293],[108.93114,22.469789],[108.930379,22.474801],[108.936374,22.480955],[108.939514,22.486846],[108.942952,22.492842],[108.948379,22.495791],[108.95072,22.512799],[108.95517,22.52595],[108.963318,22.530362],[108.971466,22.541261],[108.976242,22.549435],[108.986076,22.558257],[108.996893,22.564613],[108.999702,22.574861],[109.004338,22.579142],[109.00724,22.588141],[109.015033,22.596102],[109.019013,22.605288],[109.026807,22.612942],[109.033274,22.622432],[109.044828,22.62295],[109.054717,22.630071],[109.060325,22.633989],[109.061836,22.638462],[109.063659,22.641876],[109.069756,22.645724],[109.069756,22.645627]]}}]}