{
"type": "FeatureCollection",
"name": "方言地图",
"crs": { "type": "name", "properties": { "name": "urn:ogc:def:crs:OGC:1.3:CRS84" } },
"features": [
{ "type": "Feature", "properties": { }, "geometry": { "type": "Polygon", "coordinates": [ [ [ 120.634647, 27.577186 ], [ 120.637111, 27.561271 ], [ 120.703016, 27.478475 ], [ 120.673451, 27.420055 ], [ 120.665444, 27.357884 ], [ 120.580444, 27.321203 ], [ 120.554575, 27.25206 ], [ 120.574901, 27.234501 ], [ 120.545952, 27.156785 ], [ 120.492365, 27.136016 ], [ 120.461568, 27.142407 ], [ 120.403054, 27.10086 ], [ 120.391967, 27.081146 ], [ 120.282946, 27.089671 ], [ 120.29588, 27.035845 ], [ 120.275554, 27.027315 ], [ 120.279866, 26.987326 ], [ 120.25954, 26.982526 ], [ 120.233055, 26.907837 ], [ 120.1807, 26.920644 ], [ 120.130193, 26.917976 ], [ 120.126497, 26.920644 ], [ 120.117874, 26.882751 ], [ 120.054432, 26.863533 ], [ 120.042729, 26.828292 ], [ 120.073526, 26.823485 ], [ 120.102476, 26.82669 ], [ 120.103707, 26.794642 ], [ 120.136352, 26.797847 ], [ 120.106787, 26.752966 ], [ 120.151135, 26.750829 ], [ 120.162222, 26.717691 ], [ 120.110483, 26.692563 ], [ 120.1382, 26.638012 ], [ 120.093852, 26.613938 ], [ 120.063671, 26.627848 ], [ 120.007621, 26.595744 ], [ 119.967585, 26.597885 ], [ 119.93802, 26.576478 ], [ 119.947875, 26.56042 ], [ 119.867187, 26.509019 ], [ 119.828383, 26.524013 ], [ 119.851788, 26.595209 ], [ 119.901679, 26.624638 ], [ 119.949107, 26.624638 ], [ 119.972512, 26.654594 ], [ 119.969433, 26.686681 ], [ 119.99407, 26.720363 ], [ 120.061824, 26.768997 ], [ 120.052584, 26.786629 ], [ 119.942947, 26.784492 ], [ 119.938636, 26.747088 ], [ 119.899216, 26.693098 ], [ 119.908455, 26.661547 ], [ 119.873962, 26.642827 ], [ 119.864107, 26.671174 ], [ 119.833926, 26.690959 ], [ 119.711354, 26.686681 ], [ 119.664543, 26.726243 ], [ 119.637441, 26.703256 ], [ 119.619579, 26.649246 ], [ 119.577695, 26.622498 ], [ 119.605412, 26.595744 ], [ 119.670086, 26.618218 ], [ 119.740303, 26.610727 ], [ 119.788346, 26.583435 ], [ 119.83639, 26.454381 ], [ 119.835774, 26.434019 ], [ 119.893672, 26.355752 ], [ 119.946027, 26.374519 ], [ 119.95465, 26.352534 ], [ 119.904143, 26.308552 ], [ 119.862875, 26.307479 ], [ 119.845013, 26.323036 ], [ 119.806825, 26.307479 ], [ 119.802513, 26.268846 ], [ 119.7711, 26.285481 ], [ 119.676246, 26.262943 ], [ 119.664543, 26.202282 ], [ 119.604181, 26.168985 ], [ 119.618963, 26.11956 ], [ 119.654688, 26.090002 ], [ 119.668854, 26.026024 ], [ 119.700267, 26.032477 ], [ 119.723673, 26.011503 ], [ 119.69534, 25.904424 ], [ 119.638057, 25.889888 ], [ 119.628202, 25.87212 ], [ 119.626354, 25.723406 ], [ 119.602949, 25.714779 ], [ 119.602949, 25.68512 ], [ 119.543819, 25.684581 ], [ 119.472986, 25.662466 ], [ 119.478529, 25.631715 ], [ 119.541355, 25.6247 ], [ 119.534579, 25.585303 ], [ 119.586934, 25.59232 ], [ 119.616499, 25.556691 ], [ 119.611572, 25.519972 ], [ 119.634362, 25.475137 ], [ 119.675014, 25.475137 ], [ 119.680557, 25.497827 ], [ 119.715666, 25.51187 ], [ 119.716898, 25.551292 ], [ 119.683637, 25.592859 ], [ 119.700267, 25.616606 ], [ 119.785883, 25.66786 ], [ 119.790194, 25.614447 ], [ 119.843165, 25.597717 ], [ 119.831462, 25.579905 ], [ 119.883817, 25.546432 ], [ 119.861027, 25.531313 ], [ 119.81668, 25.532393 ], [ 119.811136, 25.507009 ], [ 119.862875, 25.474597 ], [ 119.866571, 25.455145 ], [ 119.804977, 25.457847 ], [ 119.764325, 25.433529 ], [ 119.773564, 25.395691 ], [ 119.688564, 25.441095 ], [ 119.682405, 25.445959 ], [ 119.675014, 25.468113 ], [ 119.622659, 25.434069 ], [ 119.670086, 25.435691 ], [ 119.656535, 25.396772 ], [ 119.665159, 25.3719 ], [ 119.649144, 25.342697 ], [ 119.597405, 25.334584 ], [ 119.582623, 25.374063 ], [ 119.59063, 25.398394 ], [ 119.577695, 25.445959 ], [ 119.555521, 25.429205 ], [ 119.578927, 25.400556 ], [ 119.548746, 25.365952 ], [ 119.486536, 25.369737 ], [ 119.507478, 25.396231 ], [ 119.48592, 25.418935 ], [ 119.491464, 25.443257 ], [ 119.463131, 25.448661 ], [ 119.438493, 25.412449 ], [ 119.45266, 25.493505 ], [ 119.400921, 25.493505 ], [ 119.359037, 25.521592 ], [ 119.343638, 25.472436 ], [ 119.353493, 25.411908 ], [ 119.288204, 25.410827 ], [ 119.26295, 25.428124 ], [ 119.275269, 25.476758 ], [ 119.256175, 25.488643 ], [ 119.219834, 25.468654 ], [ 119.191501, 25.424341 ], [ 119.151465, 25.426503 ], [ 119.14469, 25.388121 ], [ 119.218603, 25.368115 ], [ 119.240776, 25.316733 ], [ 119.247552, 25.333502 ], [ 119.299291, 25.328634 ], [ 119.333167, 25.287516 ], [ 119.380595, 25.250173 ], [ 119.331935, 25.230685 ], [ 119.294979, 25.237182 ], [ 119.314689, 25.190076 ], [ 119.26911, 25.159746 ], [ 119.231537, 25.188993 ], [ 119.190269, 25.175995 ], [ 119.131755, 25.223106 ], [ 119.108349, 25.193867 ], [ 119.137299, 25.15487 ], [ 119.165632, 25.145661 ], [ 119.146538, 25.056782 ], [ 119.119436, 25.012861 ], [ 119.107118, 25.075214 ], [ 119.134219, 25.106107 ], [ 119.075705, 25.099604 ], [ 119.06585, 25.102855 ], [ 119.028893, 25.139702 ], [ 119.032589, 25.17437 ], [ 119.054147, 25.168412 ], [ 119.074473, 25.211195 ], [ 119.055379, 25.219316 ], [ 118.990089, 25.20199 ], [ 118.975307, 25.237723 ], [ 118.996864, 25.266411 ], [ 118.956212, 25.272905 ], [ 118.918024, 25.25721 ], [ 118.91556, 25.256668 ], [ 118.919256, 25.248008 ], [ 118.900162, 25.242595 ], [ 118.903242, 25.239347 ], [ 118.943278, 25.221482 ], [ 118.940198, 25.21715 ], [ 118.942046, 25.211195 ], [ 118.985162, 25.19495 ], [ 118.985162, 25.168954 ], [ 118.951901, 25.15162 ], [ 118.974691, 25.115319 ], [ 118.892155, 25.092558 ], [ 118.945126, 25.028588 ], [ 118.974691, 25.024792 ], [ 119.016575, 25.058409 ], [ 119.023966, 25.04377 ], [ 118.989473, 24.973807 ], [ 119.004872, 24.970009 ], [ 119.007335, 24.963499 ], [ 119.032589, 24.961328 ], [ 119.014111, 24.941252 ], [ 118.945741, 24.954275 ], [ 118.91864, 24.932569 ], [ 118.932807, 24.906518 ], [ 118.987009, 24.898375 ], [ 118.988857, 24.878831 ], [ 118.933423, 24.870687 ], [ 118.864437, 24.887518 ], [ 118.834256, 24.854397 ], [ 118.807771, 24.870687 ], [ 118.748641, 24.84245 ], [ 118.69875, 24.848967 ], [ 118.702445, 24.865258 ], [ 118.647627, 24.843536 ], [ 118.650707, 24.808774 ], [ 118.786213, 24.77672 ], [ 118.778822, 24.743569 ], [ 118.703677, 24.665278 ], [ 118.670417, 24.679962 ], [ 118.652554, 24.653857 ], [ 118.661178, 24.622306 ], [ 118.687047, 24.63373 ], [ 118.680272, 24.58204 ], [ 118.614366, 24.521617 ], [ 118.558316, 24.51236 ], [ 118.557084, 24.572788 ], [ 118.512736, 24.60816 ], [ 118.444367, 24.614689 ], [ 118.363679, 24.567889 ], [ 118.375382, 24.536317 ], [ 118.242955, 24.51236 ], [ 118.169042, 24.559725 ], [ 118.150564, 24.583673 ], [ 118.121615, 24.570067 ], [ 118.084042, 24.528695 ], [ 118.048934, 24.418122 ], [ 118.088354, 24.408858 ], [ 118.081579, 24.35653 ], [ 118.112376, 24.357075 ], [ 118.158571, 24.269814 ], [ 118.115455, 24.229435 ], [ 118.074803, 24.225615 ], [ 118.019369, 24.197232 ], [ 118.000275, 24.152462 ], [ 117.936217, 24.100029 ], [ 117.927594, 24.039922 ], [ 117.910347, 24.012045 ], [ 117.864768, 24.004938 ], [ 117.807486, 23.947521 ], [ 117.792703, 23.906494 ], [ 117.762522, 23.886796 ], [ 117.691073, 23.888985 ], [ 117.671979, 23.878041 ], [ 117.651653, 23.815093 ], [ 117.660276, 23.789357 ], [ 117.601762, 23.70171 ], [ 117.54448, 23.715956 ], [ 117.501364, 23.70445 ], [ 117.493357, 23.642514 ], [ 117.454552, 23.628259 ], [ 117.463791, 23.584937 ], [ 117.387415, 23.555317 ], [ 117.302415, 23.550379 ], [ 117.291328, 23.571225 ], [ 117.192778, 23.5619 ], [ 117.085605, 23.536663 ], [ 117.044953, 23.539955 ], [ 117.01046, 23.502641 ], [ 116.963649, 23.507031 ], [ 116.92854, 23.530079 ], [ 116.888504, 23.501543 ], [ 116.895895, 23.476295 ], [ 116.874953, 23.447748 ], [ 116.871874, 23.4159 ], [ 116.782563, 23.313714 ], [ 116.798577, 23.244996 ], [ 116.821367, 23.240597 ], [ 116.806584, 23.200998 ], [ 116.74499, 23.215299 ], [ 116.701259, 23.198248 ], [ 116.665534, 23.158086 ], [ 116.566368, 23.134424 ], [ 116.550969, 23.109656 ], [ 116.566368, 23.088738 ], [ 116.557129, 23.056253 ], [ 116.576839, 23.014397 ], [ 116.544194, 22.996769 ], [ 116.50539, 22.930645 ], [ 116.449955, 22.936707 ], [ 116.382818, 22.91907 ], [ 116.302746, 22.951588 ], [ 116.239304, 22.921275 ], [ 116.14137, 22.835259 ], [ 116.104413, 22.816505 ], [ 116.05637, 22.844635 ], [ 115.99724, 22.826985 ], [ 115.965211, 22.800506 ], [ 115.931334, 22.802713 ], [ 115.883291, 22.78561 ], [ 115.829089, 22.734838 ], [ 115.796444, 22.739254 ], [ 115.788437, 22.809885 ], [ 115.760103, 22.834707 ], [ 115.696046, 22.84298 ], [ 115.654162, 22.865591 ], [ 115.583945, 22.82864 ], [ 115.570394, 22.786713 ], [ 115.541445, 22.755259 ], [ 115.609198, 22.753052 ], [ 115.565467, 22.684048 ], [ 115.575322, 22.650914 ], [ 115.471844, 22.697852 ], [ 115.430576, 22.684048 ], [ 115.381301, 22.684048 ], [ 115.349272, 22.712206 ], [ 115.338185, 22.776781 ], [ 115.319091, 22.783402 ], [ 115.230396, 22.776781 ], [ 115.236555, 22.82533 ], [ 115.190359, 22.818711 ], [ 115.190975, 22.77347 ], [ 115.154635, 22.80161 ], [ 115.076411, 22.788368 ], [ 115.053621, 22.747533 ], [ 115.02344, 22.726007 ], [ 115.039454, 22.713862 ], [ 114.945216, 22.645391 ], [ 114.927969, 22.621639 ], [ 114.922426, 22.549253 ], [ 114.88547, 22.538751 ], [ 114.866375, 22.591805 ], [ 114.746267, 22.581859 ], [ 114.743803, 22.632687 ], [ 114.728405, 22.651466 ], [ 114.73518, 22.724351 ], [ 114.749963, 22.764089 ], [ 114.709927, 22.787817 ], [ 114.689601, 22.7674 ], [ 114.601521, 22.730975 ], [ 114.591666, 22.690122 ], [ 114.567029, 22.685705 ], [ 114.51529, 22.655332 ], [ 114.579964, 22.661407 ], [ 114.603369, 22.638763 ], [ 114.559022, 22.583517 ], [ 114.568261, 22.560859 ], [ 114.614456, 22.545384 ], [ 114.628623, 22.513875 ], [ 114.611377, 22.481806 ], [ 114.549167, 22.465769 ], [ 114.506667, 22.438667 ], [ 114.476486, 22.459132 ], [ 114.472174, 22.522168 ], [ 114.427211, 22.589042 ], [ 114.381631, 22.60175 ], [ 114.321885, 22.587385 ], [ 114.294784, 22.563623 ], [ 114.232574, 22.539857 ], [ 114.232574, 22.528801 ], [ 114.260291, 22.547595 ], [ 114.263371, 22.541515 ], [ 114.263987, 22.541515 ], [ 114.28924, 22.52272 ], [ 114.309566, 22.497288 ], [ 114.340979, 22.50337 ], [ 114.2529, 22.445304 ], [ 114.23319, 22.466875 ], [ 114.205473, 22.449729 ], [ 114.220255, 22.427603 ], [ 114.278769, 22.435901 ], [ 114.325581, 22.479041 ], [ 114.376088, 22.436454 ], [ 114.406269, 22.433688 ], [ 114.406269, 22.432582 ], [ 114.385327, 22.41156 ], [ 114.394566, 22.361757 ], [ 114.356994, 22.340171 ], [ 114.323733, 22.384447 ], [ 114.320037, 22.381127 ], [ 114.319421, 22.382234 ], [ 114.322501, 22.385554 ], [ 114.283081, 22.386661 ], [ 114.278153, 22.328546 ], [ 114.316342, 22.30031 ], [ 114.313262, 22.264315 ], [ 114.284929, 22.263761 ], [ 114.262139, 22.294773 ], [ 114.248588, 22.274837 ], [ 114.265835, 22.200608 ], [ 114.203009, 22.206703 ], [ 114.200545, 22.232188 ], [ 114.164821, 22.226648 ], [ 114.120473, 22.272068 ], [ 114.145726, 22.300864 ], [ 114.121089, 22.320795 ], [ 114.069966, 22.326885 ], [ 114.034857, 22.300864 ], [ 114.02993, 22.263207 ], [ 114.004676, 22.239389 ], [ 114.026234, 22.229418 ], [ 113.996669, 22.206149 ], [ 113.981271, 22.229972 ], [ 113.935691, 22.205041 ], [ 113.899351, 22.215568 ], [ 113.84946, 22.191188 ], [ 113.8433, 22.229418 ], [ 113.889496, 22.271514 ], [ 113.898119, 22.308615 ], [ 113.969568, 22.321349 ], [ 113.955401, 22.298649 ], [ 114.026234, 22.34792 ], [ 113.980039, 22.366185 ], [ 113.956633, 22.359543 ], [ 113.951706, 22.355116 ], [ 113.920293, 22.367845 ], [ 113.918445, 22.418199 ], [ 113.977575, 22.45692 ], [ 114.000981, 22.491206 ], [ 114.031778, 22.503923 ], [ 113.976343, 22.510558 ], [ 113.954785, 22.491206 ], [ 113.952937, 22.486783 ], [ 113.893807, 22.442539 ], [ 113.869786, 22.459685 ], [ 113.856851, 22.539857 ], [ 113.803264, 22.593463 ], [ 113.765692, 22.665825 ], [ 113.733663, 22.736494 ], [ 113.678228, 22.726007 ], [ 113.717033, 22.645391 ], [ 113.740438, 22.534329 ], [ 113.691779, 22.514981 ], [ 113.668373, 22.4807 ], [ 113.631417, 22.475723 ], [ 113.573519, 22.41156 ], [ 113.608627, 22.408793 ], [ 113.624642, 22.443092 ], [ 113.66591, 22.438667 ], [ 113.669605, 22.416539 ], [ 113.627721, 22.349027 ], [ 113.604932, 22.339617 ], [ 113.617866, 22.315259 ], [ 113.595693, 22.304186 ], [ 113.594461, 22.228864 ], [ 113.558736, 22.212244 ], [ 113.57482775227119, 22.195735466290071 ], [ 113.575983, 22.201162 ], [ 113.586453, 22.201162 ], [ 113.575983, 22.194513 ], [ 113.6037, 22.132438 ], [ 113.554425, 22.107489 ], [ 113.567359, 22.075327 ], [ 113.527939, 22.073663 ], [ 113.45957, 22.043711 ], [ 113.442324, 22.009315 ], [ 113.330223, 21.96159 ], [ 113.319752, 21.909407 ], [ 113.266781, 21.871646 ], [ 113.235368, 21.887751 ], [ 113.1516, 21.979905 ], [ 113.142977, 22.012089 ], [ 113.091854, 22.065344 ], [ 113.086927, 22.12634 ], [ 113.045659, 22.088636 ], [ 113.032108, 22.04593 ], [ 113.053666, 22.012089 ], [ 113.047507, 21.956595 ], [ 112.989608, 21.869424 ], [ 112.929862, 21.838875 ], [ 112.893522, 21.84443 ], [ 112.841167, 21.920512 ], [ 112.792508, 21.921067 ], [ 112.68595, 21.810541 ], [ 112.647146, 21.758302 ], [ 112.535661, 21.753856 ], [ 112.497473, 21.785535 ], [ 112.445734, 21.803317 ], [ 112.427256, 21.789981 ], [ 112.415553, 21.734956 ], [ 112.353343, 21.707157 ], [ 112.238778, 21.702153 ], [ 112.236315, 21.727173 ], [ 112.196894, 21.736624 ], [ 112.192583, 21.789425 ], [ 112.136532, 21.793871 ], [ 112.036134, 21.761637 ], [ 111.956062, 21.710494 ], [ 111.954214, 21.667674 ], [ 111.997946, 21.657107 ], [ 112.026895, 21.633744 ], [ 111.972692, 21.603144 ], [ 111.941896, 21.607039 ], [ 111.887693, 21.578659 ], [ 111.810084, 21.555283 ], [ 111.832258, 21.578659 ], [ 111.794686, 21.61149 ], [ 111.736788, 21.609821 ], [ 111.693672, 21.590345 ], [ 111.677658, 21.529677 ], [ 111.650556, 21.512418 ], [ 111.609904, 21.530234 ], [ 111.560629, 21.50518 ], [ 111.521825, 21.517429 ], [ 111.494724, 21.501282 ], [ 111.444217, 21.514088 ], [ 111.382623, 21.495714 ], [ 111.353058, 21.464528 ], [ 111.28592, 21.41885 ], [ 111.257587, 21.41495 ], [ 111.250196, 21.45116 ], [ 111.276065, 21.443362 ], [ 111.28284, 21.485691 ], [ 111.171355, 21.458401 ], [ 111.103602, 21.455616 ], [ 111.034617, 21.438906 ], [ 110.929291, 21.375945 ], [ 110.888639, 21.367585 ], [ 110.796248, 21.37483 ], [ 110.768531, 21.364799 ], [ 110.713097, 21.3124 ], [ 110.65951, 21.239902 ], [ 110.626249, 21.215915 ], [ 110.534474, 21.204198 ], [ 110.501213, 21.217588 ], [ 110.451322, 21.186343 ], [ 110.422373, 21.190807 ], [ 110.39096, 21.124949 ], [ 110.296722, 21.093684 ], [ 110.24991, 21.045098 ], [ 110.241903, 21.016051 ], [ 110.208642, 21.050684 ], [ 110.204947, 21.003202 ], [ 110.180925, 20.98197 ], [ 110.184005, 20.891979 ], [ 110.209874, 20.860106 ], [ 110.269004, 20.839972 ], [ 110.327519, 20.847802 ], [ 110.350924, 20.84165 ], [ 110.393424, 20.816479 ], [ 110.407591, 20.731987 ], [ 110.392192, 20.682724 ], [ 110.411286, 20.670966 ], [ 110.466105, 20.680485 ], [ 110.487047, 20.640167 ], [ 110.499982, 20.572386 ], [ 110.550489, 20.47262 ], [ 110.54125, 20.42047 ], [ 110.491358, 20.373912 ], [ 110.452554, 20.311064 ], [ 110.425453, 20.291419 ], [ 110.384185, 20.293103 ], [ 110.349076, 20.258859 ], [ 110.296722, 20.249314 ], [ 110.220345, 20.25156 ], [ 110.168606, 20.219553 ], [ 110.118099, 20.219553 ], [ 110.082375, 20.258859 ], [ 109.993679, 20.254368 ], [ 109.929006, 20.211691 ], [ 109.909296, 20.236961 ], [ 109.916071, 20.316677 ], [ 109.861252, 20.376717 ], [ 109.864948, 20.40196 ], [ 109.895745, 20.42776 ], [ 109.888354, 20.475423 ], [ 109.839695, 20.489439 ], [ 109.811977, 20.541566 ], [ 109.813825, 20.574627 ], [ 109.793499, 20.615522 ], [ 109.74484, 20.621124 ], [ 109.730057, 20.719673 ], [ 109.711579, 20.774519 ], [ 109.664768, 20.862343 ], [ 109.655529, 20.929435 ], [ 109.674007, 21.067997 ], [ 109.674623, 21.136671 ], [ 109.763934, 21.226514 ], [ 109.757775, 21.346963 ], [ 109.770709, 21.359783 ], [ 109.868644, 21.365913 ], [ 109.904368, 21.429992 ], [ 109.894513, 21.442248 ], [ 109.819369, 21.445033 ], [ 109.785492, 21.45673 ], [ 109.704188, 21.462857 ], [ 109.654913, 21.493487 ], [ 109.628292053858928, 21.528697918016167 ], [ 109.612413, 21.556953 ], [ 109.581, 21.548047 ], [ 109.576689, 21.493487 ], [ 109.540964, 21.466199 ], [ 109.41716, 21.438906 ], [ 109.245929, 21.425536 ], [ 109.186183, 21.390991 ], [ 109.138756, 21.388762 ], [ 109.095024, 21.419407 ], [ 109.046365, 21.424421 ], [ 109.039589, 21.457844 ], [ 109.074698, 21.489589 ], [ 109.142451, 21.511861 ], [ 109.138756, 21.567528 ], [ 109.110422, 21.568085 ], [ 109.093792, 21.579215 ], [ 108.937959, 21.589789 ], [ 108.881293, 21.627068 ], [ 108.83325, 21.610933 ], [ 108.801837, 21.626512 ], [ 108.745786, 21.602587 ], [ 108.735931, 21.628181 ], [ 108.678033, 21.659331 ], [ 108.658939, 21.643757 ], [ 108.626294, 21.67991 ], [ 108.591802, 21.677129 ], [ 108.492635, 21.554727 ], [ 108.397781, 21.533017 ], [ 108.330027, 21.540254 ], [ 108.230245, 21.491259 ], [ 108.210535, 21.505737 ], [ 108.249955, 21.561406 ], [ 108.241332, 21.599805 ], [ 108.205608, 21.597579 ], [ 108.156332, 21.55083 ], [ 108.193905, 21.519656 ], [ 108.108289, 21.508521 ], [ 108.034376, 21.545821 ], [ 107.958, 21.534131 ], [ 107.929051, 21.585893 ], [ 107.893942, 21.596466 ], [ 107.892095, 21.622617 ], [ 107.863761, 21.650988 ], [ 107.837892, 21.640419 ], [ 107.807711, 21.655438 ], [ 107.712856, 21.616497 ], [ 107.603219, 21.597579 ], [ 107.584741, 21.614828 ], [ 107.547168, 21.58645 ], [ 107.486806, 21.59591 ], [ 107.564431219415368, 21.635218584695796 ], [ 107.642167471863132, 21.701221063189134 ], [ 107.73750438524236, 21.781890759125453 ], [ 107.872442785717652, 21.799491420057013 ], [ 108.00884790793728, 21.827359133198641 ], [ 108.093917769106483, 21.871360785527539 ], [ 108.133519256202447, 21.94323015099808 ], [ 108.198055012951485, 22.122170203802263 ], [ 108.268457656677725, 22.177905630085533 ], [ 108.353527517846928, 22.180839073574127 ], [ 108.362327848312702, 22.233641056368803 ], [ 108.321259639472402, 22.295243369629262 ], [ 108.193654847718648, 22.375913065565566 ], [ 107.998580855727155, 22.28644303916348 ], [ 107.866575898740464, 22.301110256606446 ], [ 107.82844113338875, 22.34217846544675 ], [ 107.834308020365938, 22.427248326615953 ], [ 108.030848734101681, 22.518185074762343 ], [ 107.931111655489516, 22.526985405228121 ], [ 107.78737292454845, 22.482983752899223 ], [ 107.652434524073158, 22.35977912637831 ], [ 107.520429567086509, 22.261508769510431 ], [ 107.514562680109279, 22.207240064971465 ], [ 107.526296454063697, 22.18377251706271 ], [ 107.655367967561801, 22.230707612880202 ], [ 107.730170776520922, 22.232174334624499 ], [ 107.790306368037079, 22.213106951948642 ], [ 107.818174081178711, 22.154438082176778 ], [ 107.794706533269974, 22.088435603683433 ], [ 107.719903724310839, 22.031233455655865 ], [ 107.614299758721486, 22.023899846934384 ], [ 107.602565984767082, 22.010699351235722 ], [ 107.587898767324106, 21.92562949006652 ], [ 107.496962019177715, 21.776023872148269 ], [ 107.356843, 21.667674 ], [ 107.310648, 21.733844 ], [ 107.271844, 21.727173 ], [ 107.242279, 21.703265 ], [ 107.199163, 21.718833 ], [ 107.194851, 21.736624 ], [ 107.148656, 21.758858 ], [ 107.093837, 21.803317 ], [ 107.018077, 21.81943 ], [ 107.018693, 21.859427 ], [ 107.058729, 21.887196 ], [ 107.05996, 21.914959 ], [ 106.999598, 21.947714 ], [ 106.974345, 21.923288 ], [ 106.935541, 21.933836 ], [ 106.926302, 21.967695 ], [ 106.859164, 21.986009 ], [ 106.802498, 21.98157 ], [ 106.790179, 22.004876 ], [ 106.73844, 22.008205 ], [ 106.698404, 21.959925 ], [ 106.683006, 21.999882 ], [ 106.706411, 22.021521 ], [ 106.71565, 22.089745 ], [ 106.691629, 22.13521 ], [ 106.706411, 22.160707 ], [ 106.673151, 22.182322 ], [ 106.7021, 22.207257 ], [ 106.688549, 22.260438 ], [ 106.670071, 22.283144 ], [ 106.663296, 22.33076 ], [ 106.562897, 22.345706 ], [ 106.588767, 22.374486 ], [ 106.560434, 22.455813 ], [ 106.588151, 22.472958 ], [ 106.585071, 22.517192 ], [ 106.61402, 22.602303 ], [ 106.650361, 22.575228 ], [ 106.711955, 22.575228 ], [ 106.756302, 22.68957 ], [ 106.780373362905408, 22.710057335787969 ], [ 106.768621, 22.739254 ], [ 106.820976, 22.768504 ], [ 106.838838, 22.803265 ], [ 106.813585, 22.817608 ], [ 106.796338, 22.812091 ], [ 106.774781, 22.812643 ], [ 106.709491, 22.866142 ], [ 106.716882, 22.881582 ], [ 106.674998, 22.891506 ], [ 106.848466572317065, 22.949356328863285 ], [ 107.004108193829467, 22.937683207249854 ], [ 107.115094970461101, 22.888933642605547 ], [ 107.184601742525714, 22.736467174850922 ], [ 107.258592822465459, 22.700592711849833 ], [ 107.358192882770183, 22.700329734443446 ], [ 107.323615286654928, 22.817184716603371 ], [ 107.249243747711503, 22.929901126174236 ], [ 107.220476205526808, 22.989830569796109 ], [ 107.218115423409017, 23.062196504459774 ], [ 107.29222513152898, 23.097453958799374 ], [ 107.338737680081124, 23.093324828762253 ], [ 107.415543598095226, 23.059337341860719 ], [ 107.482808216222267, 22.949471798919884 ], [ 107.585947297350401, 22.879965026855277 ], [ 107.688931328484031, 22.836516153266796 ], [ 107.801194075356932, 22.83063764022878 ], [ 107.89515647698795, 22.863753437031466 ], [ 107.881911617109381, 22.918081643793933 ], [ 107.825117747307374, 22.976593612627955 ], [ 107.51383450428257, 23.194491882745314 ], [ 106.49049084283854, 23.789821085030244 ], [ 106.404892710736405, 23.869875990291547 ], [ 106.337628092609364, 23.950593532043996 ], [ 106.357807478047476, 23.999920918670494 ], [ 106.418345634361813, 24.044763997421853 ], [ 106.503547483989394, 24.073911998610239 ], [ 106.606686565117528, 24.089607076173216 ], [ 106.725520723808629, 24.076154152547808 ], [ 106.839870574624598, 24.035795381671583 ], [ 107.072201403241095, 23.855968774173036 ], [ 107.169467203447098, 23.760010447350712 ], [ 107.262516591856169, 23.698351214067593 ], [ 107.491776831972501, 23.550369054188106 ], [ 107.626306068226583, 23.460682896685384 ], [ 107.751866688730402, 23.365391354338747 ], [ 107.860137112147598, 23.241184369199061 ], [ 107.871810233761039, 23.194491882745339 ], [ 107.877427309234221, 23.178171500551827 ], [ 107.922393760752612, 23.182818761131884 ], [ 108.056634659307051, 23.186709801669721 ], [ 108.135275012054535, 23.149023499363445 ], [ 108.169474834903539, 23.16336355844286 ], [ 108.150970089617516, 23.247678272616437 ], [ 108.092674087240752, 23.348575199806998 ], [ 108.056799624239659, 23.427050587621881 ], [ 107.962629158861802, 23.412476587027687 ], [ 107.937965465548558, 23.436019203372151 ], [ 107.925633618891936, 23.506647052405544 ], [ 107.918907157079232, 23.558216592969611 ], [ 107.928996849798281, 23.607543979596105 ], [ 107.96714072693743, 23.684762990509398 ], [ 108.002987929738026, 23.70844090678667 ], [ 108.052743618769242, 23.723673395887499 ], [ 108.15769655143022, 23.710683060724236 ], [ 108.215992553806984, 23.693866906192476 ], [ 108.239535170151456, 23.65575028925382 ], [ 108.22832440046362, 23.575032747501371 ], [ 108.208385240281643, 23.497993044694521 ], [ 108.274288556183762, 23.466288281529319 ], [ 108.321225415878132, 23.43573639608956 ], [ 108.367917902331854, 23.147799396291621 ], [ 108.395155186096531, 23.011612977468271 ], [ 108.488540159003961, 23.023286099081702 ], [ 108.583870652180252, 23.081651707148851 ], [ 108.55857888868448, 23.3384603826443 ], [ 108.710329469659072, 23.556358652761659 ], [ 109.006048550532668, 23.898770220088934 ], [ 109.08370612764584, 23.962925378700636 ], [ 109.190872976078609, 24.007719355147625 ], [ 109.312405829277779, 23.994315533826587 ], [ 109.387370523238047, 23.957135828156087 ], [ 109.48280952853294, 23.89117645269846 ], [ 109.552316300597553, 23.832880450321689 ], [ 109.601377752817598, 23.770365882341206 ], [ 109.594917225411336, 23.734225677068697 ], [ 109.563527070285389, 23.6568713662226 ], [ 109.519805068502819, 23.596333209908263 ], [ 109.430171969153946, 23.478537842005458 ], [ 109.211508902087246, 23.275705196836032 ], [ 109.192818496347542, 23.213947085434377 ], [ 109.41460780700271, 23.182818761131898 ], [ 109.605268793355407, 23.25674853135029 ], [ 109.691329844726809, 23.313821813774691 ], [ 109.834840185086193, 23.420172233938306 ], [ 109.943789320144873, 23.509666166307937 ], [ 109.916552036380196, 23.579704895988517 ], [ 109.6767558441326, 23.835122604259258 ], [ 109.652092150819357, 23.863149528478861 ], [ 109.65097107385057, 23.886692144823325 ], [ 109.655852320346938, 23.918225422777986 ], [ 109.695814152601926, 23.94386707023131 ], [ 109.749237293254367, 23.937680625467035 ], [ 109.839312004606285, 23.894539683604812 ], [ 109.889760468201558, 23.844091220009531 ], [ 109.915545238483588, 23.805974603070876 ], [ 109.963244522833918, 23.754801720189967 ], [ 110.079975738968216, 23.817058368794925 ], [ 110.083706783801233, 23.886692144823318 ], [ 110.099430941657275, 23.937680625467035 ], [ 110.148729247990701, 23.960683224763063 ], [ 110.212271117253763, 23.976591030845135 ], [ 110.395366181123194, 24.171445694894452 ], [ 110.511958185876736, 24.240952466959062 ], [ 110.731083465351688, 24.301718715826986 ], [ 110.734016908840289, 24.395588907461967 ], [ 110.716554732679796, 24.458441398903165 ], [ 110.71616086690014, 24.521336706138541 ], [ 110.733370887211549, 24.547567017921494 ], [ 110.766284787214815, 24.556928299334594 ], [ 110.821375429261124, 24.554293479734202 ], [ 110.945224840018994, 24.496792707818432 ], [ 111.037628309909678, 24.504126316539917 ], [ 111.100697344914437, 24.517326812238586 ], [ 111.142229805790336, 24.544682949365392 ], [ 111.130031779800362, 24.595063064686304 ], [ 111.10893167175422, 24.623239713314412 ], [ 111.015321744860756, 24.638374252392996 ], [ 110.848421204895416, 24.640531438759499 ], [ 110.80370927900087, 24.669196246575311 ], [ 110.781577196869279, 24.694988639316591 ], [ 110.772151674192017, 24.724134578184419 ], [ 110.7939090435259, 24.756647872599714 ], [ 110.82788710047528, 24.782803447956283 ], [ 110.839873199246043, 24.797006643475932 ], [ 110.982249974281615, 24.853060491915134 ], [ 111.018124437282694, 24.882208493103519 ], [ 111.049514592408656, 24.931535879730014 ], [ 111.080163240494286, 25.010145318322248 ], [ 111.168166545152076, 25.127483057865977 ], [ 111.303104945627368, 25.118682727400195 ], [ 111.426309572148284, 25.082014683792782 ], [ 111.440976789591261, 24.853206091682519 ], [ 111.408708911216735, 24.715334247718641 ], [ 111.479111554942946, 24.641998160503807 ], [ 111.643384390304163, 24.762269343536126 ], [ 111.983663834980987, 24.774003117490505 ], [ 112.224206201045632, 25.172951431939172 ], [ 112.599686967585527, 25.149483884030431 ], [ 112.805028011787044, 24.920675291920166 ], [ 113.039703490874501, 24.926542178897353 ], [ 113.010369055988576, 25.167084544961991 ], [ 112.869563768536096, 25.313756719391648 ], [ 113.08663858669199, 25.407626911026632 ], [ 113.209843213212906, 25.485363163474336 ], [ 113.264845278624023, 25.571899746387832 ], [ 113.174641891349808, 25.61296795522814 ], [ 113.145307456463854, 25.642302390114082 ], [ 113.145307456463883, 25.712705033840308 ], [ 113.183442221815596, 25.762573573146391 ], [ 113.18930910879277, 25.853510321292781 ], [ 113.145307456463883, 25.912179191064642 ], [ 112.98983495156844, 25.988448721768066 ], [ 112.766893246435359, 26.000182495722438 ], [ 112.731691924572246, 26.096986130846012 ], [ 112.623154515494292, 26.155655000617873 ], [ 112.488216115019014, 26.190856322480993 ], [ 112.41781347129276, 26.129254009220549 ], [ 112.291675401283271, 26.187922878992399 ], [ 112.165537331273768, 26.164455331083655 ], [ 112.001264495912551, 26.140987783174914 ], [ 111.939662182652057, 26.142454504919208 ], [ 111.834058217062704, 26.224590922599816 ], [ 111.763655573336479, 26.312594227257613 ], [ 111.681519155655863, 26.468066732153051 ], [ 111.640450946815562, 26.688074993797539 ], [ 111.552447642157773, 26.821546672528534 ], [ 111.423376128659669, 26.886082429277582 ], [ 111.282570841207189, 26.87288193357891 ], [ 111.259103293298452, 26.776078298455335 ], [ 111.229768858412513, 26.696875324263317 ], [ 111.223901971435325, 26.585404471696776 ], [ 111.165233101663461, 26.535535932390694 ], [ 111.10656423189161, 26.539936097623588 ], [ 111.006827153279445, 26.616205628327009 ], [ 110.927624179087417, 26.541402819367878 ], [ 110.910023518155867, 26.422598358079863 ], [ 110.959892057461943, 26.377129984006661 ], [ 111.188700649572212, 26.350728992609323 ], [ 111.235635745389715, 26.299393731558951 ], [ 111.156432771197686, 25.994315608745261 ], [ 111.191634093060813, 25.88284475617872 ], [ 111.396975137262331, 25.88284475617872 ], [ 111.449777120057007, 25.841776547338416 ], [ 111.396975137262331, 25.788974564543739 ], [ 111.267903623764255, 25.703904703374533 ], [ 111.248836241088398, 25.64963599883556 ], [ 111.282570841207217, 25.497096937428715 ], [ 111.203367867015203, 25.376825754396396 ], [ 111.074296353517099, 25.2888224497386 ], [ 111.011227318512326, 25.299089501948671 ], [ 110.934957787808912, 25.290289171482897 ], [ 110.888022691991409, 25.265354901829852 ], [ 110.844021039662508, 25.231620301711029 ], [ 110.779485282913484, 25.228686858222442 ], [ 110.739883795817448, 25.255087849619773 ], [ 110.735483630584582, 25.319623606368829 ], [ 110.852821370128297, 25.461895615565595 ], [ 110.876288918037034, 25.498563659173008 ], [ 110.879222361525649, 25.54256531150191 ], [ 110.849887926639695, 25.589500407319395 ], [ 110.79121905686786, 25.627635172671113 ], [ 110.694415421744253, 25.662836494534226 ], [ 110.574144238711952, 25.686304042442977 ], [ 110.527209142894463, 25.654036164068451 ], [ 110.506675038474299, 25.602700903018068 ], [ 110.51840881242866, 25.557232528944873 ], [ 110.621079334529426, 25.428161015446772 ], [ 110.685615091278478, 25.324023771601716 ], [ 110.714949526164418, 25.262421458341258 ], [ 110.703215752210042, 25.224286692989548 ], [ 110.684148369534185, 25.189085371126428 ], [ 110.642231096681741, 25.134175590843608 ], [ 110.572192367001151, 25.108883827347842 ], [ 110.439896988715617, 25.173085996221708 ], [ 110.387870577186277, 25.175884875427759 ], [ 110.348457536077078, 25.093319665196603 ], [ 110.344566495539269, 24.889040036961578 ], [ 110.272582245589788, 24.817055787012098 ], [ 110.015773570094325, 24.780090901902899 ], [ 109.665579921691432, 24.630285841197221 ], [ 109.408771246195982, 24.389041327853 ], [ 109.097488003171179, 24.319002598172421 ], [ 108.972974705961263, 24.36569508462614 ], [ 108.891262854667232, 24.486317341298246 ], [ 109.078032800482106, 24.743126016793703 ], [ 109.062468638330884, 24.867639314003622 ], [ 108.836788287137892, 25.031063016591645 ], [ 108.696710827776712, 25.11082934761675 ], [ 108.702547388583426, 25.202268800255286 ], [ 108.848461408751334, 25.225615043482144 ], [ 109.058577597793047, 25.134175590843611 ], [ 109.198655057154198, 25.12639350976799 ], [ 109.45546373264969, 25.167249435414991 ], [ 109.601377752817555, 25.120556948961276 ], [ 109.663634401422513, 25.375420104187832 ], [ 109.774529056750112, 25.587481813498471 ], [ 109.961299002564985, 25.630283259414384 ], [ 110.023555651169957, 25.686703347212628 ], [ 110.101376461926151, 25.813162164691455 ], [ 110.272582245589788, 25.82094424576707 ], [ 110.247290482094144, 25.916274738943393 ], [ 109.934061718800322, 26.194484137396827 ], [ 109.957407962027176, 26.420164488589808 ], [ 109.813439462128215, 26.552459866875346 ], [ 109.899042353960027, 26.688646285698695 ], [ 109.789120458766959, 26.731447731614587 ], [ 109.494374138027851, 26.860824829496771 ], [ 109.455463732649761, 27.003820569261286 ], [ 109.4846465366834, 27.192536035345075 ], [ 109.686980644649523, 27.387088062235577 ], [ 109.904878914766883, 27.262574765025654 ], [ 110.013828049825563, 27.445453670302726 ], [ 110.087757820043947, 27.461017832453965 ], [ 110.169469671337964, 27.422107427075865 ], [ 110.329002333388175, 27.441562629764913 ], [ 110.395150022530942, 27.499928237832066 ], [ 110.426278346833413, 27.585531129663885 ], [ 110.212271117253863, 27.686698183646943 ], [ 110.037174293052416, 27.752845872789713 ], [ 109.811493941859439, 27.783974197092192 ], [ 109.733673131103245, 27.632223616117603 ], [ 109.546903185288357, 27.566075926974833 ], [ 109.465191333994355, 27.620550494504172 ], [ 109.465191333994355, 27.830666683545914 ], [ 109.535230063674931, 27.881250210537445 ], [ 109.561494587305134, 27.980471744251599 ], [ 109.659743360884846, 28.033000791512034 ], [ 109.717136208817536, 28.0972029603859 ], [ 109.675307523036082, 28.131249565091736 ], [ 109.569276668380752, 28.116658163074948 ], [ 109.503128979237985, 28.15167752791524 ], [ 109.514802100851412, 28.295646027814207 ], [ 109.433090249557409, 28.318992271041068 ], [ 109.339705276649966, 28.264517703511729 ], [ 109.281339668582817, 28.311210189965447 ], [ 109.293012790196244, 28.525217419544997 ], [ 109.230756141591286, 28.622493432990247 ], [ 109.330626182061749, 28.915618486838589 ], [ 109.553712506229516, 28.99343929759479 ], [ 109.667849695338603, 28.983063189493961 ], [ 109.719730235842746, 28.811857405830324 ], [ 109.979132938363406, 28.796293243679084 ], [ 109.86902054427911, 28.536919411339408 ], [ 109.855567620653702, 28.317188325457739 ], [ 109.857809774591274, 28.231986475830151 ], [ 109.909379315155334, 28.178174781328522 ], [ 109.956464547844263, 28.153511088015271 ], [ 109.99906547265806, 28.169206165578249 ], [ 110.032697781721581, 28.223017860079878 ], [ 110.030455627784008, 28.308219709707465 ], [ 110.088751630160772, 28.326156941208009 ], [ 110.138079016787273, 28.294766786082057 ], [ 110.23224948216513, 28.149026780140147 ], [ 110.286061176666763, 28.057098468699856 ], [ 110.342115025105969, 28.005528928135789 ], [ 110.456464875921938, 28.005528928135789 ], [ 110.503550108610867, 28.023466159636335 ], [ 110.523729494048979, 28.081762162013103 ], [ 110.510276570423571, 28.198354166766642 ], [ 110.402653181420305, 28.283556016394225 ], [ 110.250186713665684, 28.438264638086412 ], [ 110.182922095538643, 28.581762490090767 ], [ 110.214312250664591, 28.731986803907834 ], [ 110.299514100292171, 28.81943080747298 ], [ 110.407137489295437, 28.862031732286781 ], [ 110.469917799547346, 28.900148349225429 ], [ 110.49458149286059, 28.983108044915454 ], [ 110.638015802765892, 29.014191513796444 ], [ 110.810725198057682, 29.021224661854102 ], [ 110.900411355560408, 28.96741296735247 ], [ 110.995991532244417, 28.765164919376605 ], [ 110.958707357937172, 28.65351141609295 ], [ 110.850726018832844, 28.547266649259246 ], [ 110.900411355560408, 28.50777141015103 ], [ 111.364343369823757, 28.599147189763379 ], [ 111.701566883100568, 28.718472432922859 ], [ 112.106235099032858, 28.804075324754702 ], [ 112.241124504343603, 28.902648351712553 ], [ 112.272252828646089, 28.998627351645197 ], [ 112.230748396242774, 29.110170513729088 ], [ 112.064730666629487, 29.361791135174109 ], [ 112.261876720545175, 29.558937189089811 ], [ 112.370825855603854, 29.657510216047662 ], [ 112.596506206796832, 29.618599810669565 ], [ 112.687297152679065, 29.662698270098076 ], [ 112.726207558057155, 29.704202702501384 ], [ 112.733989639132787, 29.77683545920717 ], [ 112.676921044578236, 29.815745864585271 ], [ 112.505715260914599, 29.750895188955102 ], [ 112.474586936612127, 29.79239962135841 ], [ 112.49533915281377, 29.999921783374941 ], [ 112.640604666225343, 30.160751458937753 ], [ 112.842938774191495, 30.23338421564354 ], [ 113.008956503804725, 30.277482675072068 ], [ 113.097153422661762, 30.085524675206777 ], [ 113.112717584812998, 29.93507110774479 ], [ 113.289111422527043, 29.743113107879498 ], [ 113.387684449484908, 29.701608675476191 ], [ 113.667839368207225, 29.966199432047269 ], [ 113.823480989719627, 29.955823323946444 ], [ 114.041379259836972, 30.069960513055538 ], [ 114.181456719198138, 30.13740521571091 ], [ 114.622441313483264, 30.069960513055538 ], [ 114.76251877284443, 29.961011377996858 ], [ 114.87146790790311, 29.91950694559355 ], [ 114.975228988911368, 29.966199432047269 ], [ 115.027109529415512, 30.235978242668761 ], [ 115.146434772575006, 30.24635435076959 ], [ 115.338392772440301, 30.163345485962974 ], [ 115.426589691297337, 29.924694999643965 ], [ 115.343580826490722, 29.675668405224126 ], [ 115.229443637381621, 29.654916189022472 ], [ 115.053049799667576, 29.727548945728259 ], [ 115.03748563751634, 29.623787864719993 ], [ 115.08936617802047, 29.520026783711725 ], [ 115.307264448137829, 29.405889594602634 ], [ 115.473282177751045, 29.535590945862964 ], [ 115.566667150658489, 29.566719270165446 ], [ 115.691180447868405, 29.520026783711725 ], [ 115.701556555969233, 29.38513737840098 ], [ 115.77418931267502, 29.354009054098501 ], [ 115.929830934187422, 29.447394027005942 ], [ 116.043968123296509, 29.457770135106767 ], [ 116.137353096203952, 29.680856459274537 ], [ 116.116600880002295, 29.961011377996858 ], [ 116.059532285447759, 30.235978242668761 ], [ 115.909078717985764, 30.313799053424962 ], [ 115.960959258489908, 30.427936242534056 ], [ 115.805317636977506, 30.775535863911745 ], [ 116.168481420506438, 31.019374404281173 ], [ 116.650970447194879, 31.143887701491078 ], [ 116.765107636303966, 31.097195215037356 ], [ 116.832552338959346, 30.874108890869586 ], [ 116.697662933648587, 30.588765918096854 ], [ 116.654712590167094, 30.526410627067794 ], [ 116.650970447194879, 30.417560134433216 ], [ 116.750377824836661, 30.290237078977292 ], [ 116.905185095665132, 30.230790188618336 ], [ 116.998570068572562, 30.448688458735695 ], [ 117.103143377680709, 30.466619855399312 ], [ 117.201798150933698, 30.400850006563982 ], [ 117.390139081689412, 30.412808160897679 ], [ 117.46786708485844, 30.364975543562892 ], [ 117.536626472277192, 30.430745392398222 ], [ 117.55157416519431, 30.571253705819153 ], [ 117.612705966790159, 30.655562113995924 ], [ 117.752783426151254, 30.74375903285295 ], [ 117.850707946352813, 30.847520113861222 ], [ 117.845519892302377, 30.924692417861117 ], [ 117.868217628772953, 31.000567708348409 ], [ 118.286504486587518, 31.189283174432198 ], [ 118.588708635024105, 31.27229203923882 ], [ 118.669771979561858, 31.368271039171447 ], [ 118.695712249813923, 31.422745606700786 ], [ 118.761211432200341, 31.457764971541081 ], [ 119.004401465813501, 31.479814201255333 ], [ 119.181443810283824, 31.535585782297282 ], [ 119.326709323695397, 31.582278268751004 ], [ 119.422039816871774, 31.635455822767732 ], [ 119.482350945207799, 31.711979620011338 ], [ 119.5076427087036, 31.785909390229715 ], [ 119.513479269510285, 31.955818160380765 ], [ 119.551741168132111, 32.008995714397486 ], [ 119.6379925667202, 32.044015079237788 ], [ 119.730729032871366, 32.019371822498314 ], [ 119.829302059829217, 31.972679336044592 ], [ 119.886370654383754, 31.957115173893353 ], [ 120.011532458349947, 31.984352457658037 ], [ 120.063412998854091, 32.028450917086552 ], [ 119.964839971896225, 32.108865754867956 ], [ 119.922687032736647, 32.154261227809059 ], [ 119.938899701644175, 32.204844754800604 ], [ 119.990131735392026, 32.25283425476691 ], [ 120.063412998854091, 32.282665565556805 ], [ 120.193114350114428, 32.282665565556812 ], [ 120.299469458147911, 32.254131268279544 ], [ 120.418146194551113, 32.185389552111538 ], [ 120.485590897206478, 32.104974714330133 ], [ 120.623722836298782, 31.976570376582416 ], [ 120.73202346460117, 31.946090559036236 ], [ 120.84680916046652, 31.935065944179119 ], [ 120.914253863121886, 31.953224133355565 ], [ 120.963540376600818, 32.038827025187388 ], [ 120.992074673878093, 32.145182133220857 ], [ 121.067301457609076, 32.238567106128301 ], [ 121.178844619692967, 32.344922214161777 ], [ 121.390405, 32.460682 ], [ 121.425513, 32.430885 ], [ 121.450151, 32.282256 ], [ 121.493882, 32.263533 ], [ 121.499426, 32.211394 ], [ 121.458774, 32.177462 ], [ 121.542542, 32.152132 ], [ 121.525295, 32.136423 ], [ 121.759352, 32.059362 ], [ 121.772287, 32.032984 ], [ 121.856055, 31.955328 ], [ 121.889315, 31.866425 ], [ 121.970004, 31.718911 ], [ 121.871449835423064, 31.736622876750808 ], [ 121.648363511255297, 31.80406757940618 ], [ 121.32670416012968, 31.944145038767338 ], [ 121.10880589001232, 31.902640606364034 ], [ 121.036173133306534, 31.798879525355765 ], [ 121.191814754818921, 31.762563147002876 ], [ 121.342268322280916, 31.570605147137581 ], [ 121.824757348969342, 31.321578552717742 ], [ 121.990945, 30.96859 ], [ 121.994025, 30.862823 ], [ 121.904714, 30.814007 ], [ 121.681128, 30.818633 ], [ 121.517288, 30.775451 ], [ 121.36820859253298, 30.683447904516907 ], [ 121.239499, 30.648878 ], [ 121.148956, 30.599953 ], [ 121.058413, 30.563888 ], [ 121.225333, 30.404526 ], [ 121.328195, 30.397299 ], [ 121.395332, 30.338435 ], [ 121.497578, 30.258861 ], [ 121.721164, 29.992802 ], [ 121.78399, 29.99332 ], [ 121.919497, 29.920729 ], [ 121.971235, 29.955476 ], [ 122.00388, 29.92021 ], [ 122.00696, 29.891678 ], [ 122.140003, 29.901535 ], [ 122.143082, 29.877668 ], [ 122.043916, 29.822647 ], [ 122.003264, 29.762401 ], [ 121.937359, 29.748373 ], [ 121.833265, 29.653242 ], [ 121.872685, 29.632437 ], [ 121.909641, 29.650122 ], [ 121.966308, 29.636078 ], [ 122.000185, 29.582486 ], [ 121.995257, 29.545007 ], [ 121.968772, 29.515846 ], [ 121.973083, 29.477821 ], [ 121.993409, 29.45229 ], [ 121.975547, 29.411113 ], [ 121.937975, 29.384 ], [ 121.936127, 29.348012 ], [ 121.958301, 29.334448 ], [ 121.94475, 29.28435 ], [ 122.000185, 29.278608 ], [ 122.002032, 29.260336 ], [ 121.966924, 29.249894 ], [ 121.971851, 29.193485 ], [ 121.988482, 29.110906 ], [ 121.970004, 29.092604 ], [ 121.966308, 29.052852 ], [ 121.884388, 29.105677 ], [ 121.85975, 29.086328 ], [ 121.811091, 29.10986 ], [ 121.780294, 29.10986 ], [ 121.767975, 29.166837 ], [ 121.750113, 29.136523 ], [ 121.715621, 29.125022 ], [ 121.608447, 29.168927 ], [ 121.616454, 29.143318 ], [ 121.660186, 29.118226 ], [ 121.660543883196425, 29.101382283819689 ], [ 121.658954, 29.058606 ], [ 121.712541, 29.028783 ], [ 121.711309, 28.985865 ], [ 121.743338, 28.954451 ], [ 121.772287, 28.898404 ], [ 121.774751, 28.863818 ], [ 121.687287, 28.863294 ], [ 121.704534, 28.804577 ], [ 121.689135, 28.719062 ], [ 121.646019, 28.682842 ], [ 121.540694, 28.655537 ], [ 121.557324, 28.645033 ], [ 121.596128, 28.575156 ], [ 121.634317, 28.562542 ], [ 121.646019, 28.511544 ], [ 121.671273, 28.472621 ], [ 121.692831, 28.407368 ], [ 121.658954, 28.392628 ], [ 121.634317, 28.347868 ], [ 121.660186, 28.355768 ], [ 121.669425, 28.33312 ], [ 121.627541, 28.251966 ], [ 121.580114, 28.240368 ], [ 121.571491, 28.279376 ], [ 121.538846, 28.299401 ], [ 121.488955, 28.301509 ], [ 121.47248265454445, 28.275297096398791 ], [ 121.45631, 28.250385 ], [ 121.404555103761723, 28.199577586349488 ], [ 121.402107, 28.197127 ], [ 121.373774, 28.133287 ], [ 121.328195, 28.134343 ], [ 121.299862, 28.067297 ], [ 121.261057, 28.034551 ], [ 121.176058, 28.022401 ], [ 121.140949, 28.031382 ], [ 121.121239, 28.12537 ], [ 121.108304, 28.139092 ], [ 121.059029, 28.096338 ], [ 121.023202998180508, 28.001223960453231 ], [ 121.015298, 27.981714 ], [ 120.991892, 27.95 ], [ 121.05595, 27.900294 ], [ 121.099681, 27.895005 ], [ 121.162507, 27.90717 ], [ 121.162507, 27.879136 ], [ 121.193304, 27.872259 ], [ 121.192072, 27.822518 ], [ 121.153268, 27.809815 ], [ 121.149572, 27.801875 ], [ 121.134174, 27.785992 ], [ 121.152036, 27.815638 ], [ 121.107688, 27.81352 ], [ 121.070116, 27.834162 ], [ 121.027616, 27.832574 ], [ 120.97403, 27.887071 ], [ 120.942001, 27.896592 ], [ 120.910588, 27.864852 ], [ 120.840371, 27.758986 ], [ 120.797871, 27.779638 ], [ 120.771386, 27.734623 ], [ 120.709176, 27.682699 ], [ 120.685154, 27.622797 ], [ 120.634647, 27.577186 ] ], [ [ 118.868465911192629, 31.014452800811746 ], [ 118.739915752105418, 30.930745720475873 ], [ 118.617344670185034, 30.790237407054942 ], [ 118.557553898516545, 30.715498942469342 ], [ 118.569512052850229, 30.649729093634011 ], [ 118.611365593018178, 30.563032474714717 ], [ 118.689093596187192, 30.512210318796505 ], [ 118.757852983605957, 30.446440469961178 ], [ 118.866223757255057, 30.427008469168921 ], [ 118.976089300195923, 30.443450931377754 ], [ 119.095670843532872, 30.486799240837403 ], [ 119.125566229367124, 30.489788779420827 ], [ 119.144998230159374, 30.418039853418652 ], [ 119.203294232536123, 30.374691543958999 ], [ 119.298959467205719, 30.307426925831962 ], [ 119.388645624708417, 30.279026309289431 ], [ 119.451425934960341, 30.307426925831962 ], [ 119.479826551502867, 30.335827542374489 ], [ 119.487300397961434, 30.365722928208729 ], [ 119.457405012127182, 30.427008469168921 ], [ 119.406582856208956, 30.452419547128027 ], [ 119.358750238874194, 30.501746933754525 ], [ 119.353518546353214, 30.574243244402556 ], [ 119.364729316041036, 30.598906937715807 ], [ 119.478331782211143, 30.67887709482239 ], [ 119.569512709005593, 30.723720173573756 ], [ 119.645745942882897, 30.742404789720158 ], [ 119.705536714551386, 30.744646943657724 ], [ 119.762337947636453, 30.719235865698622 ], [ 119.766822255511585, 30.647486939696442 ], [ 119.769811794095006, 30.608622938111932 ], [ 119.890888106723679, 30.581717090861115 ], [ 119.976089956351274, 30.708772480656638 ], [ 120.025417342977761, 30.780521406658814 ], [ 120.014953957935788, 30.832838331868736 ], [ 119.789243794887227, 30.936724797642722 ], [ 119.771306563386688, 31.104886342960334 ], [ 119.581470863339263, 31.13926603666971 ], [ 119.457405012127168, 31.1751404996708 ], [ 119.1345348451174, 31.104138958314465 ], [ 118.868465911192629, 31.014452800811746 ] ], [ [ 118.109123111002916, 30.814153715722348 ], [ 117.884907717246108, 30.694572172385385 ], [ 117.869960024328989, 30.545095243214181 ], [ 117.989541567665952, 30.539116166047336 ], [ 118.237673270090156, 30.670655863717993 ], [ 118.405087430761895, 30.80219556138865 ], [ 118.530648051265715, 30.972599260643822 ], [ 118.387150199261356, 31.008473723644912 ], [ 118.109123111002916, 30.814153715722348 ] ], [ [ 111.973026757521467, 24.630505943868805 ], [ 111.915867220829455, 24.599544528160628 ], [ 111.913485573467284, 24.513805223122606 ], [ 111.949210283899802, 24.447119096981922 ], [ 111.899195689294288, 24.389959560289906 ], [ 111.832509563153593, 24.294693665803212 ], [ 111.851562742050945, 24.201809418678689 ], [ 111.963500168072798, 24.20895436076519 ], [ 112.04685782574866, 24.213717655489525 ], [ 112.130215483424507, 24.151794824073175 ], [ 112.180230078030021, 24.17561129769485 ], [ 112.211191493738198, 24.280403781630209 ], [ 112.249297851532873, 24.420920975998079 ], [ 112.258824440981542, 24.566201465090288 ], [ 112.182611725392192, 24.635269238593139 ], [ 111.973026757521467, 24.630505943868805 ] ] ] } },
{ "type": "Feature", "properties": { }, "geometry": { "type": "Polygon", "coordinates": [ [ [ 107.462441984622743, 25.014495575420067 ], [ 107.617897990960799, 24.981610651002402 ], [ 107.677688762629273, 24.912851263583651 ], [ 107.758406304381722, 24.763374334412447 ], [ 107.803249383133092, 24.634824175325214 ], [ 107.74943768863146, 24.524211247738524 ], [ 107.644803838211615, 24.524211247738524 ], [ 107.534190910624929, 24.655750945409181 ], [ 107.438525675955347, 24.84708141474832 ], [ 107.420588444454808, 24.936767572251043 ], [ 107.462441984622743, 25.014495575420067 ] ] ] } },
{ "type": "Feature", "properties": { }, "geometry": { "type": "Polygon", "coordinates": [ [ [ 108.236732477729575, 24.691625408410278 ], [ 108.529707258905134, 24.667709099742886 ], [ 108.715058651077427, 24.554106633572772 ], [ 108.709079573910572, 24.458441398903204 ], [ 108.53568633607199, 24.440504167402658 ], [ 108.335387250982578, 24.49431586190429 ], [ 108.242711554896431, 24.575033403656739 ], [ 108.236732477729575, 24.691625408410278 ] ] ] } },
{ "type": "Feature", "properties": { }, "geometry": { "type": "Polygon", "coordinates": [ [ [ 107.193383512114579, 24.294016776814868 ], [ 107.348839518452635, 24.213299235062419 ], [ 107.47440013895644, 24.039905997223826 ], [ 107.519243217707796, 23.896408145219471 ], [ 107.438525675955347, 23.845585989301263 ], [ 107.301006901117844, 23.962177994054802 ], [ 107.121634586112407, 24.138560770476818 ], [ 107.094728738861591, 24.23721554372981 ], [ 107.193383512114579, 24.294016776814868 ] ] ] } },
{ "type": "Feature", "properties": { }, "geometry": { "type": "Polygon", "coordinates": [ [ [ 106.957209964024074, 23.313448121451774 ], [ 107.103697354611853, 23.208814271031933 ], [ 107.13359274044609, 23.140054883613178 ], [ 107.037927505776523, 23.101190882028668 ], [ 106.915356423856139, 23.157992115113721 ], [ 106.894429653772164, 23.247678272616444 ], [ 106.957209964024074, 23.313448121451774 ] ] ] } },
{ "type": "Feature", "properties": { }, "geometry": { "type": "Polygon", "coordinates": [ [ [ 106.535685023761275, 23.27458411986726 ], [ 106.78979580335232, 23.193866578114811 ], [ 106.85556565218765, 23.077274573361272 ], [ 106.783816726185478, 23.01449426310937 ], [ 106.592486256846342, 23.095211804861819 ], [ 106.514758253677314, 23.193866578114811 ], [ 106.535685023761275, 23.27458411986726 ] ] ] } },
{ "type": "Feature", "properties": { }, "geometry": { "type": "Polygon", "coordinates": [ [ [ 109.447495604016325, 25.672194063773343 ], [ 109.55511899301959, 25.618382369271711 ], [ 109.55511899301959, 25.501790364518172 ], [ 109.483370067017418, 25.424062361349147 ], [ 109.384715293764415, 25.424062361349147 ], [ 109.27709190476115, 25.525706673185564 ], [ 109.32193498351252, 25.624361446438559 ], [ 109.447495604016325, 25.672194063773343 ] ] ] } },
{ "type": "Feature", "properties": { }, "geometry": { "type": "Polygon", "coordinates": [ [ [ 109.585312, 19.98801 ], [ 109.657993, 20.01163 ], [ 109.712195, 20.017253 ], [ 109.76147, 19.981261 ], [ 109.814441, 19.993072 ], [ 109.855093, 19.984073 ], [ 109.898825, 19.994196 ], [ 109.965346, 19.993634 ], [ 109.997375, 19.980136 ], [ 110.042339, 19.991384 ], [ 110.106396, 20.026812 ], [ 110.144585, 20.074598 ], [ 110.243135, 20.077408 ], [ 110.28933, 20.056047 ], [ 110.318279, 20.108882 ], [ 110.387265, 20.113378 ], [ 110.495054, 20.077408 ], [ 110.526467, 20.07516 ], [ 110.562191, 20.110006 ], [ 110.655814, 20.134169 ], [ 110.687843, 20.163947 ], [ 110.717408, 20.148778 ], [ 110.744509, 20.074036 ], [ 110.778386, 20.068415 ], [ 110.808567, 20.035808 ], [ 110.871393, 20.01163 ], [ 110.940994, 20.028499 ], [ 110.966248, 20.018377 ], [ 111.013675, 19.850159 ], [ 111.043856, 19.763448 ], [ 111.071573, 19.628784 ], [ 111.061718, 19.612436 ], [ 111.008747, 19.60398 ], [ 110.920668, 19.552668 ], [ 110.888023, 19.518827 ], [ 110.844292, 19.449996 ], [ 110.787009, 19.399765 ], [ 110.729727, 19.378878 ], [ 110.706321, 19.320153 ], [ 110.676756, 19.286264 ], [ 110.619474, 19.152334 ], [ 110.598467958634487, 18.981419867908837 ], [ 110.585597, 18.88075 ], [ 110.590525, 18.838841 ], [ 110.578206, 18.784458 ], [ 110.499366, 18.751592 ], [ 110.499366, 18.651824 ], [ 110.367555, 18.631977 ], [ 110.329366, 18.642185 ], [ 110.246215, 18.609859 ], [ 110.214186, 18.578662 ], [ 110.116867, 18.506602 ], [ 110.090382, 18.399309 ], [ 110.070672, 18.376025 ], [ 110.022629, 18.360121 ], [ 109.919767, 18.375457 ], [ 109.785492, 18.339672 ], [ 109.749767, 18.193618 ], [ 109.726362, 18.177698 ], [ 109.661688, 18.175424 ], [ 109.584696, 18.143579 ], [ 109.527413, 18.169169 ], [ 109.467051, 18.173718 ], [ 109.441182, 18.199303 ], [ 109.355566, 18.215221 ], [ 109.287813, 18.264671 ], [ 109.17448, 18.260125 ], [ 109.138756, 18.268081 ], [ 109.108575, 18.323766 ], [ 109.006329, 18.323198 ], [ 108.944735, 18.314107 ], [ 108.905315, 18.389087 ], [ 108.881293, 18.416344 ], [ 108.776583, 18.441894 ], [ 108.68912, 18.447571 ], [ 108.644772, 18.486738 ], [ 108.641077, 18.565614 ], [ 108.663866, 18.67337 ], [ 108.65278, 18.740258 ], [ 108.593033, 18.809386 ], [ 108.595497, 18.872256 ], [ 108.637997, 18.924346 ], [ 108.630606, 19.003017 ], [ 108.598577, 19.055633 ], [ 108.597719261677753, 19.069004006095177 ], [ 108.59547710774018, 19.082830622043517 ], [ 108.594729723094304, 19.104131084450405 ], [ 108.591186, 19.141592 ], [ 108.609048, 19.276661 ], [ 108.644772, 19.349518 ], [ 108.694047, 19.387346 ], [ 108.765496, 19.400894 ], [ 108.806148, 19.450561 ], [ 108.855424, 19.469182 ], [ 108.868646195800551, 19.480065561315982 ], [ 108.904894351124554, 19.506971408566798 ], [ 108.92872, 19.524468 ], [ 108.993394, 19.587065 ], [ 109.026624625318519, 19.606700547248114 ], [ 109.048829, 19.619764 ], [ 109.093792, 19.68965 ], [ 109.125045840869689, 19.698535435607674 ], [ 109.147379, 19.704863 ], [ 109.169553, 19.736411 ], [ 109.159082, 19.79048 ], [ 109.231147, 19.863105 ], [ 109.255784, 19.867045 ], [ 109.25948, 19.898561 ], [ 109.300748, 19.917693 ], [ 109.349407, 19.898561 ], [ 109.411001, 19.895184 ], [ 109.498464, 19.873236 ], [ 109.526797, 19.943573 ], [ 109.585312, 19.98801 ] ] ] } },
{ "type": "Feature", "properties": { }, "geometry": { "type": "Polygon", "coordinates": [ [ [ 121.209318, 25.12724 ], [ 121.319572, 25.140785 ], [ 121.371926, 25.159746 ], [ 121.413194, 25.238806 ], [ 121.444607, 25.27074 ], [ 121.53515, 25.307535 ], [ 121.585041, 25.309159 ], [ 121.62323, 25.29455 ], [ 121.655259, 25.242054 ], [ 121.700222, 25.226896 ], [ 121.707613, 25.191701 ], [ 121.745186, 25.161912 ], [ 121.782142, 25.160287 ], [ 121.841888, 25.135367 ], [ 121.917033, 25.138076 ], [ 121.947214, 25.031841 ], [ 121.98109, 25.030757 ], [ 122.012503, 25.001471 ], [ 121.933047, 24.938539 ], [ 121.844968, 24.836476 ], [ 121.841272, 24.734329 ], [ 121.86283, 24.671261 ], [ 121.892395, 24.617953 ], [ 121.737488720472427, 24.622866020991484 ], [ 121.683677025970809, 24.661730022575998 ], [ 121.564095482633846, 24.811206951747199 ], [ 121.519252403882476, 24.835123260414591 ], [ 121.441524400713448, 24.829144183247745 ], [ 121.301016087292538, 24.781311565912958 ], [ 121.186853082637796, 24.675136234661107 ], [ 121.089693078676518, 24.543596536990446 ], [ 121.008041306116965, 24.386692472900986 ], [ 120.996083151783282, 24.225257389396088 ], [ 121.013459844799229, 24.117587288852516 ], [ 121.027660153070485, 23.993521437640421 ], [ 121.014020383283821, 23.818680142050415 ], [ 120.955163842422465, 23.706525733631704 ], [ 120.881920147128596, 23.620576499358258 ], [ 120.7449619107757, 23.47189366637323 ], [ 120.721045602108305, 23.391176124620781 ], [ 120.724035140691726, 23.325406275785451 ], [ 120.744961910775658, 22.915839489856353 ], [ 120.763833373083344, 22.858991545230982 ], [ 120.786254912459029, 22.468856760094145 ], [ 120.804752682444146, 22.389680699173724 ], [ 120.817645067584976, 22.372444140778722 ], [ 120.843056145544082, 22.381412756528995 ], [ 120.859498607752911, 22.413550296300798 ], [ 120.893878301462294, 22.590680457368673 ], [ 120.916486686999392, 22.659066152464515 ], [ 120.960582381104885, 22.725209693622773 ], [ 121.011217690861642, 22.784253080645396 ], [ 121.096045848166298, 22.89935031610722 ], [ 121.159947235386966, 23.022668782673467 ], [ 121.247204392790906, 23.220772425365606 ], [ 121.388646937018933, 23.54658541941853 ], [ 121.445448170103987, 23.679619886380902 ], [ 121.467869709479672, 23.734926350174248 ], [ 121.474409325131134, 23.824659219217263 ], [ 121.472354017354803, 23.872445125011755 ], [ 121.459648478375257, 23.920277742346538 ], [ 121.442458631520566, 23.97633159078574 ], [ 121.426576707796343, 24.051864151557492 ], [ 121.437226938999572, 24.111608211685681 ], [ 121.457406324437684, 24.169156829416593 ], [ 121.477585709875797, 24.207273446355249 ], [ 121.507481095710034, 24.243895294002193 ], [ 121.541113404773554, 24.268558987315441 ], [ 121.585956483524924, 24.295464834566257 ], [ 121.696569411111611, 24.313402066066804 ], [ 121.809243, 24.339083 ], [ 121.689135, 24.174303 ], [ 121.678048, 24.133895 ], [ 121.643556, 24.097843 ], [ 121.63986, 24.064514 ], [ 121.65957, 24.007125 ], [ 121.621382, 23.920718 ], [ 121.599969945634939, 23.818680142050418 ], [ 121.587505, 23.760878 ], [ 121.522832, 23.538858 ], [ 121.5216, 23.483431 ], [ 121.497578, 23.419744 ], [ 121.479716, 23.322507 ], [ 121.440296, 23.271937 ], [ 121.415042, 23.196047 ], [ 121.430441, 23.137175 ], [ 121.409499, 23.1025 ], [ 121.370695, 23.084334 ], [ 121.35468, 23.00999 ], [ 121.324499, 22.945526 ], [ 121.276456, 22.877171 ], [ 121.237652, 22.836362 ], [ 121.21055, 22.770711 ], [ 121.170514, 22.723247 ], [ 121.078739, 22.669691 ], [ 121.03316, 22.650914 ], [ 121.014682, 22.584069 ], [ 120.981421, 22.528248 ], [ 120.914899, 22.302525 ], [ 120.912376071447412, 22.252161924336217 ], [ 120.903197, 22.12634 ], [ 120.912436, 22.086418 ], [ 120.907508, 22.033171 ], [ 120.86624, 21.984345 ], [ 120.873016, 21.897191 ], [ 120.854537, 21.883309 ], [ 120.781857, 21.923843 ], [ 120.743052, 21.915515 ], [ 120.701784, 21.927174 ], [ 120.667908, 21.983235 ], [ 120.651277, 22.033171 ], [ 120.661748, 22.067007 ], [ 120.659285, 22.154056 ], [ 120.640806, 22.241605 ], [ 120.569973, 22.361757 ], [ 120.517619, 22.408793 ], [ 120.443706, 22.441432 ], [ 120.297112, 22.531565 ], [ 120.274323, 22.560307 ], [ 120.20041, 22.721039 ], [ 120.149287, 22.896468 ], [ 120.133272, 23.000625 ], [ 120.029795, 23.048544 ], [ 120.018708, 23.073322 ], [ 120.081534, 23.291728 ], [ 120.108019, 23.341191 ], [ 120.12157, 23.504836 ], [ 120.095084, 23.58768 ], [ 120.102476, 23.701162 ], [ 120.175156, 23.807427 ], [ 120.245989, 23.840276 ], [ 120.278018, 23.92783 ], [ 120.316206, 23.984708 ], [ 120.391967, 24.118055 ], [ 120.451713, 24.182493 ], [ 120.470807, 24.242533 ], [ 120.520698, 24.311816 ], [ 120.546568, 24.370159 ], [ 120.589068, 24.43229 ], [ 120.642654, 24.490033 ], [ 120.68885, 24.600542 ], [ 120.762147, 24.658208 ], [ 120.82374, 24.688118 ], [ 120.864543454112621, 24.739458025745023 ], [ 120.89211, 24.767482 ], [ 120.914899, 24.864715 ], [ 120.961095, 24.940167 ], [ 121.009754, 24.993878 ], [ 121.024537, 25.040517 ], [ 121.102145, 25.075214 ], [ 121.132942, 25.078466 ], [ 121.209318, 25.12724 ] ] ] } }
]
}
