{
"type": "FeatureCollection",
"name": "方言地图",
"crs": { "type": "name", "properties": { "name": "urn:ogc:def:crs:OGC:1.3:CRS84" } },
"features": [
{ "type": "Feature", "properties": { }, "geometry": { "type": "Polygon", "coordinates": [ [ [ 121.634317, 28.562542 ], [ 121.646019, 28.511544 ], [ 121.671273, 28.472621 ], [ 121.692831, 28.407368 ], [ 121.658954, 28.392628 ], [ 121.634317, 28.347868 ], [ 121.660186, 28.355768 ], [ 121.669425, 28.33312 ], [ 121.627541, 28.251966 ], [ 121.580114, 28.240368 ], [ 121.571491, 28.279376 ], [ 121.538846, 28.299401 ], [ 121.488955, 28.301509 ], [ 121.45631, 28.250385 ], [ 121.402107, 28.197127 ], [ 121.373774, 28.133287 ], [ 121.328195, 28.134343 ], [ 121.299862, 28.067297 ], [ 121.261057, 28.034551 ], [ 121.176058, 28.022401 ], [ 121.140949, 28.031382 ], [ 121.121239, 28.12537 ], [ 121.108304, 28.139092 ], [ 121.059029, 28.096338 ], [ 121.023202998180508, 28.001223960453231 ], [ 121.015298, 27.981714 ], [ 120.991892, 27.95 ], [ 121.05595, 27.900294 ], [ 121.099681, 27.895005 ], [ 121.162507, 27.90717 ], [ 121.162507, 27.879136 ], [ 121.193304, 27.872259 ], [ 121.192072, 27.822518 ], [ 121.153268, 27.809815 ], [ 121.149572, 27.801875 ], [ 121.134174, 27.785992 ], [ 121.152036, 27.815638 ], [ 121.107688, 27.81352 ], [ 121.070116, 27.834162 ], [ 121.027616, 27.832574 ], [ 120.97403, 27.887071 ], [ 120.942001, 27.896592 ], [ 120.910588, 27.864852 ], [ 120.840371, 27.758986 ], [ 120.797871, 27.779638 ], [ 120.771386, 27.734623 ], [ 120.709176, 27.682699 ], [ 120.685154, 27.622797 ], [ 120.634647, 27.577186 ], [ 120.637111, 27.561271 ], [ 120.536239848193787, 27.555764316450812 ], [ 120.499324314080297, 27.572435847985986 ], [ 120.456454661561182, 27.599824792650907 ], [ 120.46598125100985, 27.647457739894254 ], [ 120.508850903528867, 27.747486929105282 ], [ 120.499324314080184, 27.783211639537789 ], [ 120.468362898372007, 27.814173055245963 ], [ 120.423111598490834, 27.830844586781136 ], [ 120.383814417015074, 27.811791407883799 ], [ 120.37309700388532, 27.776066697451284 ], [ 120.392150182782657, 27.640312797807749 ], [ 120.275449462036462, 27.549810198045392 ], [ 120.13969556239293, 27.492650661353377 ], [ 120.044429667906229, 27.478360777180374 ], [ 119.918202357711365, 27.497413956077711 ], [ 119.818173168500337, 27.549810198045392 ], [ 119.627641379526949, 27.661747624067257 ], [ 119.556191958662041, 27.63912197412667 ], [ 119.470452653623909, 27.61411467682391 ], [ 119.379950053861549, 27.545046903321058 ], [ 119.282302512012691, 27.437872772023528 ], [ 119.220379680596338, 27.416437945764024 ], [ 119.127495433471822, 27.44501771411003 ], [ 118.984596591741777, 27.442636066747863 ], [ 118.932200349774092, 27.533138666510219 ], [ 118.936963644498434, 27.718907160759269 ], [ 118.936963644498434, 27.733197044932275 ], [ 118.88694904989292, 27.804646465797294 ], [ 118.803591392217058, 27.845134470954136 ], [ 118.670219139935696, 27.790356581624287 ], [ 118.551136771827331, 27.768921755364783 ], [ 118.424909461632495, 27.806432701318926 ], [ 118.303445446161959, 27.963621427221966 ], [ 118.234377672659107, 28.025544258638316 ], [ 118.095051301972333, 28.074368029562738 ], [ 118.027769763991117, 28.143435803065589 ], [ 118.006334937731594, 28.309555706576763 ], [ 117.980732228588295, 28.339326298603854 ], [ 117.939648811590914, 28.359570301182277 ], [ 117.820566443482548, 28.37386018535528 ], [ 117.761620671268929, 28.42744725100405 ], [ 117.756857376544588, 28.558437855923252 ], [ 117.78484173305003, 28.665016575380243 ], [ 117.857841520672252, 28.700962750502576 ], [ 117.923989209815019, 28.710041845090799 ], [ 117.992730925982997, 28.675022480250508 ], [ 118.051096534050146, 28.68280456132613 ], [ 118.073145763764416, 28.728200034267246 ], [ 118.066660696201396, 28.790456682872204 ], [ 117.997918980033418, 28.896811790905677 ], [ 117.997918980033418, 28.949989344922415 ], [ 118.025156263798081, 28.975929615174483 ], [ 118.108165128604696, 28.969444547611467 ], [ 118.148372547495413, 29.001869885426544 ], [ 118.109462142117309, 29.048562371880262 ], [ 118.083521871865244, 29.103036939409602 ], [ 118.079630831327435, 29.163996574501958 ], [ 118.115947209680286, 29.218471142031287 ], [ 118.227490371764219, 29.287212858199275 ], [ 118.252133628503657, 29.323529236552169 ], [ 118.245648560940637, 29.368924709493285 ], [ 118.339033533848067, 29.431181358098232 ], [ 118.423339412167294, 29.462309682400726 ], [ 118.476516966184036, 29.453230587812502 ], [ 118.516724385074738, 29.415617195947007 ], [ 118.569901939091451, 29.352063533829448 ], [ 118.589357141780496, 29.296291952787506 ], [ 118.63475261472162, 29.230144263644736 ], [ 118.686633155225749, 29.192530871779219 ], [ 118.738513695729878, 29.191233858266635 ], [ 118.777424101107982, 29.224956209594321 ], [ 118.863026992939808, 29.301480006837899 ], [ 118.913610519931339, 29.32223222303957 ], [ 118.968085087460679, 29.318341182501761 ], [ 119.038123817141255, 29.259975574434609 ], [ 119.077034222519359, 29.218471142031305 ], [ 119.122429695460468, 29.208095033930459 ], [ 119.208032587292294, 29.208095033930476 ], [ 119.288447425073699, 29.228847250132112 ], [ 119.383129411493741, 29.339093398703408 ], [ 119.446683073611311, 29.352063533829448 ], [ 119.520612843829696, 29.313153128451347 ], [ 119.610106776199331, 29.301480006837899 ], [ 119.695709668031157, 29.358548601392464 ], [ 119.80336178957721, 29.475279817526772 ], [ 119.80336178957721, 29.536239452619128 ], [ 119.742402154484836, 29.551803614770368 ], [ 119.518018816804414, 29.580337912047625 ], [ 119.440198006048234, 29.597199087711466 ], [ 119.388317465544077, 29.702257182232337 ], [ 119.364322715560917, 29.778132472719633 ], [ 119.311145161544175, 29.819636905122938 ], [ 119.147721458956156, 29.907833823979967 ], [ 118.951223911796859, 29.975927033391635 ], [ 118.911016492906057, 30.099143317088959 ], [ 118.891561290217098, 30.231438695374504 ], [ 118.846165817275974, 30.272943127777811 ], [ 118.790394236234036, 30.318338600718914 ], [ 118.756023378149962, 30.363085566903742 ], [ 118.75083532409954, 30.392916877693619 ], [ 118.753267224435731, 30.434340246752285 ], [ 118.810497945679302, 30.429233256046494 ], [ 118.858487445645622, 30.411075066870048 ], [ 118.916853053712771, 30.409778053357442 ], [ 118.992079837443768, 30.427936242533889 ], [ 119.034881283359681, 30.459064566836375 ], [ 119.085464810351183, 30.477222756012836 ], [ 119.146424445443557, 30.434421310096912 ], [ 119.178849783258642, 30.387728823643187 ], [ 119.292986972367743, 30.33066022908864 ], [ 119.320224256132406, 30.3125020399122 ], [ 119.378589864199569, 30.304719958836571 ], [ 119.434361445241507, 30.317690093962611 ], [ 119.474568864132209, 30.356600499340708 ], [ 119.455113661443164, 30.407832533088538 ], [ 119.412312215527251, 30.449985472248148 ], [ 119.337085431796254, 30.522618228953935 ], [ 119.336436925039933, 30.561528634332031 ], [ 119.350055566922293, 30.590062931609307 ], [ 119.375347330418037, 30.622488269424387 ], [ 119.417500269577602, 30.649725553189079 ], [ 119.502454654653164, 30.695121026130174 ], [ 119.6068642424177, 30.745704553121723 ], [ 119.693115641005846, 30.753486634197326 ], [ 119.769639438249428, 30.724952336920058 ], [ 119.785203600400664, 30.677611343710037 ], [ 119.78585210715697, 30.626379309962214 ], [ 119.835138620635888, 30.614706188348773 ], [ 119.883776627358515, 30.606924107273155 ], [ 119.967433998921436, 30.678259850466347 ], [ 120.016720512400354, 30.797585093625855 ], [ 120.012180965106253, 30.833252965222432 ], [ 119.962245944871015, 30.865029796281227 ], [ 119.874697532770298, 30.88643051923917 ], [ 119.80336178957711, 30.931825992180286 ], [ 119.780015546350256, 31.027804992112934 ], [ 119.759911836904919, 31.092007160986814 ], [ 119.578329945140439, 31.156857836616982 ], [ 119.383777918249947, 31.1646399176926 ], [ 118.919447080737953, 31.047908701558303 ], [ 118.618539945813978, 30.798882107138461 ], [ 118.561471351259428, 30.731437404483088 ], [ 118.561471351259428, 30.645834512651266 ], [ 118.718680197432974, 30.453363111603799 ], [ 118.66263840524249, 30.443500404685146 ], [ 118.600381756637532, 30.451282485760768 ], [ 118.518021398587365, 30.455822033054872 ], [ 118.427230452705118, 30.432475789828022 ], [ 118.354597695999317, 30.401347465525525 ], [ 118.310499236570806, 30.323526654769342 ], [ 118.271588831192702, 30.199013357559405 ], [ 118.188579966386101, 30.113410465727604 ], [ 118.074442777277, 30.05893589819825 ], [ 117.991433912470384, 30.10822241167719 ], [ 117.913613101714191, 30.204201411609837 ], [ 117.81504007475634, 30.227547654836698 ], [ 117.770941615327828, 30.167885033256944 ], [ 117.708684966722856, 30.144538790030083 ], [ 117.37222132755457, 30.030295925742653 ], [ 117.370435092032949, 30.075547225623829 ], [ 117.320420497427435, 30.102936170288753 ], [ 117.294222376443599, 30.146996646488848 ], [ 117.28231413963276, 30.189866299007857 ], [ 117.294222376443599, 30.227972656802535 ], [ 117.388892859089864, 30.29644501846483 ], [ 117.46786708485844, 30.364975543562892 ], [ 117.536626472277192, 30.430745392398222 ], [ 117.55157416519431, 30.571253705819153 ], [ 117.612705966790159, 30.655562113995924 ], [ 117.752783426151254, 30.74375903285295 ], [ 117.850707946352813, 30.847520113861222 ], [ 117.845519892302377, 30.924692417861117 ], [ 117.868217628772953, 31.000567708348409 ], [ 118.286504486587518, 31.189283174432198 ], [ 118.588708635024105, 31.27229203923882 ], [ 118.669771979561858, 31.368271039171447 ], [ 118.695712249813923, 31.422745606700786 ], [ 118.761211432200341, 31.457764971541081 ], [ 119.004401465813501, 31.479814201255333 ], [ 119.181443810283824, 31.535585782297282 ], [ 119.326709323695397, 31.582278268751004 ], [ 119.422039816871774, 31.635455822767732 ], [ 119.482350945207799, 31.711979620011338 ], [ 119.5076427087036, 31.785909390229715 ], [ 119.513479269510285, 31.955818160380765 ], [ 119.551741168132111, 32.008995714397486 ], [ 119.6379925667202, 32.044015079237788 ], [ 119.730729032871366, 32.019371822498314 ], [ 119.829302059829217, 31.972679336044592 ], [ 119.886370654383754, 31.957115173893353 ], [ 120.011532458349947, 31.984352457658037 ], [ 120.063412998854091, 32.028450917086552 ], [ 119.964839971896225, 32.108865754867956 ], [ 119.922687032736647, 32.154261227809059 ], [ 119.938899701644175, 32.204844754800604 ], [ 119.990131735392026, 32.25283425476691 ], [ 120.063412998854091, 32.282665565556805 ], [ 120.193114350114428, 32.282665565556812 ], [ 120.299469458147911, 32.254131268279544 ], [ 120.418146194551113, 32.185389552111538 ], [ 120.485590897206478, 32.104974714330133 ], [ 120.623722836298782, 31.976570376582416 ], [ 120.73202346460117, 31.946090559036236 ], [ 120.84680916046652, 31.935065944179119 ], [ 120.914253863121886, 31.953224133355565 ], [ 120.963540376600818, 32.038827025187388 ], [ 120.992074673878093, 32.145182133220857 ], [ 121.067301457609076, 32.238567106128301 ], [ 121.178844619692967, 32.344922214161777 ], [ 121.390405, 32.460682 ], [ 121.425513, 32.430885 ], [ 121.450151, 32.282256 ], [ 121.493882, 32.263533 ], [ 121.499426, 32.211394 ], [ 121.458774, 32.177462 ], [ 121.542542, 32.152132 ], [ 121.525295, 32.136423 ], [ 121.759352, 32.059362 ], [ 121.772287, 32.032984 ], [ 121.856055, 31.955328 ], [ 121.889315, 31.866425 ], [ 121.948277, 31.705726 ], [ 121.88312, 31.690795 ], [ 121.879638, 31.632657 ], [ 121.639717, 31.697618 ], [ 121.58992, 31.703503 ], [ 121.495987, 31.752167 ], [ 121.416039, 31.775679 ], [ 121.4049, 31.794332 ], [ 121.406715, 31.803141 ], [ 121.386615, 31.824557 ], [ 121.367264, 31.848284 ], [ 121.289795, 31.871572 ], [ 121.221222, 31.848349 ], [ 121.180206, 31.827146 ], [ 121.098747, 31.765061 ], [ 121.342268322280916, 31.570605147137581 ], [ 121.622369198773569, 31.399858722426018 ], [ 121.741262104095526, 31.309067776543795 ], [ 121.814342, 31.17513 ], [ 121.990945, 30.96859 ], [ 121.994025, 30.862823 ], [ 121.904714, 30.814007 ], [ 121.681128, 30.818633 ], [ 121.517288, 30.775451 ], [ 121.36820859253298, 30.683447904516907 ], [ 121.239499, 30.648878 ], [ 121.148956, 30.599953 ], [ 121.058413, 30.563888 ], [ 121.225333, 30.404526 ], [ 121.328195, 30.397299 ], [ 121.395332, 30.338435 ], [ 121.497578, 30.258861 ], [ 121.721164, 29.992802 ], [ 121.78399, 29.99332 ], [ 121.919497, 29.920729 ], [ 121.971235, 29.955476 ], [ 122.00388, 29.92021 ], [ 122.00696, 29.891678 ], [ 122.140003, 29.901535 ], [ 122.143082, 29.877668 ], [ 122.043916, 29.822647 ], [ 122.003264, 29.762401 ], [ 121.937359, 29.748373 ], [ 121.833265, 29.653242 ], [ 121.872685, 29.632437 ], [ 121.909641, 29.650122 ], [ 121.966308, 29.636078 ], [ 122.000185, 29.582486 ], [ 121.995257, 29.545007 ], [ 121.968772, 29.515846 ], [ 121.973083, 29.477821 ], [ 121.993409, 29.45229 ], [ 121.975547, 29.411113 ], [ 121.937975, 29.384 ], [ 121.936127, 29.348012 ], [ 121.958301, 29.334448 ], [ 121.94475, 29.28435 ], [ 122.000185, 29.278608 ], [ 122.002032, 29.260336 ], [ 121.966924, 29.249894 ], [ 121.971851, 29.193485 ], [ 121.988482, 29.110906 ], [ 121.970004, 29.092604 ], [ 121.966308, 29.052852 ], [ 121.884388, 29.105677 ], [ 121.85975, 29.086328 ], [ 121.811091, 29.10986 ], [ 121.780294, 29.10986 ], [ 121.767975, 29.166837 ], [ 121.750113, 29.136523 ], [ 121.715621, 29.125022 ], [ 121.608447, 29.168927 ], [ 121.616454, 29.143318 ], [ 121.660186, 29.118226 ], [ 121.660543883196425, 29.101382283819689 ], [ 121.658954, 29.058606 ], [ 121.712541, 29.028783 ], [ 121.711309, 28.985865 ], [ 121.743338, 28.954451 ], [ 121.772287, 28.898404 ], [ 121.774751, 28.863818 ], [ 121.687287, 28.863294 ], [ 121.704534, 28.804577 ], [ 121.689135, 28.719062 ], [ 121.646019, 28.682842 ], [ 121.540694, 28.655537 ], [ 121.557324, 28.645033 ], [ 121.596128, 28.575156 ], [ 121.634317, 28.562542 ] ], [ [ 117.89291492774224, 30.681637489821966 ], [ 117.875621414240868, 30.612463435816458 ], [ 117.899832333142797, 30.536371976410404 ], [ 117.986299900649684, 30.543289381810954 ], [ 118.183445954565371, 30.629756949317837 ], [ 118.363298494979688, 30.761187651928296 ], [ 118.574279359696476, 30.972168516645088 ], [ 118.460142170587389, 31.041342570650592 ], [ 118.235326495069501, 30.920287976140958 ], [ 118.090060981657928, 30.768105057328846 ], [ 117.89291492774224, 30.681637489821966 ] ] ] } },
{ "type": "Feature", "properties": { }, "geometry": null },
{ "type": "Feature", "properties": { }, "geometry": null },
{ "type": "Feature", "properties": { }, "geometry": null },
{ "type": "Feature", "properties": { }, "geometry": null },
{ "type": "Feature", "properties": { }, "geometry": null },
{ "type": "Feature", "properties": { }, "geometry": null },
{ "type": "Feature", "properties": { }, "geometry": null },
{ "type": "Feature", "properties": { }, "geometry": null },
{ "type": "Feature", "properties": { }, "geometry": { "type": "Polygon", "coordinates": [ [ [ 117.040723007731984, 29.841037628080887 ], [ 117.123731872538599, 29.908482330736263 ], [ 117.230086980572068, 29.981115087442049 ], [ 117.266403358925004, 29.998624769862197 ], [ 117.35395177102572, 29.982412100954654 ], [ 117.367570412908066, 30.003812823912607 ], [ 117.37222132755457, 30.030295925742653 ], [ 117.708684966722856, 30.144538790030083 ], [ 117.770941615327828, 30.167885033256944 ], [ 117.81504007475634, 30.227547654836698 ], [ 117.913613101714191, 30.204201411609837 ], [ 117.991433912470384, 30.10822241167719 ], [ 118.074442777277, 30.05893589819825 ], [ 118.188579966386101, 30.113410465727604 ], [ 118.271588831192702, 30.199013357559405 ], [ 118.310499236570806, 30.323526654769342 ], [ 118.354597695999317, 30.401347465525525 ], [ 118.427230452705118, 30.432475789828022 ], [ 118.518021398587365, 30.455822033054872 ], [ 118.600381756637532, 30.451282485760768 ], [ 118.66263840524249, 30.443500404685146 ], [ 118.718680197432974, 30.453363111603799 ], [ 118.753267224435731, 30.434340246752285 ], [ 118.75083532409954, 30.392916877693619 ], [ 118.756023378149962, 30.363085566903742 ], [ 118.790394236234036, 30.318338600718914 ], [ 118.846165817275974, 30.272943127777811 ], [ 118.891561290217098, 30.231438695374504 ], [ 118.911016492906057, 30.099143317088959 ], [ 118.951223911796859, 29.975927033391635 ], [ 119.147721458956156, 29.907833823979967 ], [ 119.311145161544175, 29.819636905122938 ], [ 119.364322715560917, 29.778132472719633 ], [ 119.388317465544077, 29.702257182232337 ], [ 119.440198006048234, 29.597199087711466 ], [ 119.518018816804414, 29.580337912047625 ], [ 119.742402154484836, 29.551803614770368 ], [ 119.80336178957721, 29.536239452619128 ], [ 119.80336178957721, 29.475279817526772 ], [ 119.695709668031157, 29.358548601392464 ], [ 119.610106776199331, 29.301480006837899 ], [ 119.520612843829696, 29.313153128451347 ], [ 119.446683073611311, 29.352063533829448 ], [ 119.383129411493741, 29.339093398703408 ], [ 119.288447425073699, 29.228847250132112 ], [ 119.208032587292294, 29.208095033930476 ], [ 119.122429695460468, 29.208095033930459 ], [ 119.077034222519359, 29.218471142031305 ], [ 119.038123817141255, 29.259975574434609 ], [ 118.968085087460679, 29.318341182501761 ], [ 118.913610519931339, 29.32223222303957 ], [ 118.863026992939808, 29.301480006837899 ], [ 118.777424101107982, 29.224956209594321 ], [ 118.738513695729878, 29.191233858266635 ], [ 118.686633155225749, 29.192530871779219 ], [ 118.63475261472162, 29.230144263644736 ], [ 118.589357141780496, 29.296291952787506 ], [ 118.569901939091451, 29.352063533829448 ], [ 118.516724385074738, 29.415617195947007 ], [ 118.476516966184036, 29.453230587812502 ], [ 118.423339412167294, 29.462309682400726 ], [ 118.339033533848067, 29.431181358098232 ], [ 118.245648560940637, 29.368924709493285 ], [ 118.252133628503657, 29.323529236552169 ], [ 118.227490371764219, 29.287212858199275 ], [ 118.115947209680286, 29.218471142031287 ], [ 118.079630831327435, 29.163996574501958 ], [ 118.083521871865244, 29.103036939409602 ], [ 118.109462142117309, 29.048562371880262 ], [ 118.148372547495413, 29.001869885426544 ], [ 118.108165128604696, 28.969444547611467 ], [ 118.025156263798081, 28.975929615174483 ], [ 117.997918980033418, 28.949989344922415 ], [ 117.997918980033418, 28.896811790905677 ], [ 118.066660696201396, 28.790456682872204 ], [ 118.073145763764416, 28.728200034267246 ], [ 118.051096534050146, 28.68280456132613 ], [ 117.992730925982997, 28.675022480250508 ], [ 117.923989209815019, 28.710041845090799 ], [ 117.857841520672252, 28.700962750502576 ], [ 117.78484173305003, 28.665016575380243 ], [ 117.562122439798529, 28.748952250468871 ], [ 117.539424703327938, 28.802454057863741 ], [ 117.552394838453978, 29.194152138669953 ], [ 117.539424703327938, 29.274566976451361 ], [ 117.520618007395214, 29.337796385190789 ], [ 117.458361358790228, 29.381894844619303 ], [ 117.354600277781969, 29.409132128383973 ], [ 117.149672142790635, 29.409132128383973 ], [ 117.05888119690843, 29.449339547274679 ], [ 117.001812602353851, 29.567367776921582 ], [ 117.004406629379091, 29.677613925492867 ], [ 117.012188710454708, 29.758028763274275 ], [ 117.040723007731984, 29.841037628080887 ] ] ] } },
{ "type": "Feature", "properties": { }, "geometry": { "type": "Polygon", "coordinates": [ [ [ 118.618539945813978, 30.798882107138461 ], [ 118.919447080737953, 31.047908701558303 ], [ 119.383777918249947, 31.1646399176926 ], [ 119.578329945140439, 31.156857836616982 ], [ 119.759911836904919, 31.092007160986814 ], [ 119.780015546350256, 31.027804992112934 ], [ 119.80336178957711, 30.931825992180286 ], [ 119.874697532770298, 30.88643051923917 ], [ 119.962245944871015, 30.865029796281227 ], [ 120.012180965106253, 30.833252965222432 ], [ 120.016720512400354, 30.797585093625855 ], [ 119.967433998921436, 30.678259850466347 ], [ 119.883776627358515, 30.606924107273155 ], [ 119.835138620635888, 30.614706188348773 ], [ 119.78585210715697, 30.626379309962214 ], [ 119.785203600400664, 30.677611343710037 ], [ 119.769639438249428, 30.724952336920058 ], [ 119.693115641005846, 30.753486634197326 ], [ 119.6068642424177, 30.745704553121723 ], [ 119.502454654653164, 30.695121026130174 ], [ 119.417500269577602, 30.649725553189079 ], [ 119.375347330418037, 30.622488269424387 ], [ 119.350055566922293, 30.590062931609307 ], [ 119.336436925039933, 30.561528634332031 ], [ 119.337085431796254, 30.522618228953935 ], [ 119.412312215527251, 30.449985472248148 ], [ 119.455113661443164, 30.407832533088538 ], [ 119.474568864132209, 30.356600499340708 ], [ 119.434361445241507, 30.317690093962611 ], [ 119.378589864199569, 30.304719958836571 ], [ 119.320224256132406, 30.3125020399122 ], [ 119.292986972367743, 30.33066022908864 ], [ 119.178849783258642, 30.387728823643187 ], [ 119.146424445443557, 30.434421310096912 ], [ 119.085464810351183, 30.477222756012836 ], [ 119.034881283359681, 30.459064566836375 ], [ 118.992079837443768, 30.427936242533889 ], [ 118.916853053712771, 30.409778053357442 ], [ 118.858487445645622, 30.411075066870048 ], [ 118.810497945679302, 30.429233256046494 ], [ 118.753267224435731, 30.434340246752285 ], [ 118.718680197432974, 30.453363111603799 ], [ 118.561471351259428, 30.645834512651266 ], [ 118.561471351259428, 30.731437404483088 ], [ 118.618539945813978, 30.798882107138461 ] ] ] } },
{ "type": "Feature", "properties": { }, "geometry": { "type": "Polygon", "coordinates": [ [ [ 118.090060981657928, 30.768105057328846 ], [ 118.235326495069501, 30.920287976140958 ], [ 118.460142170587389, 31.041342570650592 ], [ 118.574279359696476, 30.972168516645088 ], [ 118.363298494979688, 30.761187651928296 ], [ 118.183445954565371, 30.629756949317837 ], [ 117.986299900649684, 30.543289381810954 ], [ 117.899832333142797, 30.536371976410404 ], [ 117.875621414240868, 30.612463435816458 ], [ 117.89291492774224, 30.681637489821966 ], [ 118.090060981657928, 30.768105057328846 ] ] ] } },
{ "type": "Feature", "properties": { }, "geometry": { "type": "Polygon", "coordinates": [ [ [ 121.074602, 27.987554 ], [ 121.112606, 27.986718 ], [ 121.138867, 27.963085 ], [ 121.121606, 27.94977 ], [ 121.079564, 27.941935 ], [ 121.038349, 27.951755 ], [ 121.03979, 27.966642 ], [ 121.074602, 27.987554 ] ] ] } },
{ "type": "Feature", "properties": { }, "geometry": { "type": "Polygon", "coordinates": [ [ [ 121.849896, 30.103449 ], [ 121.879134, 30.092837 ], [ 121.902941, 30.055491 ], [ 121.917372, 30.042425 ], [ 121.927769, 30.007746 ], [ 121.926192, 29.999037 ], [ 121.892031, 29.983798 ], [ 121.872205, 29.96982 ], [ 121.847935, 29.97342 ], [ 121.845552, 29.988324 ], [ 121.835862, 29.992547 ], [ 121.842618, 30.010896 ], [ 121.83784, 30.049599 ], [ 121.852401, 30.070511 ], [ 121.847973, 30.077887 ], [ 121.849896, 30.103449 ] ] ] } },
{ "type": "Feature", "properties": { }, "geometry": { "type": "Polygon", "coordinates": [ [ [ 121.953029, 30.184475 ], [ 121.988288, 30.162821 ], [ 122.019255333630113, 30.151267047626686 ], [ 122.045773, 30.147105 ], [ 122.096966, 30.15933 ], [ 122.115783, 30.149349 ], [ 122.137971, 30.119301 ], [ 122.184569, 30.109764 ], [ 122.237348, 30.109239 ], [ 122.261921, 30.10123 ], [ 122.29082, 30.102062 ], [ 122.298223, 30.091921 ], [ 122.295273, 30.077985 ], [ 122.257745, 30.077824 ], [ 122.255548, 30.065504 ], [ 122.287544, 30.065326 ], [ 122.307759, 30.03786 ], [ 122.321262, 30.030907 ], [ 122.335688, 29.997569 ], [ 122.318245, 29.958501 ], [ 122.307059, 29.946463 ], [ 122.273281, 29.943264 ], [ 122.229883, 29.972296 ], [ 122.162553, 29.994511 ], [ 122.120111, 29.989905 ], [ 122.104556, 30.007899 ], [ 122.065809, 30.011065 ], [ 122.025472, 29.993677 ], [ 122.016997, 30.013093 ], [ 121.97478, 30.059435 ], [ 121.988675, 30.074077 ], [ 121.985127, 30.102615 ], [ 121.935439, 30.162342 ], [ 121.93688, 30.172322 ], [ 121.953029, 30.184475 ] ] ] } },
{ "type": "Feature", "properties": { }, "geometry": { "type": "Polygon", "coordinates": [ [ [ 122.185911, 30.330904 ], [ 122.216728, 30.335035 ], [ 122.217879, 30.318037 ], [ 122.234581, 30.299799 ], [ 122.217372, 30.292387 ], [ 122.230682, 30.271632 ], [ 122.222797, 30.250846 ], [ 122.225585, 30.235864 ], [ 122.199654, 30.238699 ], [ 122.190473, 30.246744 ], [ 122.148269, 30.248764 ], [ 122.130286, 30.255796 ], [ 122.100857, 30.278135 ], [ 122.05595, 30.29432 ], [ 122.065914, 30.308233 ], [ 122.081834, 30.291963 ], [ 122.089785, 30.301833 ], [ 122.114027, 30.318605 ], [ 122.129351, 30.315158 ], [ 122.146697, 30.31789 ], [ 122.1732, 30.341324 ], [ 122.170882, 30.353394 ], [ 122.185911, 30.330904 ] ] ] } },
{ "type": "Feature", "properties": { }, "geometry": { "type": "Polygon", "coordinates": [ [ [ 121.939466, 30.335387 ], [ 121.961612, 30.336385 ], [ 121.976322, 30.345078 ], [ 121.988422, 30.328603 ], [ 121.995303, 30.309006 ], [ 121.984585, 30.293644 ], [ 121.963766, 30.298652 ], [ 121.951751, 30.293647 ], [ 121.925331, 30.309562 ], [ 121.939466, 30.335387 ] ] ] } },
{ "type": "Feature", "properties": { }, "geometry": { "type": "Polygon", "coordinates": [ [ [ 122.274161, 30.474733 ], [ 122.28578, 30.477914 ], [ 122.293576, 30.46768 ], [ 122.350584, 30.45921 ], [ 122.368445, 30.459758 ], [ 122.385916, 30.452449 ], [ 122.393889, 30.456804 ], [ 122.413137, 30.452385 ], [ 122.422788, 30.442524 ], [ 122.421017, 30.43156 ], [ 122.434732, 30.41447 ], [ 122.4177, 30.412793 ], [ 122.395588, 30.426575 ], [ 122.376179, 30.41994 ], [ 122.361169, 30.431278 ], [ 122.343576, 30.432105 ], [ 122.341118, 30.416064 ], [ 122.310862, 30.413448 ], [ 122.282399, 30.427547 ], [ 122.281619, 30.452749 ], [ 122.274161, 30.474733 ] ] ] } },
{ "type": "Feature", "properties": { }, "geometry": { "type": "Polygon", "coordinates": [ [ [ 122.121158, 29.79387 ], [ 122.195579, 29.71262 ], [ 122.186825, 29.669466 ], [ 122.150367, 29.674712 ], [ 122.106517, 29.721122 ], [ 122.072655, 29.706722 ], [ 122.046479, 29.717499 ], [ 122.081015, 29.783126 ], [ 122.121158, 29.79387 ] ] ] } },
{ "type": "Feature", "properties": { }, "geometry": { "type": "Polygon", "coordinates": [ [ [ 121.879638, 31.632657 ], [ 121.878764, 31.611921 ], [ 121.978654, 31.528963 ], [ 121.983262, 31.498673 ], [ 121.953197, 31.506583 ], [ 121.938602, 31.479093 ], [ 121.882599, 31.443054 ], [ 121.829696, 31.439884 ], [ 121.713762, 31.498331 ], [ 121.655727, 31.517368 ], [ 121.61632, 31.51974 ], [ 121.477397, 31.587292 ], [ 121.345356, 31.64411 ], [ 121.313427, 31.66734 ], [ 121.291624, 31.692882 ], [ 121.245719, 31.704922 ], [ 121.244379, 31.727732 ], [ 121.213275, 31.733689 ], [ 121.188506, 31.76523 ], [ 121.162666, 31.789844 ], [ 121.216324, 31.833574 ], [ 121.264416, 31.856551 ], [ 121.293216, 31.866154 ], [ 121.337019, 31.851022 ], [ 121.386615, 31.824557 ], [ 121.406715, 31.803141 ], [ 121.416039, 31.775679 ], [ 121.495987, 31.752167 ], [ 121.58992, 31.703503 ], [ 121.639717, 31.697618 ], [ 121.879638, 31.632657 ] ] ] } },
{ "type": "Feature", "properties": { }, "geometry": { "type": "Polygon", "coordinates": [ [ [ 121.796981, 31.382294 ], [ 121.992450387702974, 31.329387654907904 ], [ 122.108101, 31.319428 ], [ 122.113366, 31.309615 ], [ 122.090518, 31.26425 ], [ 122.008134, 31.28921 ], [ 121.934134, 31.284699 ], [ 121.910409, 31.291788 ], [ 121.829076, 31.302758 ], [ 121.80366, 31.331531 ], [ 121.796981, 31.382294 ] ] ] } },
{ "type": "Feature", "properties": { }, "geometry": { "type": "Polygon", "coordinates": [ [ [ 121.512859, 31.493289 ], [ 121.603308, 31.485357 ], [ 121.720794, 31.424925 ], [ 121.717268, 31.410561 ], [ 121.765254, 31.389212 ], [ 121.786709, 31.359951 ], [ 121.791695, 31.31338 ], [ 121.762097, 31.320405 ], [ 121.734652, 31.352609 ], [ 121.612038, 31.425947 ], [ 121.575504, 31.439438 ], [ 121.512859, 31.493289 ] ] ] } },
{ "type": "Feature", "properties": { }, "geometry": { "type": "Polygon", "coordinates": [ [ [ 122.346119, 29.960083 ], [ 122.35193, 29.950175 ], [ 122.368596, 29.951355 ], [ 122.387158, 29.939553 ], [ 122.412093, 29.947984 ], [ 122.417816, 29.927405 ], [ 122.409427, 29.912481 ], [ 122.426401, 29.911087 ], [ 122.40932, 29.878586 ], [ 122.391696, 29.86784 ], [ 122.391678, 29.853744 ], [ 122.408786, 29.849247 ], [ 122.406384, 29.831481 ], [ 122.38903, 29.834524 ], [ 122.374475, 29.847531 ], [ 122.369693, 29.859025 ], [ 122.376835, 29.883906 ], [ 122.370102, 29.895992 ], [ 122.346247, 29.905366 ], [ 122.323408, 29.932318 ], [ 122.346119, 29.960083 ] ] ] } },
{ "type": "Feature", "properties": { }, "geometry": { "type": "Polygon", "coordinates": [ [ [ 121.956833, 31.231356 ], [ 122.002383, 31.221654 ], [ 122.02354, 31.22424 ], [ 122.029053, 31.198587 ], [ 122.007616, 31.16065 ], [ 121.989931, 31.154252 ], [ 121.956892, 31.165608 ], [ 121.937389, 31.194718 ], [ 121.937179, 31.21946 ], [ 121.956833, 31.231356 ] ] ] } },
{ "type": "Feature", "properties": { }, "geometry": { "type": "Polygon", "coordinates": [ [ [ 121.890775, 31.245006 ], [ 121.920797, 31.232666 ], [ 121.917123, 31.198141 ], [ 121.896429, 31.206651 ], [ 121.875395, 31.231159 ], [ 121.890775, 31.245006 ] ] ] } },
{ "type": "Feature", "properties": { }, "geometry": { "type": "Polygon", "coordinates": [ [ [ 122.220045, 29.83518 ], [ 122.234476, 29.84781 ], [ 122.256325, 29.849432 ], [ 122.271613, 29.842572 ], [ 122.280066, 29.846381 ], [ 122.315116, 29.828739 ], [ 122.301284, 29.801714 ], [ 122.313635, 29.778622 ], [ 122.272816, 29.788894 ], [ 122.249499, 29.805572 ], [ 122.243326, 29.819229 ], [ 122.220045, 29.83518 ] ] ] } },
{ "type": "Feature", "properties": { }, "geometry": { "type": "Polygon", "coordinates": [ [ [ 122.234396, 29.784137 ], [ 122.253481, 29.777661 ], [ 122.244383, 29.756124 ], [ 122.303448, 29.74362 ], [ 122.289491, 29.734516 ], [ 122.2499, 29.74007 ], [ 122.214901, 29.768548 ], [ 122.221635, 29.783326 ], [ 122.234396, 29.784137 ] ] ] } },
{ "type": "Feature", "properties": { }, "geometry": { "type": "Polygon", "coordinates": [ [ [ 122.259793, 30.270974 ], [ 122.29322, 30.27183 ], [ 122.307402, 30.266055 ], [ 122.310299, 30.252708 ], [ 122.315191, 30.251224 ], [ 122.320424, 30.266729 ], [ 122.362103, 30.272685 ], [ 122.37749, 30.270274 ], [ 122.396336, 30.275801 ], [ 122.40653, 30.256026 ], [ 122.418231, 30.253007 ], [ 122.404729, 30.233286 ], [ 122.393327, 30.228386 ], [ 122.34891, 30.240509 ], [ 122.323599, 30.236722 ], [ 122.29479, 30.237565 ], [ 122.281879, 30.229559 ], [ 122.277146, 30.243929 ], [ 122.315191, 30.251224 ], [ 122.310299, 30.252708 ], [ 122.269742, 30.247292 ], [ 122.25726, 30.237934 ], [ 122.251421, 30.256195 ], [ 122.259793, 30.270974 ] ] ] } },
{ "type": "Feature", "properties": { }, "geometry": { "type": "Polygon", "coordinates": [ [ [ 122.425878, 30.745137 ], [ 122.441816, 30.746575 ], [ 122.471349, 30.715034 ], [ 122.489563, 30.712857 ], [ 122.528012, 30.724356 ], [ 122.530616, 30.702283 ], [ 122.498565, 30.70827 ], [ 122.461929, 30.69906 ], [ 122.428621, 30.696188 ], [ 122.426888, 30.706608 ], [ 122.439887, 30.717862 ], [ 122.437855, 30.736897 ], [ 122.425878, 30.745137 ] ] ] } }
]
}
