{
"type": "FeatureCollection",
"name": "阿拉斯加",
"crs": { "type": "name", "properties": { "name": "urn:ogc:def:crs:EPSG::4979" } },
"features": [
{ "type": "Feature", "properties": { "id": "MY0001", "name": "梅雨1区", "styleUrl": null, "Area": null }, "geometry": { "type": "Polygon", "coordinates": [ [ [ 115.618959887196866, 32.047534535565667, 0.0 ], [ 115.970629748554742, 32.389006435472751, 0.0 ], [ 116.40222457840305, 32.668659556927629, 0.0 ], [ 118.044682680881365, 33.638885983660415, 0.0 ], [ 118.831943620512035, 34.057072877269981, 0.0 ], [ 119.547272088501373, 34.248882289443216, 0.0 ], [ 120.026821899443959, 34.387506530222531, 0.0 ], [ 120.290574295462335, 34.301718517990004, 0.0 ], [ 120.562319188329795, 33.658846020667241, 0.0 ], [ 120.969936527630978, 32.897122907926857, 0.0 ], [ 120.959423, 32.761369, 0.0 ], [ 120.981925272904547, 32.655202277556654, 0.0 ], [ 121.039828, 32.589019, 0.0 ], [ 121.425508848026411, 32.385631817495948, 0.0 ], [ 121.349580127960508, 32.389006435472766, 0.0 ], [ 121.229692675224882, 32.375507207167288, 0.0 ], [ 121.045865247696909, 32.338373931548389, 0.0 ], [ 120.782112851678477, 32.250543794977069, 0.0 ], [ 120.58230043045242, 32.162628624757396, 0.0 ], [ 120.198660581698363, 32.006878478093121, 0.0 ], [ 119.719110770755805, 31.878015344787162, 0.0 ], [ 118.779992390993257, 31.721781671387486, 0.0 ], [ 117.097571804269819, 31.2788279984604, 0.0 ], [ 116.733913197638586, 31.248938543524197, 0.0 ], [ 116.402224578403107, 31.237834335200223, 0.0 ], [ 116.034569723347147, 31.282243333311406, 0.0 ], [ 115.447121204942462, 31.381234207725825, 0.0 ], [ 115.495076186036741, 31.73537769003088, 0.0 ], [ 115.618959887196866, 32.047534535565667, 0.0 ] ] ] } },
{ "type": "Feature", "id": "08121D520D40ECC5C83C", "properties": { "name": "科迪亚克", "styleUrl": "#__managed_style_0665B01D9540EC9A485F", "Area": null }, "geometry": null },
{ "type": "Feature", "id": "02198DC92140ECC67CD6", "properties": { "name": "阿留申1", "styleUrl": "#__managed_style_0665B01D9540EC9A485F", "Area": 296633898 }, "geometry": null },
{ "type": "Feature", "id": "0AF741B39940ECC6C524", "properties": { "name": "阿留申2", "styleUrl": "#__managed_style_0665B01D9540EC9A485F", "Area": 176685822 }, "geometry": null },
{ "type": "Feature", "id": "0BA92050F540ECC6FF18", "properties": { "name": "阿留申3", "styleUrl": "#__managed_style_0665B01D9540EC9A485F", "Area": 57061943 }, "geometry": null },
{ "type": "Feature", "id": "0C983EF29D40ECC727DE", "properties": { "name": "阿留申4", "styleUrl": "#__managed_style_0665B01D9540EC9A485F", "Area": 193146851 }, "geometry": null },
{ "type": "Feature", "id": "05083AFA9040ECC7AB04", "properties": { "name": "阿留申5", "styleUrl": "#__managed_style_0665B01D9540EC9A485F", "Area": 1679666187 }, "geometry": null },
{ "type": "Feature", "id": "044F33FDD540ECC85CEB", "properties": { "name": "阿留申6", "styleUrl": "#__managed_style_0665B01D9540EC9A485F", "Area": 1327272194 }, "geometry": null },
{ "type": "Feature", "id": "02044742D740ECC8DD50", "properties": { "name": "阿留申7", "styleUrl": "#__managed_style_0665B01D9540EC9A485F", "Area": 1022884992 }, "geometry": null },
{ "type": "Feature", "id": "0E389160C840ECC932C8", "properties": { "name": "阿留申8", "styleUrl": "#__managed_style_0665B01D9540EC9A485F", "Area": 67034342 }, "geometry": null },
{ "type": "Feature", "properties": { "id": "MY0002", "name": "梅雨2区", "styleUrl": null, "Area": null }, "geometry": { "type": "Polygon", "coordinates": [ [ [ 110.963330472629494, 29.925373553109281, 0.0 ], [ 110.911379243110702, 30.091480275609285, 0.0 ], [ 110.875413007290021, 30.367705275071732, 0.0 ], [ 110.909381118898438, 30.624240203520852, 0.0 ], [ 110.979315466327591, 30.849224241419538, 0.0 ], [ 111.135169154883897, 31.0308871736149, 0.0 ], [ 111.330985327685454, 31.191695191678416, 0.0 ], [ 111.634700207949066, 31.369292559092532, 0.0 ], [ 112.018340056703124, 31.573796279305274, 0.0 ], [ 112.449934886551418, 31.703083889085679, 0.0 ], [ 112.681717295173655, 31.7676602376714, 0.0 ], [ 112.88152971639974, 31.798233317654081, 0.0 ], [ 113.353087030493256, 31.825400900705123, 0.0 ], [ 113.800666854039648, 31.784646530054086, 0.0 ], [ 114.108377982727802, 31.754068958033226, 0.0 ], [ 114.352149136623581, 31.669078264066439, 0.0 ], [ 114.643875271613666, 31.59422205931498, 0.0 ], [ 114.911623916056598, 31.515898933373151, 0.0 ], [ 115.211342547895697, 31.427280630722979, 0.0 ], [ 115.447121204942462, 31.381234207725825, 0.0 ], [ 116.034569723347147, 31.282243333311406, 0.0 ], [ 116.402224578403107, 31.237834335200223, 0.0 ], [ 116.733913197638586, 31.248938543524197, 0.0 ], [ 117.097571804269819, 31.2788279984604, 0.0 ], [ 118.779992390993257, 31.721781671387486, 0.0 ], [ 119.719110770755805, 31.878015344787162, 0.0 ], [ 120.198660581698363, 32.006878478093121, 0.0 ], [ 120.58230043045242, 32.162628624757396, 0.0 ], [ 120.782112851678477, 32.250543794977069, 0.0 ], [ 121.045865247696909, 32.338373931548389, 0.0 ], [ 121.229692675224882, 32.375507207167288, 0.0 ], [ 121.425508848026411, 32.385631817495948, 0.0 ], [ 121.473463829120846, 32.321490130426831, 0.0 ], [ 121.481456325969887, 32.262372038290728, 0.0 ], [ 121.485452574394415, 32.1947613262925, 0.0 ], [ 121.52141881021511, 32.15247910047168, 0.0 ], [ 121.725128, 32.063583, 0.0 ], [ 121.804995, 31.966411, 0.0 ], [ 121.925288, 31.76358, 0.0 ], [ 121.953827, 31.736666, 0.0 ], [ 121.948277, 31.705726, 0.0 ], [ 121.996972372733126, 31.510788620076816, 0.0 ], [ 122.047924540145758, 31.401702073728895, 0.0 ], [ 122.113366, 31.309615, 0.0 ], [ 122.134842943379155, 31.260041446159526, 0.0 ], [ 122.138839191803683, 31.205368396118097, 0.0 ], [ 122.138839191803683, 31.136982620996434, 0.0 ], [ 122.120856073893322, 31.082238469387793, 0.0 ], [ 122.052919850676474, 30.955521836571535, 0.0 ], [ 122.002966745369946, 30.893815022386679, 0.0 ], [ 121.96059, 30.877841, 0.0 ], [ 121.887817, 30.848762, 0.0 ], [ 121.834707, 30.845348, 0.0 ], [ 121.694256554575631, 30.840646713277565, 0.0 ], [ 121.503435692304734, 30.787448928925595, 0.0 ], [ 121.121365, 30.596095, 0.0 ], [ 120.993914018178302, 30.493474696278522, 0.0 ], [ 120.915816, 30.39172, 0.0 ], [ 120.999621, 30.320239, 0.0 ], [ 120.738154119008769, 30.205517100545386, 0.0 ], [ 120.22263807224553, 30.029222851918082, 0.0 ], [ 119.095696016530482, 29.786739145325672, 0.0 ], [ 118.256483847380991, 29.640966092695862, 0.0 ], [ 117.585114112061405, 29.508894058926554, 0.0 ], [ 117.073594313722666, 29.397541666166454, 0.0 ], [ 116.414213323676648, 29.251206457748037, 0.0 ], [ 115.942656009583146, 29.198893049114425, 0.0 ], [ 115.171380063650503, 29.010343860298569, 0.0 ], [ 114.679841507434389, 28.814447287618897, 0.0 ], [ 114.376126627170734, 28.649749117734814, 0.0 ], [ 113.712749388700189, 27.804718906142917, 0.0 ], [ 113.169259602965283, 27.893054237298717, 0.0 ], [ 112.833574735305504, 27.974259129383444, 0.0 ], [ 112.441942389702405, 28.150580616371123, 0.0 ], [ 111.874475113420388, 28.537465898674224, 0.0 ], [ 111.322992830836426, 29.146552933502015, 0.0 ], [ 111.087214173789647, 29.540189887487962, 0.0 ], [ 110.963330472629494, 29.925373553109281, 0.0 ] ] ] } },
{ "type": "Feature", "properties": { "id": "MY0003", "name": "梅雨3区", "styleUrl": null, "Area": null }, "geometry": { "type": "Polygon", "coordinates": [ [ [ 114.679841507434389, 28.814447287618897, 0.0 ], [ 115.171380063650503, 29.010343860298569, 0.0 ], [ 115.942656009583146, 29.198893049114425, 0.0 ], [ 116.414213323676648, 29.251206457748037, 0.0 ], [ 117.073594313722666, 29.397541666166454, 0.0 ], [ 117.585114112061405, 29.508894058926554, 0.0 ], [ 118.256483847380991, 29.640966092695862, 0.0 ], [ 119.095696016530482, 29.786739145325672, 0.0 ], [ 120.22263807224553, 30.029222851918082, 0.0 ], [ 120.738154119008769, 30.205517100545386, 0.0 ], [ 120.999621, 30.320239, 0.0 ], [ 121.144972, 30.365981, 0.0 ], [ 121.270975, 30.404436, 0.0 ], [ 121.52141881021511, 30.428025919260357, 0.0 ], [ 122.128848570742321, 30.713609710860727, 0.0 ], [ 122.454542817340908, 30.818341551858943, 0.0 ], [ 122.615391816427902, 30.872379736339603, 0.0 ], [ 122.696315847024465, 30.892957703038178, 0.0 ], [ 122.776240815514797, 30.898958777287682, 0.0 ], [ 122.844177038731772, 30.858658636590445, 0.0 ], [ 122.880143274552452, 30.805470832485536, 0.0 ], [ 122.930096379858966, 30.70587907931732, 0.0 ], [ 122.976053236740967, 30.606184410245682, 0.0 ], [ 123.004026975712492, 30.500361482808387, 0.0 ], [ 122.986043857802272, 30.380634263318001, 0.0 ], [ 122.938088876708022, 30.280605596471656, 0.0 ], [ 122.890133895613744, 30.183929338671412, 0.0 ], [ 122.824195796609047, 30.096666626539829, 0.0 ], [ 122.663846328575332, 30.001107722631946, 0.0 ], [ 122.520480916345406, 29.878605969878254, 0.0 ], [ 122.288698507723083, 29.529759020354991, 0.0 ], [ 122.027648, 29.156769, 0.0 ], [ 121.993975186414858, 29.064499795079744, 0.0 ], [ 121.912052093712191, 28.977137473067845, 0.0 ], [ 121.86559570577711, 28.945231826000562, 0.0 ], [ 121.825633221531902, 28.928182314549204, 0.0 ], [ 121.792164640976537, 28.913316349723821, 0.0 ], [ 121.766189026217134, 28.895824251479688, 0.0 ], [ 121.734219038820953, 28.88445280670512, 0.0 ], [ 121.714237796698356, 28.880078842519648, 0.0 ], [ 121.692258430363481, 28.879641435970694, 0.0 ], [ 121.650297821906165, 28.877016957999409, 0.0 ], [ 121.508930533888687, 28.880516247226794, 0.0 ], [ 121.2291931441722, 28.861268697969614, 0.0 ], [ 120.832565488038455, 28.801753744903856, 0.0 ], [ 120.290574295462392, 28.68481300993021, 0.0 ], [ 119.627197056991818, 28.509376365231155, 0.0 ], [ 118.300442580050742, 28.242153309969552, 0.0 ], [ 117.661042832127336, 28.129437319370275, 0.0 ], [ 116.781868178732637, 28.002489997129018, 0.0 ], [ 115.487083689187713, 27.854195556647042, 0.0 ], [ 114.24824667758611, 27.769364639401228, 0.0 ], [ 113.712749388700189, 27.804718906142917, 0.0 ], [ 114.376126627170734, 28.649749117734814, 0.0 ], [ 114.679841507434389, 28.814447287618897, 0.0 ] ] ] } },
{ "type": "Feature", "id": "0EE41F926A40ECCA11B3", "properties": { "name": "阿留申13", "styleUrl": "#__managed_style_0665B01D9540EC9A485F", "Area": 28074195 }, "geometry": null },
{ "type": "Feature", "id": "01FC95E27E40ECCA4221", "properties": { "name": "阿留申14", "styleUrl": "#__managed_style_0665B01D9540EC9A485F", "Area": 933815658 }, "geometry": null },
{ "type": "Feature", "id": "0A227BB2C640ECCA8029", "properties": { "name": "阿留申15", "styleUrl": "#__managed_style_0665B01D9540EC9A485F", "Area": 228584245 }, "geometry": null },
{ "type": "Feature", "id": "0724C7062440ECCAC98F", "properties": { "name": "阿留申16", "styleUrl": "#__managed_style_0665B01D9540EC9A485F", "Area": 33778091 }, "geometry": null },
{ "type": "Feature", "id": "07C352ED9D40ECCC164C", "properties": { "name": "阿留申21", "styleUrl": "#__managed_style_0665B01D9540EC9A485F", "Area": 34689885 }, "geometry": null },
{ "type": "Feature", "id": "092F9096B140ECCC4C69", "properties": { "name": "阿留申22", "styleUrl": "#__managed_style_0665B01D9540EC9A485F", "Area": 39563016 }, "geometry": null },
{ "type": "Feature", "id": "071CD582AD40ECCC7C08", "properties": { "name": "阿留申23", "styleUrl": "#__managed_style_0665B01D9540EC9A485F", "Area": 16406728 }, "geometry": null },
{ "type": "Feature", "id": "0F932E99FA40ECCCB45C", "properties": { "name": "阿留申24", "styleUrl": "#__managed_style_0665B01D9540EC9A485F", "Area": 15898986 }, "geometry": null },
{ "type": "Feature", "id": "018F23377340ECCCE174", "properties": { "name": "阿留申25", "styleUrl": "#__managed_style_0665B01D9540EC9A485F", "Area": 2263680 }, "geometry": null },
{ "type": "Feature", "id": "07CDD5717040ECCD1B48", "properties": { "name": "阿留申26", "styleUrl": "#__managed_style_0665B01D9540EC9A485F", "Area": 1399586 }, "geometry": null },
{ "type": "Feature", "id": "02DF620D1F40ECCD5539", "properties": { "name": "阿留申27", "styleUrl": "#__managed_style_0665B01D9540EC9A485F", "Area": 12812045 }, "geometry": null },
{ "type": "Feature", "id": "07787C78B140ECCD8B8F", "properties": { "name": "阿留申28", "styleUrl": "#__managed_style_0665B01D9540EC9A485F", "Area": 44664348 }, "geometry": null },
{ "type": "Feature", "id": "01B0A987FB40ECCDB489", "properties": { "name": "阿留申29", "styleUrl": "#__managed_style_0665B01D9540EC9A485F", "Area": 10902205 }, "geometry": null },
{ "type": "Feature", "id": "0A6908AB6540ECCDEA29", "properties": { "name": "阿留申30", "styleUrl": "#__managed_style_0665B01D9540EC9A485F", "Area": 4461516 }, "geometry": null },
{ "type": "Feature", "id": "056841D7D640ECCE2678", "properties": { "name": "阿拉斯加1", "styleUrl": "#__managed_style_0665B01D9540EC9A485F", "Area": 132642032 }, "geometry": null },
{ "type": "Feature", "id": "0194BBF22F40ECCE490C", "properties": { "name": "阿拉斯加2", "styleUrl": "#__managed_style_0665B01D9540EC9A485F", "Area": 94726394 }, "geometry": null },
{ "type": "Feature", "id": "0B3B0F5DF640ECCE8A3C", "properties": { "name": "阿拉斯加3", "styleUrl": "#__managed_style_0665B01D9540EC9A485F", "Area": 422596667 }, "geometry": null },
{ "type": "Feature", "id": "06C38E3F5340ECCEC627", "properties": { "name": "阿拉斯加4", "styleUrl": "#__managed_style_0665B01D9540EC9A485F", "Area": null }, "geometry": null },
{ "type": "Feature", "id": "053CB60B7B40ECCF5986", "properties": { "name": "阿拉斯加5", "styleUrl": "#__managed_style_0665B01D9540EC9A485F", "Area": null }, "geometry": null },
{ "type": "Feature", "id": "052AEC92B240ECCFA440", "properties": { "name": "阿拉斯加6", "styleUrl": "#__managed_style_0665B01D9540EC9A485F", "Area": 6167295 }, "geometry": { "type": "Polygon", "coordinates": [ [ [ -168.906185633084988, 65.768622753397537, 0.0 ], [ -168.927492102265489, 65.767317913936537, 0.0 ], [ -168.956610000751112, 65.760004900446148, 0.0 ], [ -168.943322189855394, 65.742604481521596, 0.0 ], [ -168.893786723498692, 65.740900856966562, 0.0 ], [ -168.902850853278409, 65.758548106283939, 0.0 ], [ -168.906185633084988, 65.768622753397537, 0.0 ] ] ] } },
{ "type": "Feature", "id": "038B2C9F7140ED02D790", "properties": { "name": "迪克岛", "styleUrl": "#__managed_style_0665B01D9540EC9A485F", "Area": 177498725 }, "geometry": null },
{ "type": "Feature", "id": "05C0A5786D40ED0375CC", "properties": { "name": "安妮特岛", "styleUrl": "#__managed_style_0665B01D9540EC9A485F", "Area": 366789624 }, "geometry": null },
{ "type": "Feature", "id": "04355E2BA440ED03F961", "properties": { "name": "格拉维纳岛", "styleUrl": "#__managed_style_0665B01D9540EC9A485F", "Area": 265045061 }, "geometry": null },
{ "type": "Feature", "id": "02A2E8C07140ED059BA8", "properties": { "name": "雷维雅希赫多岛", "styleUrl": "#__managed_style_0665B01D9540EC9A485F", "Area": null }, "geometry": null },
{ "type": "Feature", "id": "0015260A9740ED064B4C", "properties": { "name": "兰格尔岛", "styleUrl": "#__managed_style_0665B01D9540EC9A485F", "Area": 558652056 }, "geometry": null },
{ "type": "Feature", "id": "0EFD8EB0CD40ED06C0A4", "properties": { "name": "沃罗库夫斯克岛", "styleUrl": "#__managed_style_0665B01D9540EC9A485F", "Area": 61565480 }, "geometry": null },
{ "type": "Feature", "id": "004B8361F540ED082F5F", "properties": { "name": "埃托林岛", "styleUrl": "#__managed_style_0665B01D9540EC9A485F", "Area": 929305296 }, "geometry": null },
{ "type": "Feature", "id": "0983BCB0D640ED089557", "properties": { "name": "迪尔岛", "styleUrl": "#__managed_style_0665B01D9540EC9A485F", "Area": 40501112 }, "geometry": null },
{ "type": "Feature", "id": "0DBBF7E1A940ED0948E6", "properties": { "name": "扎轮博岛", "styleUrl": "#__managed_style_0665B01D9540EC9A485F", "Area": 493590610 }, "geometry": null },
{ "type": "Feature", "id": "0F2A79A41D40ED0A10D3", "properties": { "name": "米科特夫岛", "styleUrl": "#__managed_style_0665B01D9540EC9A485F", "Area": 557479797 }, "geometry": null },
{ "type": "Feature", "id": "05F1E6DE2040ED0BB293", "properties": { "name": "库普列阿诺夫岛", "styleUrl": "#__managed_style_0665B01D9540EC9A485F", "Area": null }, "geometry": null },
{ "type": "Feature", "id": "03F6678A8140ED0F29F6", "properties": { "name": "库尤岛", "styleUrl": "#__managed_style_0665B01D9540EC9A485F", "Area": 2046156240 }, "geometry": null },
{ "type": "Feature", "id": "03B85DAE5540ED11A761", "properties": { "name": "阿德默勒尔蒂岛", "styleUrl": "#__managed_style_0665B01D9540EC9A485F", "Area": null }, "geometry": null },
{ "type": "Feature", "id": "0DE601307D40ED148234", "properties": { "name": "奇恰戈夫岛", "styleUrl": "#__managed_style_0665B01D9540EC9A485F", "Area": null }, "geometry": null },
{ "type": "Feature", "id": "034AFF311B40ED167FF0", "properties": { "name": "巴拉诺夫岛", "styleUrl": "#__managed_style_0665B01D9540EC9A485F", "Area": null }, "geometry": null },
{ "type": "Feature", "id": "059C1E92AA40ED1C3FD3", "properties": { "name": "威尔士亲王岛", "styleUrl": "#__managed_style_0665B01D9540EC9A485F", "Area": null }, "geometry": null },
{ "type": "Feature", "id": "03DF8DC54840ED1D9970", "properties": { "name": "多尔岛", "styleUrl": "#__managed_style_0665B01D9540EC9A485F", "Area": 711447216 }, "geometry": null },
{ "type": "Feature", "id": "0B1122ED4940ED1DEDBC", "properties": { "name": "休梅兹岛", "styleUrl": "#__managed_style_0665B01D9540EC9A485F", "Area": 149676983 }, "geometry": null },
{ "type": "Feature", "id": "0CF226600440ED1EDCC9", "properties": { "name": "Sukkwan岛", "styleUrl": "#__managed_style_0665B01D9540EC9A485F", "Area": 216102293 }, "geometry": null },
{ "type": "Feature", "id": "0A9AB332EA40ED1F4E3B", "properties": { "name": "无名岛1", "styleUrl": "#__managed_style_0665B01D9540EC9A485F", "Area": 134980920 }, "geometry": null },
{ "type": "Feature", "id": "096F4C2BAD40ED1FBF33", "properties": { "name": "克罗内申岛", "styleUrl": "#__managed_style_0665B01D9540EC9A485F", "Area": 96089608 }, "geometry": null },
{ "type": "Feature", "id": "03E30394ED40ED1FFE43", "properties": { "name": "未命名的多边形", "styleUrl": "#__managed_style_0665B01D9540EC9A485F", "Area": 51746699 }, "geometry": null },
{ "type": "Feature", "id": "0A3CE6A8A340ED206F8F", "properties": { "name": "赫西塔岛", "styleUrl": "#__managed_style_0665B01D9540EC9A485F", "Area": 186220353 }, "geometry": null },
{ "type": "Feature", "id": "0D1486E45C40ED20FFBE", "properties": { "name": "无名岛2", "styleUrl": "#__managed_style_0665B01D9540EC9A485F", "Area": 89475138 }, "geometry": null },
{ "type": "Feature", "id": "03B622CE7C40ED214AB3", "properties": { "name": "圣费尔南多岛", "styleUrl": "#__managed_style_0665B01D9540EC9A485F", "Area": 89868215 }, "geometry": null },
{ "type": "Feature", "id": "06910C0B9140ED2189DE", "properties": { "name": "无名岛与3", "styleUrl": "#__managed_style_0665B01D9540EC9A485F", "Area": 23906402 }, "geometry": null },
{ "type": "Feature", "id": "04250E0CAA40ED21DE9C", "properties": { "name": "未命名的多边形", "styleUrl": "#__managed_style_0665B01D9540EC9A485F", "Area": 109599759 }, "geometry": null },
{ "type": "Feature", "id": "04D6D36F4A40ED2217A7", "properties": { "name": "鲁鲁岛", "styleUrl": "#__managed_style_0665B01D9540EC9A485F", "Area": 76515335 }, "geometry": null },
{ "type": "Feature", "id": "063E2BBAC940ED22AEF6", "properties": { "name": "贝克岛", "styleUrl": "#__managed_style_0665B01D9540EC9A485F", "Area": 120993919 }, "geometry": null },
{ "type": "Feature", "id": "083C37667440ED232A90", "properties": { "name": "贝尔埃兰岛", "styleUrl": "#__managed_style_0665B01D9540EC9A485F", "Area": 51232449 }, "geometry": null },
{ "type": "Feature", "id": "043AA373E440ED2385B8", "properties": { "name": "无名岛4", "styleUrl": "#__managed_style_0665B01D9540EC9A485F", "Area": 34885229 }, "geometry": null },
{ "type": "Feature", "id": "0FF01D072740ED240614", "properties": { "name": "无名岛5", "styleUrl": "#__managed_style_0665B01D9540EC9A485F", "Area": 36959578 }, "geometry": null },
{ "type": "Feature", "id": "020AC064E840ED2488B3", "properties": { "name": "无名岛6", "styleUrl": "#__managed_style_0665B01D9540EC9A485F", "Area": 24450693 }, "geometry": null },
{ "type": "Feature", "id": "0F2F04B93840ED252A98", "properties": { "name": "未命名的多边形", "styleUrl": "#__managed_style_0665B01D9540EC9A485F", "Area": 65246140 }, "geometry": null },
{ "type": "Feature", "id": "08EAE7EA1E40ED25963E", "properties": { "name": "未命名的多边形", "styleUrl": "#__managed_style_0665B01D9540EC9A485F", "Area": 944413483 }, "geometry": null },
{ "type": "Feature", "id": "0172CBE90040ED25E1C9", "properties": { "name": "未命名的多边形", "styleUrl": "#__managed_style_0665B01D9540EC9A485F", "Area": 422645260 }, "geometry": null },
{ "type": "Feature", "id": "09912B29F640ED2666B8", "properties": { "name": "未命名的多边形", "styleUrl": "#__managed_style_0665B01D9540EC9A485F", "Area": 110606298 }, "geometry": null },
{ "type": "Feature", "id": "087092BBA140ED26BCC9", "properties": { "name": "未命名的多边形", "styleUrl": "#__managed_style_0665B01D9540EC9A485F", "Area": 85363992 }, "geometry": null },
{ "type": "Feature", "id": "0260D1B76B40ED271EBC", "properties": { "name": "未命名的多边形", "styleUrl": "#__managed_style_0665B01D9540EC9A485F", "Area": 42350020 }, "geometry": null },
{ "type": "Feature", "id": "043955D8B240ED2764F8", "properties": { "name": "未命名的多边形", "styleUrl": "#__managed_style_0665B01D9540EC9A485F", "Area": 79696820 }, "geometry": null },
{ "type": "Feature", "id": "007D3EDF4A40ED27A763", "properties": { "name": "未命名的多边形", "styleUrl": "#__managed_style_0665B01D9540EC9A485F", "Area": 94057008 }, "geometry": null },
{ "type": "Feature", "id": "09897A8A2540ED27F658", "properties": { "name": "乌加沙特岛", "styleUrl": "#__managed_style_0665B01D9540EC9A485F", "Area": 32332516 }, "geometry": null },
{ "type": "Feature", "id": "0906F0427C40ED288D63", "properties": { "name": "未命名的多边形", "styleUrl": "#__managed_style_0665B01D9540EC9A485F", "Area": 335390552 }, "geometry": null },
{ "type": "Feature", "id": "06D29E0EA240ED291190", "properties": { "name": "未命名的多边形", "styleUrl": "#__managed_style_0665B01D9540EC9A485F", "Area": 490221185 }, "geometry": null },
{ "type": "Feature", "id": "05B822261340ED294EC1", "properties": { "name": "未命名的多边形", "styleUrl": "#__managed_style_0665B01D9540EC9A485F", "Area": 104169685 }, "geometry": null },
{ "type": "Feature", "id": "07B9D778B740ED2983DC", "properties": { "name": "未命名的多边形", "styleUrl": "#__managed_style_0665B01D9540EC9A485F", "Area": 77468739 }, "geometry": null },
{ "type": "Feature", "id": "0143CA28E040ED29BDF8", "properties": { "name": "未命名的多边形", "styleUrl": "#__managed_style_0665B01D9540EC9A485F", "Area": 19794446 }, "geometry": null },
{ "type": "Feature", "id": "0BC0FAE70140ED2A4258", "properties": { "name": "萨那克岛", "styleUrl": "#__managed_style_0665B01D9540EC9A485F", "Area": 182111439 }, "geometry": null },
{ "type": "Feature", "id": "030C51514340ED2AA080", "properties": { "styleUrl": "#__managed_style_0665B01D9540EC9A485F", "Area": 99201827 }, "geometry": null },
{ "type": "Feature", "id": "0F16E4767740ED2ADCDF", "properties": { "name": "未命名的多边形", "styleUrl": "#__managed_style_0665B01D9540EC9A485F", "Area": 41898194 }, "geometry": null },
{ "type": "Feature", "id": "0E62F4083E40ED2AF5A8", "properties": { "name": "未命名的多边形", "styleUrl": "#__managed_style_0665B01D9540EC9A485F", "Area": 13336607 }, "geometry": null },
{ "type": "Feature", "id": "0C5A4AEA6340ED2B1A47", "properties": { "name": "未命名的多边形", "styleUrl": "#__managed_style_0665B01D9540EC9A485F", "Area": 15192377 }, "geometry": null },
{ "type": "Feature", "id": "008DB4555240ED2B87F7", "properties": { "name": "未命名的多边形", "styleUrl": "#__managed_style_0665B01D9540EC9A485F", "Area": 115118701 }, "geometry": null },
{ "type": "Feature", "id": "03785FB22140ED2BA21B", "properties": { "name": "未命名的多边形", "styleUrl": "#__managed_style_0665B01D9540EC9A485F", "Area": 60018557 }, "geometry": null },
{ "type": "Feature", "id": "014A4506F840ED2BB598", "properties": { "name": "未命名的多边形", "styleUrl": "#__managed_style_0665B01D9540EC9A485F", "Area": 35154962 }, "geometry": null },
{ "type": "Feature", "id": "02059C09E740ED2C6076", "properties": { "name": "未命名的多边形", "styleUrl": "#__managed_style_0665B01D9540EC9A485F", "Area": 341423670 }, "geometry": null },
{ "type": "Feature", "id": "0E1D13829840ED2CB65E", "properties": { "name": "未命名的多边形", "styleUrl": "#__managed_style_0665B01D9540EC9A485F", "Area": 98537127 }, "geometry": null },
{ "type": "Feature", "id": "0FEA077C6740ED2CEEEE", "properties": { "name": "未命名的多边形", "styleUrl": "#__managed_style_0665B01D9540EC9A485F", "Area": 70343315 }, "geometry": null },
{ "type": "Feature", "id": "0199C4285540ED2D0918", "properties": { "name": "未命名的多边形", "styleUrl": "#__managed_style_0665B01D9540EC9A485F", "Area": 51394541 }, "geometry": null },
{ "type": "Feature", "id": "0E04862A2440ED2D2C48", "properties": { "name": "未命名的多边形", "styleUrl": "#__managed_style_0665B01D9540EC9A485F", "Area": 31638134 }, "geometry": null },
{ "type": "Feature", "id": "085FD2956140ED2D41F0", "properties": { "name": "未命名的多边形", "styleUrl": "#__managed_style_0665B01D9540EC9A485F", "Area": 24475260 }, "geometry": null },
{ "type": "Feature", "id": "0DEDA3DBB640ED2D61AC", "properties": { "name": "未命名的多边形", "styleUrl": "#__managed_style_0665B01D9540EC9A485F", "Area": 97310506 }, "geometry": null },
{ "type": "Feature", "id": "0DAA43E25040ED2DB444", "properties": { "name": "未命名的多边形", "styleUrl": "#__managed_style_0665B01D9540EC9A485F", "Area": 33225162 }, "geometry": null },
{ "type": "Feature", "id": "0C88C22AF040ED2DD089", "properties": { "name": "未命名的多边形", "styleUrl": "#__managed_style_0665B01D9540EC9A485F", "Area": 17508749 }, "geometry": null },
{ "type": "Feature", "id": "09721C2C9B40ED2DE604", "properties": { "name": "未命名的多边形", "styleUrl": "#__managed_style_0665B01D9540EC9A485F", "Area": 16946537 }, "geometry": null },
{ "type": "Feature", "id": "0781E101CA40ED2E2716", "properties": { "name": "未命名的多边形", "styleUrl": "#__managed_style_0665B01D9540EC9A485F", "Area": 53444761 }, "geometry": null },
{ "type": "Feature", "id": "0B598857BD40ED2E4F11", "properties": { "name": "未命名的多边形", "styleUrl": "#__managed_style_0665B01D9540EC9A485F", "Area": 89094148 }, "geometry": null },
{ "type": "Feature", "id": "0E90FC1E0C40ED2E6751", "properties": { "name": "未命名的多边形", "styleUrl": "#__managed_style_0665B01D9540EC9A485F", "Area": 46025052 }, "geometry": null },
{ "type": "Feature", "id": "059AB0E86840ED2E81DE", "properties": { "name": "未命名的多边形", "styleUrl": "#__managed_style_0665B01D9540EC9A485F", "Area": 37136898 }, "geometry": null },
{ "type": "Feature", "id": "003C81239640ED2EB227", "properties": { "name": "未命名的多边形", "styleUrl": "#__managed_style_0665B01D9540EC9A485F", "Area": 92100134 }, "geometry": null },
{ "type": "Feature", "id": "031E7EF8A440ED2ED506", "properties": { "name": "未命名的多边形", "styleUrl": "#__managed_style_0665B01D9540EC9A485F", "Area": 20017180 }, "geometry": null },
{ "type": "Feature", "id": "0B3423C09540ED2EF58F", "properties": { "name": "未命名的多边形", "styleUrl": "#__managed_style_0665B01D9540EC9A485F", "Area": 39776723 }, "geometry": null },
{ "type": "Feature", "id": "0212865B4A40ED2F24CF", "properties": { "name": "未命名的多边形", "styleUrl": "#__managed_style_0665B01D9540EC9A485F", "Area": 3279199 }, "geometry": null },
{ "type": "Feature", "id": "0323C9364B40ED2F4994", "properties": { "name": "未命名的多边形", "styleUrl": "#__managed_style_0665B01D9540EC9A485F", "Area": 3211706 }, "geometry": null },
{ "type": "Feature", "id": "08C4FF6EDA40ED2F734C", "properties": { "name": "未命名的多边形", "styleUrl": "#__managed_style_0665B01D9540EC9A485F", "Area": 24454955 }, "geometry": null },
{ "type": "Feature", "id": "031342D43E40ED2FA9A6", "properties": { "name": "未命名的多边形", "styleUrl": "#__managed_style_0665B01D9540EC9A485F", "Area": 73333918 }, "geometry": null },
{ "type": "Feature", "id": "091F30D78D40ED2FEBEC", "properties": { "name": "未命名的多边形", "styleUrl": "#__managed_style_0665B01D9540EC9A485F", "Area": 17645368 }, "geometry": null },
{ "type": "Feature", "id": "011B0B386940ED3000F8", "properties": { "name": "未命名的多边形", "styleUrl": "#__managed_style_0665B01D9540EC9A485F", "Area": 12285942 }, "geometry": null },
{ "type": "Feature", "id": "0FDD5D6B9540ED30179E", "properties": { "name": "未命名的多边形", "styleUrl": "#__managed_style_0665B01D9540EC9A485F", "Area": 14323641 }, "geometry": null },
{ "type": "Feature", "id": "0A377103CD40ED30429C", "properties": { "name": "未命名的多边形", "styleUrl": "#__managed_style_0665B01D9540EC9A485F", "Area": 7770900 }, "geometry": null },
{ "type": "Feature", "id": "03D2673B4C40ED305B31", "properties": { "name": "未命名的多边形", "styleUrl": "#__managed_style_0665B01D9540EC9A485F", "Area": 4287670 }, "geometry": null },
{ "type": "Feature", "id": "09E888BB1840ED30927C", "properties": { "name": "未命名的多边形", "styleUrl": "#__managed_style_0665B01D9540EC9A485F", "Area": 81847343 }, "geometry": null },
{ "type": "Feature", "id": "042FA0038D40ED30D614", "properties": { "name": "未命名的多边形", "styleUrl": "#__managed_style_0665B01D9540EC9A485F", "Area": 9427133 }, "geometry": null },
{ "type": "Feature", "id": "097D13064140ED30F1BC", "properties": { "name": "未命名的多边形", "styleUrl": "#__managed_style_0665B01D9540EC9A485F", "Area": 6531562 }, "geometry": null },
{ "type": "Feature", "id": "06DF1A07E540ED3109C1", "properties": { "name": "未命名的多边形", "styleUrl": "#__managed_style_0665B01D9540EC9A485F", "Area": 5542750 }, "geometry": null },
{ "type": "Feature", "id": "07EF1BDA5340ED3129A4", "properties": { "name": "未命名的多边形", "styleUrl": "#__managed_style_0665B01D9540EC9A485F", "Area": 1530081 }, "geometry": null },
{ "type": "Feature", "id": "042847CE4740ED3146C7", "properties": { "name": "未命名的多边形", "styleUrl": "#__managed_style_0665B01D9540EC9A485F", "Area": 1005719 }, "geometry": null },
{ "type": "Feature", "id": "0703D7519440ED31657C", "properties": { "name": "未命名的多边形", "styleUrl": "#__managed_style_0665B01D9540EC9A485F", "Area": 2346530 }, "geometry": null }
]
}
