{
  "type": "FeatureCollection",
  "features": [
    {
      "type": "Feature",
      "properties": {
        "name": "台风",
        "styleUrl": "#__managed_style_0EB6B9E41E407B3D62B7"
      },
      "geometry": {
        "type": "Polygon",
        "coordinates": [
          [
            [
              101.5368486808016,
              7.952433170267112,
              0.0
            ],
            [
              111.0694044396895,
              6.983872463625084,
              0.0
            ],
            [
              122.0951013507447,
              6.633087552176444,
              0.0
            ],
            [
              131.4464226609782,
              6.451419191587861,
              0.0
            ],
            [
              141.0568496936991,
              5.995016770081479,
              0.0
            ],
            [
              150.481677470481,
              5.634828776582922,
              0.0
            ],
            [
              159.038792643728,
              5.387606598422075,
              0.0
            ],
            [
              162.9580237326419,
              5.383792826411771,
              0.0
            ],
            [
              164.5824867615731,
              5.469116828559761,
              0.0
            ],
            [
              165.9354886454489,
              5.603429206263558,
              0.0
            ],
            [
              166.8757116578117,
              5.746086562447428,
              0.0
            ],
            [
              167.731415141446,
              5.896635800419117,
              0.0
            ],
            [
              169.4933568821078,
              6.311795216541645,
              0.0
            ],
            [
              171.9542355488546,
              7.124194109285479,
              0.0
            ],
            [
              173.8385683057415,
              7.974562960897558,
              0.0
            ],
            [
              175.4913814398052,
              8.965921288004765,
              0.0
            ],
            [
              176.9368454613378,
              10.03715083266187,
              0.0
            ],
            [
              178.0642624498605,
              11.35977001325985,
              0.0
            ],
            [
              178.5631935310068,
              12.52156542742958,
              0.0
            ],
            [
              178.8692713212851,
              13.78186295983056,
              0.0
            ],
            [
              179.2016549636695,
              15.29593940751199,
              0.0
            ],
            [
              179.1987937946658,
              16.71340536505181,
              0.0
            ],
            [
              178.6214907587728,
              20.99121393404942,
              0.0
            ],
            [
              177.8445467742189,
              24.81129813904624,
              0.0
            ],
            [
              177.0830717738554,
              27.34400137223291,
              0.0
            ],
            [
              176.6069403680643,
              29.74882203614162,
              0.0
            ],
            [
              176.2131238698127,
              31.14396680340753,
              0.0
            ],
            [
              175.8792287526349,
              32.63351511769446,
              0.0
            ],
            [
              175.5612468913724,
              33.82656378972492,
              0.0
            ],
            [
              175.2946019876815,
              34.94888660004433,
              0.0
            ],
            [
              175.0194641311004,
              36.18878473464093,
              0.0
            ],
            [
              174.7413754027379,
              37.32503770882708,
              0.0
            ],
            [
              174.4471412674732,
              38.45310696512276,
              0.0
            ],
            [
              173.8153237482746,
              40.2000345455254,
              0.0
            ],
            [
              172.0738266004098,
              43.39463254980348,
              0.0
            ],
            [
              170.6874769015096,
              45.2849560780822,
              0.0
            ],
            [
              168.9394720552701,
              46.99238994629513,
              0.0
            ],
            [
              164.0500866631381,
              50.26312211337211,
              0.0
            ],
            [
              160.7352094469041,
              51.69060819578704,
              0.0
            ],
            [
              157.1964322861732,
              53.05621624682435,
              0.0
            ],
            [
              153.1462869663515,
              54.08982080525671,
              0.0
            ],
            [
              148.5377528764845,
              54.75469574649264,
              0.0
            ],
            [
              144.8343537143494,
              55.23308910564913,
              0.0
            ],
            [
              140.2684876650134,
              54.80880723801535,
              0.0
            ],
            [
              137.4622195991839,
              54.4259030219695,
              0.0
            ],
            [
              135.2815509675456,
              53.65086870624964,
              0.0
            ],
            [
              130.5639305050802,
              51.73334727540836,
              0.0
            ],
            [
              110.5235313016133,
              37.81420748179479,
              0.0
            ],
            [
              102.2324433242587,
              24.0713045077252,
              0.0
            ],
            [
              101.8714764011249,
              19.38428726720199,
              0.0
            ],
            [
              101.3296378451978,
              16.1954140451145,
              0.0
            ],
            [
              99.30900337770987,
              12.18395946505465,
              0.0
            ],
            [
              98.87101151923885,
              10.21485619909214,
              0.0
            ],
            [
              98.90014284726917,
              9.662973272592163,
              0.0
            ],
            [
              98.9140173176761,
              9.493661507863772,
              0.0
            ],
            [
              98.9475837554986,
              9.273722992844863,
              0.0
            ],
            [
              99.0181789550133,
              9.07626186136499,
              0.0
            ],
            [
              99.1259653108745,
              8.937722558270414,
              0.0
            ],
            [
              99.27526039001468,
              8.672640205272646,
              0.0
            ],
            [
              99.36172379725134,
              8.453041704951078,
              0.0
            ],
            [
              101.5368486808016,
              7.952433170267112,
              0.0
            ]
          ]
        ]
      },
      "id": "0967C1DDA8407B3D629F"
    },
    {
      "type": "Feature",
      "properties": {
        "name": "飓风",
        "styleUrl": "#__managed_style_0EB6B9E41E407B3D62B7"
      },
      "geometry": {
        "type": "Polygon",
        "coordinates": [
          [
            [
              -133.2734031981175,
              9.148735800862145,
              0.0
            ],
            [
              -80.93928799701199,
              9.131284389025529,
              0.0
            ],
            [
              -75.44558203161742,
              8.896431214532237,
              0.0
            ],
            [
              -72.18604755063451,
              8.702941702683376,
              0.0
            ],
            [
              -66.35469516027717,
              8.394117725478122,
              0.0
            ],
            [
              -60.73386938851774,
              8.283698251777318,
              0.0
            ],
            [
              -44.8711941215341,
              7.160746102622472,
              0.0
            ],
            [
              -36.52534380066613,
              6.786470409495827,
              0.0
            ],
            [
              -31.2925293037359,
              6.665584008484892,
              0.0
            ],
            [
              -29.97373260491443,
              6.815288112853896,
              0.0
            ],
            [
              -28.78288715408391,
              7.57637153115494,
              0.0
            ],
            [
              -27.74474420960361,
              8.543945650565691,
              0.0
            ],
            [
              -27.14874768397724,
              9.641597270015161,
              0.0
            ],
            [
              -27.07458678362283,
              10.42529237714074,
              0.0
            ],
            [
              -27.17399046365947,
              11.19652195381957,
              0.0
            ],
            [
              -27.51491052469366,
              12.17664212506564,
              0.0
            ],
            [
              -28.01177272788421,
              12.9471910169192,
              0.0
            ],
            [
              -33.16597749170607,
              16.98941688924035,
              0.0
            ],
            [
              -42.73275657204331,
              23.38394529883262,
              0.0
            ],
            [
              -54.20799161846199,
              29.32925627059096,
              0.0
            ],
            [
              -56.79870358533678,
              31.65918826836887,
              0.0
            ],
            [
              -58.03712837069595,
              33.29848442644558,
              0.0
            ],
            [
              -58.41240819246138,
              34.68721725616549,
              0.0
            ],
            [
              -58.44991051014966,
              36.08680021189286,
              0.0
            ],
            [
              -58.14716942055806,
              36.97116754033236,
              0.0
            ],
            [
              -57.57459159936406,
              37.81004704022099,
              0.0
            ],
            [
              -56.74789611104681,
              38.67967671563584,
              0.0
            ],
            [
              -55.55351534891164,
              39.57627283526104,
              0.0
            ],
            [
              -21.94734785561031,
              62.01944695340529,
              0.0
            ],
            [
              -28.06400682014288,
              62.7223629127914,
              0.0
            ],
            [
              -31.196533895159,
              62.80488015948463,
              0.0
            ],
            [
              -33.8634287416733,
              62.69254700045887,
              0.0
            ],
            [
              -35.71818398423989,
              62.46163262071998,
              0.0
            ],
            [
              -37.18709244630677,
              62.24068515662797,
              0.0
            ],
            [
              -38.68180141991479,
              61.89351625310319,
              0.0
            ],
            [
              -39.95147337043478,
              61.50770319986503,
              0.0
            ],
            [
              -41.93774003074309,
              60.66690279177439,
              0.0
            ],
            [
              -43.59836119300186,
              59.81128447175075,
              0.0
            ],
            [
              -45.65963022619752,
              58.67592772756228,
              0.0
            ],
            [
              -48.32718815159654,
              57.2332170315785,
              0.0
            ],
            [
              -51.33753552319121,
              55.52922973356831,
              0.0
            ],
            [
              -56.79156594079959,
              52.25361960737959,
              0.0
            ],
            [
              -59.80004443637586,
              51.25895276656708,
              0.0
            ],
            [
              -61.60839929672156,
              50.84220948436638,
              0.0
            ],
            [
              -66.6769884174381,
              51.04335975124729,
              0.0
            ],
            [
              -71.4050622241461,
              47.63924955346974,
              0.0
            ],
            [
              -74.86565356501217,
              43.50610660994579,
              0.0
            ],
            [
              -82.8291351759604,
              40.62822007237094,
              0.0
            ],
            [
              -115.8928300787297,
              31.96164990485695,
              0.0
            ],
            [
              -120.9483719676067,
              31.23887017736415,
              0.0
            ],
            [
              -128.1306062717883,
              30.67311734364785,
              0.0
            ],
            [
              -131.3570478640895,
              30.44708297482649,
              0.0
            ],
            [
              -135.5496197137848,
              30.16328868308303,
              0.0
            ],
            [
              -137.8856417386321,
              29.94334766536981,
              0.0
            ],
            [
              -140.0916317260158,
              29.63924714705864,
              0.0
            ],
            [
              -142.0323476233345,
              29.37290669405025,
              0.0
            ],
            [
              -145.9316416357296,
              28.66587835280238,
              0.0
            ],
            [
              -148.5929884031737,
              28.14379665563686,
              0.0
            ],
            [
              -151.394922813503,
              27.60562501479975,
              0.0
            ],
            [
              -155.0179570990808,
              26.71192163692046,
              0.0
            ],
            [
              -156.3908185218994,
              26.20690607480618,
              0.0
            ],
            [
              -157.4967492824269,
              25.6486374960475,
              0.0
            ],
            [
              -158.4907532720503,
              24.97925845765015,
              0.0
            ],
            [
              -159.434343189182,
              24.24058916597191,
              0.0
            ],
            [
              -160.681305940541,
              23.24225343838232,
              0.0
            ],
            [
              -162.2297295510109,
              21.3966768816392,
              0.0
            ],
            [
              -163.0297732244568,
              19.32395581164531,
              0.0
            ],
            [
              -163.1680730360552,
              17.79350813216392,
              0.0
            ],
            [
              -162.7911104741048,
              16.15780087811736,
              0.0
            ],
            [
              -162.1831459100425,
              14.51502200851276,
              0.0
            ],
            [
              -161.5310324351546,
              13.80707211561613,
              0.0
            ],
            [
              -160.7228952686161,
              13.06776933368705,
              0.0
            ],
            [
              -159.6510384835576,
              12.45439043157563,
              0.0
            ],
            [
              -158.4706944546527,
              11.8862643072381,
              0.0
            ],
            [
              -156.3698483472404,
              11.04112245403148,
              0.0
            ],
            [
              -154.5547924103344,
              10.4792218832998,
              0.0
            ],
            [
              -152.0827386618695,
              9.902824141595055,
              0.0
            ],
            [
              -150.4156261267179,
              9.607131841300655,
              0.0
            ],
            [
              -148.4972167592495,
              9.349507239167979,
              0.0
            ],
            [
              -145.3419754392708,
              9.084534183731913,
              0.0
            ],
            [
              -140.7952945701804,
              9.139954169959996,
              0.0
            ],
            [
              -133.2734031981175,
              9.148735800862145,
              0.0
            ]
          ]
        ]
      },
      "id": "0AD5BE988B407B44A5C8"
    },
    {
      "type": "Feature",
      "properties": {
        "name": "风暴1",
        "styleUrl": "#__managed_style_0EB6B9E41E407B3D62B7"
      },
      "geometry": {
        "type": "Polygon",
        "coordinates": [
          [
            [
              59.53968421406317,
              10.41206683792326,
              0.0
            ],
            [
              61.28292412909845,
              9.616165511899403,
              0.0
            ],
            [
              63.25326084727871,
              9.13552750183787,
              0.0
            ],
            [
              65.28934132769527,
              8.719394532801363,
              0.0
            ],
            [
              67.35996229331766,
              8.46866753138065,
              0.0
            ],
            [
              69.96116758042969,
              8.368453836503564,
              0.0
            ],
            [
              72.45667373329869,
              8.548665656559765,
              0.0
            ],
            [
              74.69068833906292,
              8.943072646936168,
              0.0
            ],
            [
              76.1184942093471,
              9.271235585745677,
              0.0
            ],
            [
              76.92155004475251,
              9.778775064288098,
              0.0
            ],
            [
              76.13222746829813,
              13.80982725255446,
              0.0
            ],
            [
              75.20155904970385,
              21.57036389044502,
              0.0
            ],
            [
              69.48876623019615,
              25.34611103282136,
              0.0
            ],
            [
              62.99036006420514,
              26.39158886156124,
              0.0
            ],
            [
              60.01672986507289,
              21.31481248460548,
              0.0
            ],
            [
              57.55879580607963,
              15.98165385319362,
              0.0
            ],
            [
              57.38466065012268,
              14.30193956532229,
              0.0
            ],
            [
              57.9244079821958,
              12.75372341770362,
              0.0
            ],
            [
              58.54180961019003,
              11.36746623882551,
              0.0
            ],
            [
              59.53968421406317,
              10.41206683792326,
              0.0
            ]
          ]
        ]
      },
      "id": "09B9AFC116407B4E89E0"
    },
    {
      "type": "Feature",
      "properties": {
        "name": "风暴2",
        "styleUrl": "#__managed_style_0EB6B9E41E407B3D62B7"
      },
      "geometry": {
        "type": "Polygon",
        "coordinates": [
          [
            [
              52.15930532728002,
              -32.19418312211938,
              0.0
            ],
            [
              59.37119827737678,
              -32.14858498646499,
              0.0
            ],
            [
              67.06946527997461,
              -31.83463964208433,
              0.0
            ],
            [
              74.97629920687048,
              -31.24336460692744,
              0.0
            ],
            [
              82.77541556930288,
              -30.3766856056986,
              0.0
            ],
            [
              91.14421308141773,
              -28.93342002679973,
              0.0
            ],
            [
              98.93618447743863,
              -27.04506166311256,
              0.0
            ],
            [
              114.4898455109927,
              -22.91649934566342,
              0.0
            ],
            [
              152.8929387948594,
              -26.46466498852763,
              0.0
            ],
            [
              154.0493673430071,
              -26.79155620394537,
              0.0
            ],
            [
              155.3155863625728,
              -27.19578160025239,
              0.0
            ],
            [
              156.6318170071344,
              -27.5903548371036,
              0.0
            ],
            [
              158.0033291975787,
              -28.03948147869545,
              0.0
            ],
            [
              159.6037181899596,
              -28.61456918862189,
              0.0
            ],
            [
              161.5310283608652,
              -29.1507074556228,
              0.0
            ],
            [
              164.0880617992423,
              -29.81394781414869,
              0.0
            ],
            [
              167.2576214776702,
              -30.45742944457185,
              0.0
            ],
            [
              169.6620868525412,
              -30.46133102762704,
              0.0
            ],
            [
              171.5359051855048,
              -30.01673075798183,
              0.0
            ],
            [
              173.2141988351427,
              -29.54003149686248,
              0.0
            ],
            [
              174.6775772923768,
              -28.90835417102846,
              0.0
            ],
            [
              176.2288756924255,
              -27.83177122686243,
              0.0
            ],
            [
              177.52115067132,
              -26.69549267070529,
              0.0
            ],
            [
              178.7124104148058,
              -25.32936839992517,
              0.0
            ],
            [
              179.6067586171046,
              -23.74878780482502,
              0.0
            ],
            [
              179.9375815945676,
              -21.9557781562848,
              0.0
            ],
            [
              179.9257895460925,
              -20.16361590647209,
              0.0
            ],
            [
              179.7448752036743,
              -17.61671279259268,
              0.0
            ],
            [
              179.3516674826757,
              -13.99798770284032,
              0.0
            ],
            [
              178.9403151992264,
              -12.2014436352446,
              0.0
            ],
            [
              178.2766801601192,
              -10.49257364066663,
              0.0
            ],
            [
              177.5141774408106,
              -9.29458375195187,
              0.0
            ],
            [
              176.4970770281586,
              -8.180596946202941,
              0.0
            ],
            [
              175.0467216108963,
              -7.585899519332624,
              0.0
            ],
            [
              173.6808240698612,
              -7.38637465080274,
              0.0
            ],
            [
              172.0768573096624,
              -7.369988977774385,
              0.0
            ],
            [
              170.1711466600583,
              -7.439456852286525,
              0.0
            ],
            [
              167.7021698262975,
              -7.524876375058195,
              0.0
            ],
            [
              164.986337627066,
              -7.723791157169463,
              0.0
            ],
            [
              158.4469239250358,
              -8.164832822219434,
              0.0
            ],
            [
              151.8089093202658,
              -8.66955911629531,
              0.0
            ],
            [
              135.1187237521905,
              -9.023682162648692,
              0.0
            ],
            [
              122.0038535109014,
              -9.008533575937031,
              0.0
            ],
            [
              106.1394659633102,
              -8.417295825577552,
              0.0
            ],
            [
              102.7139912938338,
              -7.855168127321482,
              0.0
            ],
            [
              98.94999194279661,
              -7.104868812750937,
              0.0
            ],
            [
              91.96597403150537,
              -5.145689168478892,
              0.0
            ],
            [
              84.59348779405452,
              -3.481282643994223,
              0.0
            ],
            [
              77.31196842795038,
              -2.467233689939236,
              0.0
            ],
            [
              73.03305410614767,
              -2.289243310163902,
              0.0
            ],
            [
              68.93246968621641,
              -2.388405201784897,
              0.0
            ],
            [
              63.7356346269129,
              -2.920625186288677,
              0.0
            ],
            [
              58.57277509020244,
              -3.714869263209613,
              0.0
            ],
            [
              54.58566348893962,
              -4.980495293981106,
              0.0
            ],
            [
              51.393754517273,
              -6.985746788328985,
              0.0
            ],
            [
              48.94833136432003,
              -8.814811771262136,
              0.0
            ],
            [
              45.52734970899342,
              -12.13844978648314,
              0.0
            ],
            [
              43.06288555521685,
              -15.34615093987712,
              0.0
            ],
            [
              41.30897673690465,
              -18.14696625280093,
              0.0
            ],
            [
              40.4690015597314,
              -20.90039624990875,
              0.0
            ],
            [
              40.20150731459822,
              -23.37379211924189,
              0.0
            ],
            [
              40.75498079516382,
              -25.89931961228688,
              0.0
            ],
            [
              41.49841047820892,
              -28.04035772689111,
              0.0
            ],
            [
              43.14304516556967,
              -29.58321227893124,
              0.0
            ],
            [
              44.9571936839993,
              -30.67844124240468,
              0.0
            ],
            [
              47.10082326848553,
              -31.45277819614586,
              0.0
            ],
            [
              49.34838106587114,
              -31.93899378351479,
              0.0
            ],
            [
              52.15930532728002,
              -32.19418312211938,
              0.0
            ]
          ]
        ]
      },
      "id": "0EA3BB39F6407B4F16E3"
    },
    {
      "type": "Feature",
      "properties": {
        "name": "风暴3",
        "styleUrl": "#__managed_style_0EB6B9E41E407B3D62B7"
      },
      "geometry": {
        "type": "Polygon",
        "coordinates": [
          [
            [
              86.47579202514905,
              8.777478211185633,
              0.0
            ],
            [
              92.44193164781346,
              8.59677972510293,
              0.0
            ],
            [
              98.47766333845382,
              8.557996057392248,
              0.0
            ],
            [
              98.6443591230218,
              8.682843798634234,
              0.0
            ],
            [
              98.79337638235262,
              8.951044007120299,
              0.0
            ],
            [
              98.76268205019429,
              10.0547100314925,
              0.0
            ],
            [
              98.81247838316517,
              11.6037196709994,
              0.0
            ],
            [
              98.42982099675936,
              16.7777047510706,
              0.0
            ],
            [
              93.40622979534903,
              22.26209200002411,
              0.0
            ],
            [
              87.41569527408899,
              23.08136542233664,
              0.0
            ],
            [
              78.89298071240991,
              17.88817149939198,
              0.0
            ],
            [
              78.99260084301635,
              10.80685059731498,
              0.0
            ],
            [
              79.16160979632969,
              10.35503676452101,
              0.0
            ],
            [
              80.69182538832226,
              9.638467513186955,
              0.0
            ],
            [
              82.51825561390443,
              9.085299162850324,
              0.0
            ],
            [
              84.47561814998572,
              8.846395925001962,
              0.0
            ],
            [
              86.47579202514905,
              8.777478211185633,
              0.0
            ]
          ]
        ]
      },
      "id": "06AF3B7795407B967C86"
    }
  ]
}