{
"type": "FeatureCollection",
"name": "奥德河尼斯河一线",
"crs": { "type": "name", "properties": { "name": "urn:ogc:def:crs:EPSG::4979" } },
"features": [
{ "type": "Feature", "id": "0EDCFD101E40BD2E3871", "properties": { "name": "奥德河-尼斯河一线", "styleUrl": "#__managed_style_01BA5E44D740BD2E388C" }, "geometry": { "type": "LineString", "coordinates": [ [ 14.53851791451287, 53.667167492380202, 0.0 ], [ 14.59591135381377, 53.572371002326634, 0.0 ], [ 14.64003388660379, 53.520019865647043, 0.0 ], [ 14.614477952336699, 53.397683446686848, 0.0 ], [ 14.53621682323911, 53.336531106735627, 0.0 ], [ 14.50181500145106, 53.300255018487029, 0.0 ], [ 14.482752830018949, 53.266195737247493, 0.0 ], [ 14.48235790142652, 53.250372677795617, 0.0 ], [ 14.458771138133461, 53.234025084090128, 0.0 ], [ 14.44088686675547, 53.229871025707837, 0.0 ], [ 14.41569877808007, 53.193566780533843, 0.0 ], [ 14.386721895251281, 53.141589069648589, 0.0 ], [ 14.377888679504395, 53.112583160400391, 0.0 ], [ 14.371138572692871, 53.106555938720703, 0.0 ], [ 14.372555732727051, 53.103721618652344, 0.0 ], [ 14.369138717651367, 53.099334716796875, 0.0 ], [ 14.369972229003906, 53.093082427978516, 0.0 ], [ 14.365444183349609, 53.080028533935547, 0.0 ], [ 14.360361099243164, 53.074832916259766, 0.0 ], [ 14.35469493498651, 53.063352464875912, 0.0 ], [ 14.342333793640137, 53.052055358886719, 0.0 ], [ 14.321694374084473, 53.042057037353516, 0.0 ], [ 14.301388740539551, 53.028415679931641, 0.0 ], [ 14.274222373962402, 53.014194488525391, 0.0 ], [ 14.250194549560547, 53.000637054443359, 0.0 ], [ 14.246805191040039, 52.998249053955078, 0.0 ], [ 14.207777976989746, 52.987777709960938, 0.0 ], [ 14.177888870239258, 52.977195739746094, 0.0 ], [ 14.167916297912598, 52.967472076416016, 0.0 ], [ 14.147861480712891, 52.963417053222656, 0.0 ], [ 14.143444061279297, 52.957248687744141, 0.0 ], [ 14.144048180740874, 52.949663762549115, 0.0 ], [ 14.144805908203125, 52.938331604003906, 0.0 ], [ 14.152083396911621, 52.918140411376953, 0.0 ], [ 14.153528213500977, 52.906333923339844, 0.0 ], [ 14.163277626037598, 52.889636993408203, 0.0 ], [ 14.159444808959961, 52.875862121582031, 0.0 ], [ 14.15119457244873, 52.869361877441406, 0.0 ], [ 14.126749992370605, 52.847751617431641, 0.0 ], [ 14.123000144958496, 52.841110229492188, 0.0 ], [ 14.130027770996094, 52.831027984619141, 0.0 ], [ 14.138028144836426, 52.826637268066406, 0.0 ], [ 14.177333051702952, 52.822210012110197, 0.0 ], [ 14.200611723139051, 52.81966957803364, 0.0 ], [ 14.213833808898926, 52.818084716796875, 0.0 ], [ 14.22679847198834, 52.809898015703283, 0.0 ], [ 14.247091297621138, 52.79637794519919, 0.0 ], [ 14.278306007385254, 52.775943756103516, 0.0 ], [ 14.350972175598145, 52.753917694091797, 0.0 ], [ 14.35294683144137, 52.751428264898372, 0.0 ], [ 14.357722282409668, 52.744777679443359, 0.0 ], [ 14.37630558013916, 52.736251831054688, 0.0 ], [ 14.381583213806152, 52.729473114013672, 0.0 ], [ 14.410194396972656, 52.709056854248047, 0.0 ], [ 14.415082931518555, 52.702304840087891, 0.0 ], [ 14.427971839904785, 52.693668365478516, 0.0 ], [ 14.430305480957031, 52.687557220458984, 0.0 ], [ 14.437444686889648, 52.680667877197266, 0.0 ], [ 14.451708793640137, 52.677730560302734, 0.0 ], [ 14.458694458007812, 52.672637939453125, 0.0 ], [ 14.462444305419922, 52.663665771484375, 0.0 ], [ 14.468527793884277, 52.659584045410156, 0.0 ], [ 14.480667114257812, 52.655612945556641, 0.0 ], [ 14.515222549438477, 52.639362335205078, 0.0 ], [ 14.526277542114258, 52.635639190673828, 0.0 ], [ 14.537805557250977, 52.634666442871094, 0.0 ], [ 14.550277709960938, 52.628334045410156, 0.0 ], [ 14.573888778686523, 52.621082305908203, 0.0 ], [ 14.580194473266602, 52.616054534912109, 0.0 ], [ 14.598583221435547, 52.609111785888672, 0.0 ], [ 14.60877799987793, 52.596279144287109, 0.0 ], [ 14.61105827020967, 52.589277367032771, 0.0 ], [ 14.624388694763184, 52.580081939697266, 0.0 ], [ 14.62666489104314, 52.579590315891807, 0.0 ], [ 14.638222694396973, 52.57733154296875, 0.0 ], [ 14.629888534545898, 52.564304351806641, 0.0 ], [ 14.616555213928223, 52.556915283203125, 0.0 ], [ 14.602805137634277, 52.532276153564453, 0.0 ], [ 14.609611511230469, 52.515277862548828, 0.0 ], [ 14.61372184753418, 52.510860443115234, 0.0 ], [ 14.625833511352539, 52.504776000976562, 0.0 ], [ 14.628582954406738, 52.501167297363281, 0.0 ], [ 14.613027572631836, 52.476890563964844, 0.0 ], [ 14.608888626098633, 52.466110229492188, 0.0 ], [ 14.602527618408203, 52.459861755371094, 0.0 ], [ 14.575666427612305, 52.439334869384766, 0.0 ], [ 14.561222076416016, 52.43841552734375, 0.0 ], [ 14.551638603210449, 52.435138702392578, 0.0 ], [ 14.546555519104004, 52.429721832275391, 0.0 ], [ 14.54383373260498, 52.42047119140625, 0.0 ], [ 14.544750213623047, 52.412834167480469, 0.0 ], [ 14.533666610717773, 52.396526336669922, 0.0 ], [ 14.533888816833496, 52.391250610351562, 0.0 ], [ 14.548639297485352, 52.379001617431641, 0.0 ], [ 14.551666259765625, 52.372611999511719, 0.0 ], [ 14.550277709960938, 52.367805480957031, 0.0 ], [ 14.549722671508789, 52.351581573486328, 0.0 ], [ 14.557222366333008, 52.345085144042969, 0.0 ], [ 14.560916900634766, 52.338085174560547, 0.0 ], [ 14.560583114624023, 52.329082489013672, 0.0 ], [ 14.572305679321289, 52.320056915283203, 0.0 ], [ 14.578230355520761, 52.313427825993209, 0.0 ], [ 14.581305503845215, 52.310195922851562, 0.0 ], [ 14.583944320678711, 52.303806304931641, 0.0 ], [ 14.569277763366699, 52.294887542724609, 0.0 ], [ 14.582111326496253, 52.286371946870609, 0.0 ], [ 14.598638534545898, 52.274333953857422, 0.0 ], [ 14.611861228942871, 52.272777557373047, 0.0 ], [ 14.618083000183105, 52.274223327636719, 0.0 ], [ 14.626916885375977, 52.269027709960938, 0.0 ], [ 14.641805648803711, 52.264362335205078, 0.0 ], [ 14.665778160095215, 52.262332916259766, 0.0 ], [ 14.67491626739502, 52.25897216796875, 0.0 ], [ 14.690860748291016, 52.258140563964844, 0.0 ], [ 14.697278022766113, 52.254249572753906, 0.0 ], [ 14.704028129577637, 52.243694305419922, 0.0 ], [ 14.708110809326172, 52.2413330078125, 0.0 ], [ 14.712499618530273, 52.228168487548828, 0.0 ], [ 14.708250045776367, 52.214668273925781, 0.0 ], [ 14.702805519104004, 52.209278106689453, 0.0 ], [ 14.690250396728516, 52.203666687011719, 0.0 ], [ 14.684249877929688, 52.197166442871094, 0.0 ], [ 14.685277938842773, 52.192501068115234, 0.0 ], [ 14.693471908569336, 52.188056945800781, 0.0 ], [ 14.700833320617676, 52.181110382080078, 0.0 ], [ 14.704000473022461, 52.173557281494141, 0.0 ], [ 14.703472137451172, 52.168529510498047, 0.0 ], [ 14.699972152709961, 52.163471221923828, 0.0 ], [ 14.680000305175781, 52.147556304931641, 0.0 ], [ 14.68335425631987, 52.118286682718903, 0.0 ], [ 14.68488883972168, 52.111583709716797, 0.0 ], [ 14.690166473388672, 52.105472564697266, 0.0 ], [ 14.697083473205566, 52.102470397949219, 0.0 ], [ 14.720000267028809, 52.09747314453125, 0.0 ], [ 14.733805656433105, 52.092887878417969, 0.0 ], [ 14.74233341217041, 52.086334228515625, 0.0 ], [ 14.749860763549805, 52.076168060302734, 0.0 ], [ 14.755361557006836, 52.073501586914062, 0.0 ], [ 14.757166862487793, 52.069026947021484, 0.0 ], [ 14.753694534301758, 52.064193725585938, 0.0 ], [ 14.747056007385254, 52.060276031494141, 0.0 ], [ 14.74436092376709, 52.055610656738281, 0.0 ], [ 14.747583389282227, 52.044361114501953, 0.0 ], [ 14.71271400351157, 52.002368162334072, 0.0 ], [ 14.706792906689561, 51.977038114490561, 0.0 ], [ 14.71931976771703, 51.949106683292129, 0.0 ], [ 14.68735924781549, 51.906718696197117, 0.0 ], [ 14.638703004258421, 51.865868264547288, 0.0 ], [ 14.595104994253621, 51.839449665313197, 0.0 ], [ 14.597605978259439, 51.816672517485777, 0.0 ], [ 14.6469652628723, 51.794423957892597, 0.0 ], [ 14.65494849259504, 51.778382652565881, 0.0 ], [ 14.650881336155811, 51.760211860313483, 0.0 ], [ 14.65685643473212, 51.738765240196358, 0.0 ], [ 14.67146484306525, 51.723331903203309, 0.0 ], [ 14.70547549805277, 51.700060572950242, 0.0 ], [ 14.739930721626679, 51.685172482528451, 0.0 ], [ 14.757069630605731, 51.661568464074087, 0.0 ], [ 14.75205551511227, 51.642153746195653, 0.0 ], [ 14.757154558894721, 51.628325333677587, 0.0 ], [ 14.763364557691171, 51.611423385007413, 0.0 ], [ 14.732358462942001, 51.580546329462599, 0.0 ], [ 14.710624192390901, 51.560585338129549, 0.0 ], [ 14.73096146197847, 51.527815125166548, 0.0 ], [ 14.79478376484718, 51.515492554818977, 0.0 ], [ 14.84978135608061, 51.494396107159368, 0.0 ], [ 14.92224797423127, 51.477339792302082, 0.0 ], [ 14.948327950258751, 51.471172315562313, 0.0 ], [ 14.95714992796265, 51.458698093745468, 0.0 ], [ 14.966427449248201, 51.447533116413013, 0.0 ], [ 14.967525688144351, 51.421099774055037, 0.0 ], [ 14.96551753395747, 51.389942681274121, 0.0 ], [ 14.97429685884468, 51.376712926353228, 0.0 ], [ 14.982572236708689, 51.330179666885392, 0.0 ], [ 15.021338976555469, 51.301917274219043, 0.0 ], [ 15.03802409569008, 51.275477646274027, 0.0 ], [ 15.027810620918251, 51.237080987841317, 0.0 ], [ 15.00926233925359, 51.201013555334818, 0.0 ], [ 14.9946195616146, 51.1437125909763, 0.0 ], [ 14.9773101986572, 51.086343513751928, 0.0 ], [ 14.944997936253669, 51.024247088293379, 0.0 ], [ 14.917145564365979, 50.97873075852219, 0.0 ], [ 14.88128295519528, 50.930219774590967, 0.0 ], [ 14.838960985900419, 50.899359578097403, 0.0 ], [ 14.81627607478743, 50.882353525528458, 0.0 ], [ 14.82453674799674, 50.869462415890517, 0.0 ] ] } }
]
}
