{
  "type": "FeatureCollection",
  "features": [
    {
      "type": "Feature",
      "properties": {
        "name": "摩纳哥",
        "styleUrl": "#__managed_style_09C4A467884051D5D450"
      },
      "geometry": {
        "type": "Polygon",
        "coordinates": [
          [
            [
              7.422672512673252,
              43.72736781942153,
              0.0
            ],
            [
              7.423976826214005,
              43.7279674871249,
              0.0
            ],
            [
              7.423855187294269,
              43.72813719911134,
              0.0
            ],
            [
              7.422457934053299,
              43.72756766569213,
              0.0
            ],
            [
              7.422019550585313,
              43.72779010132255,
              0.0
            ],
            [
              7.421691335444647,
              43.72806311537986,
              0.0
            ],
            [
              7.421525941189335,
              43.72838690710084,
              0.0
            ],
            [
              7.421308511508435,
              43.72878517297936,
              0.0
            ],
            [
              7.419337798096497,
              43.72872010027647,
              0.0
            ],
            [
              7.419272652582974,
              43.72913877502822,
              0.0
            ],
            [
              7.418675082454054,
              43.72910060623451,
              0.0
            ],
            [
              7.41858164378743,
              43.73001371551234,
              0.0
            ],
            [
              7.419105473005372,
              43.73008307044703,
              0.0
            ],
            [
              7.419097317691888,
              43.73018510047991,
              0.0
            ],
            [
              7.417685745633866,
              43.73004218117006,
              0.0
            ],
            [
              7.417536638596189,
              43.73027723570939,
              0.0
            ],
            [
              7.41836898661222,
              43.73086553347741,
              0.0
            ],
            [
              7.41906364650327,
              43.73089101491669,
              0.0
            ],
            [
              7.419817109250624,
              43.73046016383905,
              0.0
            ],
            [
              7.420399750153209,
              43.72989531013405,
              0.0
            ],
            [
              7.420828372043409,
              43.72989504892239,
              0.0
            ],
            [
              7.421173598544614,
              43.73023229571598,
              0.0
            ],
            [
              7.421554128635353,
              43.7302226622442,
              0.0
            ],
            [
              7.421790512612025,
              43.73003228829922,
              0.0
            ],
            [
              7.421977902161563,
              43.72956463069297,
              0.0
            ],
            [
              7.422136175368303,
              43.72945509831104,
              0.0
            ],
            [
              7.423095308319006,
              43.72936442170136,
              0.0
            ],
            [
              7.424060257322987,
              43.72937101733142,
              0.0
            ],
            [
              7.425475013676815,
              43.7302896700614,
              0.0
            ],
            [
              7.426063632764086,
              43.73060751261691,
              0.0
            ],
            [
              7.427124528816334,
              43.73061187182171,
              0.0
            ],
            [
              7.427868416953562,
              43.73175715180373,
              0.0
            ],
            [
              7.428329443572204,
              43.73210532401626,
              0.0
            ],
            [
              7.428269757856554,
              43.73280324494345,
              0.0
            ],
            [
              7.42950879221077,
              43.73386041327451,
              0.0
            ],
            [
              7.429361560444391,
              43.73396579245485,
              0.0
            ],
            [
              7.432103340512235,
              43.73643590737866,
              0.0
            ],
            [
              7.431874558542527,
              43.73652762806807,
              0.0
            ],
            [
              7.428997196051514,
              43.73424210607159,
              0.0
            ],
            [
              7.428390534992506,
              43.7341812250452,
              0.0
            ],
            [
              7.427861821044123,
              43.73450804023455,
              0.0
            ],
            [
              7.427800334418373,
              43.73514764765375,
              0.0
            ],
            [
              7.427177292264544,
              43.73506413816506,
              0.0
            ],
            [
              7.427602191869784,
              43.73364065373313,
              0.0
            ],
            [
              7.423544845666892,
              43.73274041231375,
              0.0
            ],
            [
              7.423371979700271,
              43.73312828310504,
              0.0
            ],
            [
              7.422894759074414,
              43.73331773674926,
              0.0
            ],
            [
              7.422613954725161,
              43.73406776717935,
              0.0
            ],
            [
              7.42252484821501,
              43.73454578294581,
              0.0
            ],
            [
              7.423234568360344,
              43.73465576154369,
              0.0
            ],
            [
              7.423394987702753,
              43.73411469403172,
              0.0
            ],
            [
              7.42352577650792,
              43.73412758321961,
              0.0
            ],
            [
              7.423396197238925,
              43.73476412305949,
              0.0
            ],
            [
              7.42319661182451,
              43.73544256590424,
              0.0
            ],
            [
              7.423050951219872,
              43.73543017613478,
              0.0
            ],
            [
              7.42320417585783,
              43.7348625887009,
              0.0
            ],
            [
              7.42248962298132,
              43.73477946663812,
              0.0
            ],
            [
              7.422234898237563,
              43.73550015877144,
              0.0
            ],
            [
              7.422113586675987,
              43.73558080341583,
              0.0
            ],
            [
              7.421915509839254,
              43.73555697212393,
              0.0
            ],
            [
              7.42190286690967,
              43.73590858502368,
              0.0
            ],
            [
              7.422018724413022,
              43.73631710849517,
              0.0
            ],
            [
              7.422298420230109,
              43.73671996043878,
              0.0
            ],
            [
              7.424471973767743,
              43.73691997225444,
              0.0
            ],
            [
              7.424709034255743,
              43.73581138600797,
              0.0
            ],
            [
              7.424892882434603,
              43.73583871670414,
              0.0
            ],
            [
              7.424653827205652,
              43.73696110000419,
              0.0
            ],
            [
              7.426743053553635,
              43.73716553323433,
              0.0
            ],
            [
              7.426956761779071,
              43.73628421559788,
              0.0
            ],
            [
              7.427024963892748,
              43.73607240180679,
              0.0
            ],
            [
              7.426904257356601,
              43.73603768701907,
              0.0
            ],
            [
              7.426982283433981,
              43.73574705644311,
              0.0
            ],
            [
              7.427476795940384,
              43.73584756232916,
              0.0
            ],
            [
              7.427147351896439,
              43.73711612257004,
              0.0
            ],
            [
              7.429104608698072,
              43.73750775363833,
              0.0
            ],
            [
              7.429801347933697,
              43.73631288624666,
              0.0
            ],
            [
              7.430092011089862,
              43.73639169386292,
              0.0
            ],
            [
              7.429440273291852,
              43.73761599791298,
              0.0
            ],
            [
              7.430121725203211,
              43.73829486174417,
              0.0
            ],
            [
              7.429929012865784,
              43.73863664336485,
              0.0
            ],
            [
              7.430303805882145,
              43.73903832837069,
              0.0
            ],
            [
              7.430217336511282,
              43.73918885425866,
              0.0
            ],
            [
              7.430467930670805,
              43.73944769983542,
              0.0
            ],
            [
              7.430375242515335,
              43.73961361855653,
              0.0
            ],
            [
              7.430575510048152,
              43.73981524617302,
              0.0
            ],
            [
              7.430506100645246,
              43.73997050029586,
              0.0
            ],
            [
              7.430608107866316,
              43.74009649977994,
              0.0
            ],
            [
              7.430452555551927,
              43.7403933110058,
              0.0
            ],
            [
              7.430477843342489,
              43.74081471189825,
              0.0
            ],
            [
              7.430699246310328,
              43.74080579386936,
              0.0
            ],
            [
              7.430863109060876,
              43.74105744003619,
              0.0
            ],
            [
              7.431363801122988,
              43.74088173335177,
              0.0
            ],
            [
              7.430817695410756,
              43.73974136089993,
              0.0
            ],
            [
              7.431178686444362,
              43.73966173931548,
              0.0
            ],
            [
              7.431352737514878,
              43.73991333235114,
              0.0
            ],
            [
              7.431673040874154,
              43.73984200524571,
              0.0
            ],
            [
              7.43240957419051,
              43.74103263557551,
              0.0
            ],
            [
              7.432640554896873,
              43.74137560260851,
              0.0
            ],
            [
              7.433356497542061,
              43.74176194796146,
              0.0
            ],
            [
              7.433767155016686,
              43.74228812386335,
              0.0
            ],
            [
              7.433776298568462,
              43.74258639992765,
              0.0
            ],
            [
              7.433686758658076,
              43.74289413812121,
              0.0
            ],
            [
              7.432952153140599,
              43.74388074341942,
              0.0
            ],
            [
              7.432746234094125,
              43.74428774704478,
              0.0
            ],
            [
              7.432775664418743,
              43.74446333302335,
              0.0
            ],
            [
              7.433127702595412,
              43.74457232591455,
              0.0
            ],
            [
              7.433390408372905,
              43.74475676417732,
              0.0
            ],
            [
              7.433525172382995,
              43.7449226905339,
              0.0
            ],
            [
              7.433403662683872,
              43.74499464718125,
              0.0
            ],
            [
              7.433275166371843,
              43.74493708827302,
              0.0
            ],
            [
              7.43332760562724,
              43.74488586672991,
              0.0
            ],
            [
              7.433272309095567,
              43.74484756812125,
              0.0
            ],
            [
              7.433150415880405,
              43.74475031291186,
              0.0
            ],
            [
              7.433031216430914,
              43.74472479842656,
              0.0
            ],
            [
              7.432940849487806,
              43.74481246209288,
              0.0
            ],
            [
              7.432832437292904,
              43.74496816579689,
              0.0
            ],
            [
              7.432760943663588,
              43.74517791935916,
              0.0
            ],
            [
              7.432789143203571,
              43.74543228399509,
              0.0
            ],
            [
              7.433175068442218,
              43.74585196315871,
              0.0
            ],
            [
              7.434275779069461,
              43.7464528422425,
              0.0
            ],
            [
              7.434779262491295,
              43.74673340691371,
              0.0
            ],
            [
              7.435392906812472,
              43.74682195814574,
              0.0
            ],
            [
              7.435856894321806,
              43.74674035870878,
              0.0
            ],
            [
              7.436026039171972,
              43.74671125651756,
              0.0
            ],
            [
              7.43589507716835,
              43.74652718599275,
              0.0
            ],
            [
              7.435642529725852,
              43.74640080781251,
              0.0
            ],
            [
              7.435599863416726,
              43.74644743942753,
              0.0
            ],
            [
              7.435542379507913,
              43.74644567569244,
              0.0
            ],
            [
              7.435532444168322,
              43.74634838563901,
              0.0
            ],
            [
              7.435610177629471,
              43.74629987756193,
              0.0
            ],
            [
              7.4359618993733,
              43.74644110646355,
              0.0
            ],
            [
              7.436167105294356,
              43.74674162249959,
              0.0
            ],
            [
              7.436479719366744,
              43.74691297314989,
              0.0
            ],
            [
              7.436374295734661,
              43.7470101020488,
              0.0
            ],
            [
              7.436314079425761,
              43.74701078874381,
              0.0
            ],
            [
              7.436276628643745,
              43.74698694760495,
              0.0
            ],
            [
              7.436327609743487,
              43.74693653544805,
              0.0
            ],
            [
              7.436128437582024,
              43.74683032653799,
              0.0
            ],
            [
              7.435891746443795,
              43.74706616528847,
              0.0
            ],
            [
              7.436153947561913,
              43.74738540928029,
              0.0
            ],
            [
              7.436641673165756,
              43.74759002142465,
              0.0
            ],
            [
              7.437348426242778,
              43.74679355847357,
              0.0
            ],
            [
              7.437880793926334,
              43.74630857183197,
              0.0
            ],
            [
              7.438408862226702,
              43.7461831404656,
              0.0
            ],
            [
              7.439177486542357,
              43.74633071453607,
              0.0
            ],
            [
              7.439907719309671,
              43.74660162720657,
              0.0
            ],
            [
              7.439099815157073,
              43.74926350035561,
              0.0
            ],
            [
              7.438756093388306,
              43.74968874591659,
              0.0
            ],
            [
              7.438562820231387,
              43.75005561969942,
              0.0
            ],
            [
              7.438642463867133,
              43.75047308848765,
              0.0
            ],
            [
              7.438595979515645,
              43.75052963229694,
              0.0
            ],
            [
              7.438595961288705,
              43.7505889073681,
              0.0
            ],
            [
              7.438702793309315,
              43.75086973238815,
              0.0
            ],
            [
              7.438675360033765,
              43.75121221634235,
              0.0
            ],
            [
              7.438558908304684,
              43.75132934998845,
              0.0
            ],
            [
              7.438362634585407,
              43.75148880317352,
              0.0
            ],
            [
              7.437390325710373,
              43.75180677351032,
              0.0
            ],
            [
              7.436885109575407,
              43.7518972412231,
              0.0
            ],
            [
              7.436818941032421,
              43.7515740498491,
              0.0
            ],
            [
              7.437487437725483,
              43.75113959938881,
              0.0
            ],
            [
              7.43596726656603,
              43.75001377974454,
              0.0
            ],
            [
              7.433895460391851,
              43.74958218331858,
              0.0
            ],
            [
              7.433680116424912,
              43.74974695721291,
              0.0
            ],
            [
              7.431918800969727,
              43.74880846563319,
              0.0
            ],
            [
              7.430710349933469,
              43.74889957928752,
              0.0
            ],
            [
              7.430451720426339,
              43.74820841749052,
              0.0
            ],
            [
              7.429854143405192,
              43.74803865620434,
              0.0
            ],
            [
              7.429356164042707,
              43.74688202221681,
              0.0
            ],
            [
              7.428817802626679,
              43.74664391599683,
              0.0
            ],
            [
              7.428683487495382,
              43.74594699165311,
              0.0
            ],
            [
              7.428543162338228,
              43.74532796568155,
              0.0
            ],
            [
              7.428131800386806,
              43.74458170097481,
              0.0
            ],
            [
              7.428062853198886,
              43.74399008976566,
              0.0
            ],
            [
              7.427667134995821,
              43.7435533977786,
              0.0
            ],
            [
              7.42695931009303,
              43.74320024985919,
              0.0
            ],
            [
              7.426749207626527,
              43.74283302772668,
              0.0
            ],
            [
              7.426623907617418,
              43.74255713175558,
              0.0
            ],
            [
              7.426134358333407,
              43.74226875099691,
              0.0
            ],
            [
              7.425972911599546,
              43.74190865531779,
              0.0
            ],
            [
              7.425670657097038,
              43.74174856051139,
              0.0
            ],
            [
              7.425263760762513,
              43.74144498713021,
              0.0
            ],
            [
              7.425083601138893,
              43.74153810510361,
              0.0
            ],
            [
              7.424483079848779,
              43.74089440579875,
              0.0
            ],
            [
              7.42296372511767,
              43.74169186371969,
              0.0
            ],
            [
              7.422377583794953,
              43.74135501550712,
              0.0
            ],
            [
              7.422179519602585,
              43.74142567955966,
              0.0
            ],
            [
              7.421911498159906,
              43.74121073973673,
              0.0
            ],
            [
              7.42176346338129,
              43.74104680193425,
              0.0
            ],
            [
              7.421674478103064,
              43.74089593250397,
              0.0
            ],
            [
              7.421534986127194,
              43.74075038097266,
              0.0
            ],
            [
              7.421009574661599,
              43.74038845829297,
              0.0
            ],
            [
              7.420738527944788,
              43.74009423190993,
              0.0
            ],
            [
              7.419357097837302,
              43.73907332305627,
              0.0
            ],
            [
              7.417332792841094,
              43.73768313324023,
              0.0
            ],
            [
              7.415859824276893,
              43.73682908092027,
              0.0
            ],
            [
              7.414326527779704,
              43.73584478240036,
              0.0
            ],
            [
              7.413952484670759,
              43.73558801936182,
              0.0
            ],
            [
              7.413565526182456,
              43.73537329365118,
              0.0
            ],
            [
              7.412771968288549,
              43.73488565646009,
              0.0
            ],
            [
              7.412340386162393,
              43.73445401591048,
              0.0
            ],
            [
              7.412280725560834,
              43.73434632417768,
              0.0
            ],
            [
              7.412576629057539,
              43.7341086056464,
              0.0
            ],
            [
              7.412836001985874,
              43.73395950671406,
              0.0
            ],
            [
              7.412859487151586,
              43.73392237438683,
              0.0
            ],
            [
              7.412864009581757,
              43.73386342096055,
              0.0
            ],
            [
              7.412714607553468,
              43.73375720614759,
              0.0
            ],
            [
              7.412643035135915,
              43.73368418141326,
              0.0
            ],
            [
              7.412633050392623,
              43.73360889087607,
              0.0
            ],
            [
              7.412647164731581,
              43.73350732881395,
              0.0
            ],
            [
              7.412800326156703,
              43.73333107759225,
              0.0
            ],
            [
              7.412904240698735,
              43.73324475311461,
              0.0
            ],
            [
              7.412969193540979,
              43.73316192718104,
              0.0
            ],
            [
              7.413088559289225,
              43.73301834678714,
              0.0
            ],
            [
              7.413125598808197,
              43.73294563602838,
              0.0
            ],
            [
              7.413139588424402,
              43.73287575159689,
              0.0
            ],
            [
              7.413161472414083,
              43.7327786018129,
              0.0
            ],
            [
              7.413027824712437,
              43.73193625651112,
              0.0
            ],
            [
              7.41301189939673,
              43.73182667874961,
              0.0
            ],
            [
              7.412762691129789,
              43.73162702019646,
              0.0
            ],
            [
              7.41241926763167,
              43.73158884397795,
              0.0
            ],
            [
              7.411520268323173,
              43.73152943725724,
              0.0
            ],
            [
              7.410880128321267,
              43.73121737889921,
              0.0
            ],
            [
              7.409480834400812,
              43.73008255551871,
              0.0
            ],
            [
              7.409040535372055,
              43.72954869868688,
              0.0
            ],
            [
              7.411695274663412,
              43.72832880515291,
              0.0
            ],
            [
              7.413768775845426,
              43.72715310394265,
              0.0
            ],
            [
              7.418497016318797,
              43.72475750919842,
              0.0
            ],
            [
              7.421003878242923,
              43.72654979316066,
              0.0
            ],
            [
              7.422672512673252,
              43.72736781942153,
              0.0
            ]
          ]
        ]
      },
      "id": "0947793A553FC3131753"
    }
  ]
}