{
  "type": "FeatureCollection",
  "features": [
    {
      "type": "Feature",
      "properties": {
        "name": "瑙鲁",
        "styleUrl": "#__managed_style_081FA9654D412A07C947"
      },
      "geometry": {
        "type": "Polygon",
        "coordinates": [
          [
            [
              166.923512404818,
              -0.5133011108723585,
              0.0
            ],
            [
              166.9195851307592,
              -0.5169526771775502,
              0.0
            ],
            [
              166.9140377460379,
              -0.5216948154505189,
              0.0
            ],
            [
              166.9119193168702,
              -0.523867361896887,
              0.0
            ],
            [
              166.9111994438382,
              -0.5254742806098671,
              0.0
            ],
            [
              166.9105729169311,
              -0.5252599177658279,
              0.0
            ],
            [
              166.9104462945778,
              -0.5255534033309479,
              0.0
            ],
            [
              166.9096862126545,
              -0.5270711799565531,
              0.0
            ],
            [
              166.909302292498,
              -0.5272755223351276,
              0.0
            ],
            [
              166.9091454755826,
              -0.5275486777603579,
              0.0
            ],
            [
              166.9105353623259,
              -0.5271997195594781,
              0.0
            ],
            [
              166.9106392390846,
              -0.5274110730247974,
              0.0
            ],
            [
              166.9103708896555,
              -0.527723788147961,
              0.0
            ],
            [
              166.9100997838263,
              -0.5279916661326253,
              0.0
            ],
            [
              166.9093784913476,
              -0.5282800889108972,
              0.0
            ],
            [
              166.9089344124354,
              -0.5285760149358651,
              0.0
            ],
            [
              166.9096552561593,
              -0.528663819362268,
              0.0
            ],
            [
              166.9098169736905,
              -0.5285451952820072,
              0.0
            ],
            [
              166.9102933108767,
              -0.5286786143047124,
              0.0
            ],
            [
              166.9100906821737,
              -0.5293999310506988,
              0.0
            ],
            [
              166.9095606540972,
              -0.5292414337468629,
              0.0
            ],
            [
              166.9096025571591,
              -0.5288799608623007,
              0.0
            ],
            [
              166.90902615154,
              -0.5290724341425943,
              0.0
            ],
            [
              166.9088480798768,
              -0.5294285579709512,
              0.0
            ],
            [
              166.9097374163897,
              -0.529883501991789,
              0.0
            ],
            [
              166.909569848976,
              -0.5325593636272098,
              0.0
            ],
            [
              166.9093506230893,
              -0.5357794034723629,
              0.0
            ],
            [
              166.9092379488414,
              -0.5375838191197752,
              0.0
            ],
            [
              166.9097299341924,
              -0.5388289683890357,
              0.0
            ],
            [
              166.9110804198846,
              -0.5415087788643451,
              0.0
            ],
            [
              166.9124022235031,
              -0.544010027094293,
              0.0
            ],
            [
              166.9141087435585,
              -0.5460666299150471,
              0.0
            ],
            [
              166.9169483837663,
              -0.548340289354962,
              0.0
            ],
            [
              166.9204866776131,
              -0.5505521236440308,
              0.0
            ],
            [
              166.9214720414663,
              -0.5506806348940244,
              0.0
            ],
            [
              166.9247741947923,
              -0.5536211662491521,
              0.0
            ],
            [
              166.9264604913846,
              -0.5544680353068961,
              0.0
            ],
            [
              166.9273276316002,
              -0.553537926552302,
              0.0
            ],
            [
              166.9327150383926,
              -0.5540941835337573,
              0.0
            ],
            [
              166.9359941209985,
              -0.5537310590629548,
              0.0
            ],
            [
              166.9396310628072,
              -0.551791089209294,
              0.0
            ],
            [
              166.9428867601009,
              -0.5493910177174546,
              0.0
            ],
            [
              166.9458072292647,
              -0.5481244265220495,
              0.0
            ],
            [
              166.9470821080383,
              -0.5473714745259011,
              0.0
            ],
            [
              166.9494568568507,
              -0.5457997466771275,
              0.0
            ],
            [
              166.9502243932442,
              -0.5450752167149172,
              0.0
            ],
            [
              166.9507378599899,
              -0.5440829834750074,
              0.0
            ],
            [
              166.9509674934721,
              -0.5430858298102055,
              0.0
            ],
            [
              166.950846915569,
              -0.5419193808313384,
              0.0
            ],
            [
              166.9505748332115,
              -0.5400266048345828,
              0.0
            ],
            [
              166.9507392738694,
              -0.538444744459692,
              0.0
            ],
            [
              166.9509141164752,
              -0.5349179827676516,
              0.0
            ],
            [
              166.9519572423849,
              -0.5311285758332379,
              0.0
            ],
            [
              166.9524545272226,
              -0.5294940561424034,
              0.0
            ],
            [
              166.9536440360324,
              -0.5270557933215466,
              0.0
            ],
            [
              166.9547989225105,
              -0.5256037925432977,
              0.0
            ],
            [
              166.9562040220072,
              -0.524227098833372,
              0.0
            ],
            [
              166.957363179453,
              -0.5228830901350786,
              0.0
            ],
            [
              166.9583136926659,
              -0.52172177722799,
              0.0
            ],
            [
              166.9586863987334,
              -0.5208739489821015,
              0.0
            ],
            [
              166.9589074420571,
              -0.5199225135853227,
              0.0
            ],
            [
              166.9590713305437,
              -0.5190337682655084,
              0.0
            ],
            [
              166.9589798886545,
              -0.5179531565028032,
              0.0
            ],
            [
              166.9583843780448,
              -0.5153410677178027,
              0.0
            ],
            [
              166.9576919867194,
              -0.5134110766469663,
              0.0
            ],
            [
              166.9570193363699,
              -0.5119058413251902,
              0.0
            ],
            [
              166.956747668515,
              -0.5116092585987715,
              0.0
            ],
            [
              166.9564549389957,
              -0.5112751597020042,
              0.0
            ],
            [
              166.955996687177,
              -0.5109206073231606,
              0.0
            ],
            [
              166.9555978798004,
              -0.5101483175925734,
              0.0
            ],
            [
              166.9540905150219,
              -0.508264680258928,
              0.0
            ],
            [
              166.9527293363579,
              -0.5069576492065251,
              0.0
            ],
            [
              166.9510025961823,
              -0.5056918283647506,
              0.0
            ],
            [
              166.9489805876357,
              -0.5044730096332839,
              0.0
            ],
            [
              166.9469328462715,
              -0.503579433836051,
              0.0
            ],
            [
              166.9445169407248,
              -0.5028772103692871,
              0.0
            ],
            [
              166.9422969055339,
              -0.5029807537791494,
              0.0
            ],
            [
              166.940595465087,
              -0.5030121136074809,
              0.0
            ],
            [
              166.9382978921266,
              -0.5025425989462106,
              0.0
            ],
            [
              166.9354658772783,
              -0.5024937235779484,
              0.0
            ],
            [
              166.9335345199799,
              -0.5033090075213652,
              0.0
            ],
            [
              166.9320969452193,
              -0.5044264609642747,
              0.0
            ],
            [
              166.9286038855172,
              -0.5085662500115238,
              0.0
            ],
            [
              166.9264105818327,
              -0.5106245987316144,
              0.0
            ],
            [
              166.923512404818,
              -0.5133011108723585,
              0.0
            ]
          ]
        ]
      },
      "id": "05D930B53540F231BBA9"
    }
  ]
}